{
"type": "FeatureCollection",
"name": "areas",
"crs": { "type": "name", "properties": { "name": "urn:ogc:def:crs:OGC:1.3:CRS84" } },
"xy_coordinate_resolution": 1e-05,
"features": [
{ "type": "Feature", "properties": { "name": "near Scott Avenue", "residents": 860, "baseline_drive_min": 91.0, "cut_time": null, "window_min": null, "drive_share": null, "cut_step": null, "tight": false }, "geometry": { "type": "Point", "coordinates": [ -120.07608, 49.35814 ] } },
{ "type": "Feature", "properties": { "name": "near Scott Avenue", "residents": 110, "baseline_drive_min": 91.3, "cut_time": null, "window_min": null, "drive_share": null, "cut_step": null, "tight": false }, "geometry": { "type": "Point", "coordinates": [ -120.07548, 49.36 ] } },
{ "type": "Feature", "properties": { "name": "near Apex Mountain Road", "residents": 370, "baseline_drive_min": 50.8, "cut_time": null, "window_min": null, "drive_share": null, "cut_step": null, "tight": false }, "geometry": { "type": "Point", "coordinates": [ -119.91099, 49.39527 ] } },
{ "type": "Feature", "properties": { "name": "near Apex Mountain Road", "residents": 770, "baseline_drive_min": 50.1, "cut_time": null, "window_min": null, "drive_share": null, "cut_step": null, "tight": false }, "geometry": { "type": "Point", "coordinates": [ -119.90382, 49.39365 ] } },
{ "type": "Feature", "properties": { "name": "near Princeton Avenue", "residents": 190, "baseline_drive_min": 8.0, "cut_time": null, "window_min": null, "drive_share": null, "cut_step": null, "tight": false }, "geometry": { "type": "Point", "coordinates": [ -119.78354, 49.75274 ] } },
{ "type": "Feature", "properties": { "name": "near Law Street", "residents": 70, "baseline_drive_min": 9.3, "cut_time": null, "window_min": null, "drive_share": null, "cut_step": null, "tight": false }, "geometry": { "type": "Point", "coordinates": [ -119.78575, 49.75585 ] } },
{ "type": "Feature", "properties": { "name": "near Thorne Road", "residents": 200, "baseline_drive_min": 7.2, "cut_time": null, "window_min": null, "drive_share": null, "cut_step": null, "tight": false }, "geometry": { "type": "Point", "coordinates": [ -119.77046, 49.74098 ] } },
{ "type": "Feature", "properties": { "name": "near Sherburn Road", "residents": 360, "baseline_drive_min": 6.9, "cut_time": null, "window_min": null, "drive_share": null, "cut_step": null, "tight": false }, "geometry": { "type": "Point", "coordinates": [ -119.76917, 49.75096 ] } },
{ "type": "Feature", "properties": { "name": "near Princeton Avenue", "residents": 210, "baseline_drive_min": 6.7, "cut_time": null, "window_min": null, "drive_share": null, "cut_step": null, "tight": false }, "geometry": { "type": "Point", "coordinates": [ -119.76668, 49.75748 ] } },
{ "type": "Feature", "properties": { "name": "near Renfrew Court", "residents": 260, "baseline_drive_min": 6.4, "cut_time": null, "window_min": null, "drive_share": null, "cut_step": null, "tight": false }, "geometry": { "type": "Point", "coordinates": [ -119.76044, 49.75212 ] } },
{ "type": "Feature", "properties": { "name": "near Princeton Avenue", "residents": 1050, "baseline_drive_min": 4.9, "cut_time": null, "window_min": null, "drive_share": null, "cut_step": null, "tight": false }, "geometry": { "type": "Point", "coordinates": [ -119.75749, 49.7593 ] } },
{ "type": "Feature", "properties": { "name": "near Victoria Street", "residents": 780, "baseline_drive_min": 5.3, "cut_time": null, "window_min": null, "drive_share": null, "cut_step": null, "tight": false }, "geometry": { "type": "Point", "coordinates": [ -119.75644, 49.76671 ] } },
{ "type": "Feature", "properties": { "name": "near Gerrie Road", "residents": 30, "baseline_drive_min": 6.8, "cut_time": null, "window_min": null, "drive_share": null, "cut_step": null, "tight": false }, "geometry": { "type": "Point", "coordinates": [ -119.75132, 49.77336 ] } },
{ "type": "Feature", "properties": { "name": "near Grand Oro Branch Road", "residents": 20, "baseline_drive_min": 24.8, "cut_time": null, "window_min": null, "drive_share": null, "cut_step": null, "tight": false }, "geometry": { "type": "Point", "coordinates": [ -119.72022, 49.31001 ] } },
{ "type": "Feature", "properties": { "name": "near Twin Lakes Road", "residents": 40, "baseline_drive_min": 19.6, "cut_time": null, "window_min": null, "drive_share": null, "cut_step": null, "tight": false }, "geometry": { "type": "Point", "coordinates": [ -119.72106, 49.32934 ] } },
{ "type": "Feature", "properties": { "name": "near Somerset Avenue", "residents": 270, "baseline_drive_min": 4.0, "cut_time": null, "window_min": null, "drive_share": null, "cut_step": null, "tight": false }, "geometry": { "type": "Point", "coordinates": [ -119.74511, 49.77115 ] } },
{ "type": "Feature", "properties": { "name": "near Somerset Avenue", "residents": 280, "baseline_drive_min": 4.9, "cut_time": null, "window_min": null, "drive_share": null, "cut_step": null, "tight": false }, "geometry": { "type": "Point", "coordinates": [ -119.74265, 49.77451 ] } },
{ "type": "Feature", "properties": { "name": "near Verrier Street", "residents": 20, "baseline_drive_min": 17.0, "cut_time": null, "window_min": null, "drive_share": null, "cut_step": null, "tight": false }, "geometry": { "type": "Point", "coordinates": [ -119.71675, 49.59125 ] } },
{ "type": "Feature", "properties": { "name": "near Prairie Valley Road", "residents": 40, "baseline_drive_min": 16.5, "cut_time": "2026-08-08T03:17:00-07:00", "window_min": 629.0, "drive_share": 0.03, "cut_step": 4.0, "tight": false }, "geometry": { "type": "Point", "coordinates": [ -119.71364, 49.59625 ] } },
{ "type": "Feature", "properties": { "name": "near 5th Street", "residents": 100, "baseline_drive_min": 2.1, "cut_time": null, "window_min": null, "drive_share": null, "cut_step": null, "tight": false }, "geometry": { "type": "Point", "coordinates": [ -119.73196, 49.77856 ] } },
{ "type": "Feature", "properties": { "name": "near Pincushion Place", "residents": 670, "baseline_drive_min": 3.1, "cut_time": null, "window_min": null, "drive_share": null, "cut_step": null, "tight": false }, "geometry": { "type": "Point", "coordinates": [ -119.72874, 49.78587 ] } },
{ "type": "Feature", "properties": { "name": "near Star Place", "residents": 150, "baseline_drive_min": 6.1, "cut_time": null, "window_min": null, "drive_share": null, "cut_step": null, "tight": false }, "geometry": { "type": "Point", "coordinates": [ -119.72766, 49.80174 ] } },
{ "type": "Feature", "properties": { "name": "near Dale Meadows Road", "residents": 40, "baseline_drive_min": 15.5, "cut_time": null, "window_min": null, "drive_share": null, "cut_step": null, "tight": false }, "geometry": { "type": "Point", "coordinates": [ -119.70262, 49.59133 ] } },
{ "type": "Feature", "properties": { "name": "near Morrow Avenue", "residents": 120, "baseline_drive_min": 17.1, "cut_time": "2026-08-08T02:13:00-07:00", "window_min": 565.0, "drive_share": 0.03, "cut_step": 3.0, "tight": false }, "geometry": { "type": "Point", "coordinates": [ -119.70626, 49.59994 ] } },
{ "type": "Feature", "properties": { "name": "near McLarty Place", "residents": 50, "baseline_drive_min": 17.8, "cut_time": "2026-08-08T02:13:00-07:00", "window_min": 565.0, "drive_share": 0.03, "cut_step": 3.0, "tight": false }, "geometry": { "type": "Point", "coordinates": [ -119.70922, 49.60366 ] } },
{ "type": "Feature", "properties": { "name": "near 14th Street", "residents": 60, "baseline_drive_min": 1.0, "cut_time": null, "window_min": null, "drive_share": null, "cut_step": null, "tight": false }, "geometry": { "type": "Point", "coordinates": [ -119.71722, 49.78208 ] } },
{ "type": "Feature", "properties": { "name": "near Okanagan Highway", "residents": 840, "baseline_drive_min": 1.8, "cut_time": null, "window_min": null, "drive_share": null, "cut_step": null, "tight": false }, "geometry": { "type": "Point", "coordinates": [ -119.71639, 49.78624 ] } },
{ "type": "Feature", "properties": { "name": "near Smith Way", "residents": 490, "baseline_drive_min": 4.2, "cut_time": null, "window_min": null, "drive_share": null, "cut_step": null, "tight": false }, "geometry": { "type": "Point", "coordinates": [ -119.71388, 49.79642 ] } },
{ "type": "Feature", "properties": { "name": "near Okanagan Connector", "residents": 50, "baseline_drive_min": 4.7, "cut_time": null, "window_min": null, "drive_share": null, "cut_step": null, "tight": false }, "geometry": { "type": "Point", "coordinates": [ -119.71341, 49.80279 ] } },
{ "type": "Feature", "properties": { "name": "near Fyffe Road", "residents": 20, "baseline_drive_min": 16.1, "cut_time": null, "window_min": null, "drive_share": null, "cut_step": null, "tight": false }, "geometry": { "type": "Point", "coordinates": [ -119.68538, 49.58125 ] } },
{ "type": "Feature", "properties": { "name": "near Dale Meadows Road", "residents": 60, "baseline_drive_min": 14.5, "cut_time": null, "window_min": null, "drive_share": null, "cut_step": null, "tight": false }, "geometry": { "type": "Point", "coordinates": [ -119.68841, 49.59132 ] } },
{ "type": "Feature", "properties": { "name": "near Sinclair Road", "residents": 1790, "baseline_drive_min": 13.9, "cut_time": null, "window_min": null, "drive_share": null, "cut_step": null, "tight": false }, "geometry": { "type": "Point", "coordinates": [ -119.68916, 49.6001 ] } },
{ "type": "Feature", "properties": { "name": "near Quinpool Road", "residents": 1010, "baseline_drive_min": 14.0, "cut_time": null, "window_min": null, "drive_share": null, "cut_step": null, "tight": false }, "geometry": { "type": "Point", "coordinates": [ -119.69038, 49.60595 ] } },
{ "type": "Feature", "properties": { "name": "near Sanborn Street", "residents": 60, "baseline_drive_min": 14.0, "cut_time": "2026-08-08T03:17:00-07:00", "window_min": 629.0, "drive_share": 0.02, "cut_step": 4.0, "tight": false }, "geometry": { "type": "Point", "coordinates": [ -119.68859, 49.61823 ] } },
{ "type": "Feature", "properties": { "name": "near Buchanan Road", "residents": 50, "baseline_drive_min": 1.6, "cut_time": null, "window_min": null, "drive_share": null, "cut_step": null, "tight": false }, "geometry": { "type": "Point", "coordinates": [ -119.70625, 49.79015 ] } },
{ "type": "Feature", "properties": { "name": "near Buchanan Road", "residents": 640, "baseline_drive_min": 3.1, "cut_time": null, "window_min": null, "drive_share": null, "cut_step": null, "tight": false }, "geometry": { "type": "Point", "coordinates": [ -119.70477, 49.79621 ] } },
{ "type": "Feature", "properties": { "name": "near Victoria Road South", "residents": 30, "baseline_drive_min": 15.2, "cut_time": null, "window_min": null, "drive_share": null, "cut_step": null, "tight": false }, "geometry": { "type": "Point", "coordinates": [ -119.67369, 49.57388 ] } },
{ "type": "Feature", "properties": { "name": "near Cedar Avenue", "residents": 420, "baseline_drive_min": 16.3, "cut_time": null, "window_min": null, "drive_share": null, "cut_step": null, "tight": false }, "geometry": { "type": "Point", "coordinates": [ -119.67626, 49.58225 ] } },
{ "type": "Feature", "properties": { "name": "near Cedar Avenue", "residents": 940, "baseline_drive_min": 14.4, "cut_time": null, "window_min": null, "drive_share": null, "cut_step": null, "tight": false }, "geometry": { "type": "Point", "coordinates": [ -119.67999, 49.58987 ] } },
{ "type": "Feature", "properties": { "name": "near Prairie Valley Road", "residents": 1590, "baseline_drive_min": 12.6, "cut_time": null, "window_min": null, "drive_share": null, "cut_step": null, "tight": false }, "geometry": { "type": "Point", "coordinates": [ -119.67845, 49.60024 ] } },
{ "type": "Feature", "properties": { "name": "near Turner Street", "residents": 1710, "baseline_drive_min": 12.5, "cut_time": null, "window_min": null, "drive_share": null, "cut_step": null, "tight": false }, "geometry": { "type": "Point", "coordinates": [ -119.67888, 49.60759 ] } },
{ "type": "Feature", "properties": { "name": "near Snow Avenue", "residents": 490, "baseline_drive_min": 13.6, "cut_time": null, "window_min": null, "drive_share": null, "cut_step": null, "tight": false }, "geometry": { "type": "Point", "coordinates": [ -119.67594, 49.61758 ] } },
{ "type": "Feature", "properties": { "name": "near Sumac Ridge Drive", "residents": 110, "baseline_drive_min": 14.3, "cut_time": null, "window_min": null, "drive_share": null, "cut_step": null, "tight": false }, "geometry": { "type": "Point", "coordinates": [ -119.67879, 49.6225 ] } },
{ "type": "Feature", "properties": { "name": "near Tavender Court", "residents": 320, "baseline_drive_min": 13.4, "cut_time": null, "window_min": null, "drive_share": null, "cut_step": null, "tight": false }, "geometry": { "type": "Point", "coordinates": [ -119.65851, 49.59233 ] } },
{ "type": "Feature", "properties": { "name": "near Okanagan Highway", "residents": 920, "baseline_drive_min": 12.0, "cut_time": null, "window_min": null, "drive_share": null, "cut_step": null, "tight": false }, "geometry": { "type": "Point", "coordinates": [ -119.66572, 49.60056 ] } },
{ "type": "Feature", "properties": { "name": "near Switchback Road", "residents": 800, "baseline_drive_min": 12.7, "cut_time": null, "window_min": null, "drive_share": null, "cut_step": null, "tight": false }, "geometry": { "type": "Point", "coordinates": [ -119.66412, 49.60761 ] } },
{ "type": "Feature", "properties": { "name": "near Huddleston Road", "residents": 100, "baseline_drive_min": 14.1, "cut_time": null, "window_min": null, "drive_share": null, "cut_step": null, "tight": false }, "geometry": { "type": "Point", "coordinates": [ -119.66926, 49.61651 ] } },
{ "type": "Feature", "properties": { "name": "near Matsu Drive", "residents": 30, "baseline_drive_min": 18.2, "cut_time": null, "window_min": null, "drive_share": null, "cut_step": null, "tight": false }, "geometry": { "type": "Point", "coordinates": [ -119.66709, 49.62546 ] } },
{ "type": "Feature", "properties": { "name": "near Turnbull Road", "residents": 70, "baseline_drive_min": 10.1, "cut_time": null, "window_min": null, "drive_share": null, "cut_step": null, "tight": false }, "geometry": { "type": "Point", "coordinates": [ -119.67252, 49.83458 ] } },
{ "type": "Feature", "properties": { "name": "near Glenrosa Road", "residents": 200, "baseline_drive_min": 9.6, "cut_time": null, "window_min": null, "drive_share": null, "cut_step": null, "tight": false }, "geometry": { "type": "Point", "coordinates": [ -119.67207, 49.84265 ] } },
{ "type": "Feature", "properties": { "name": "near Blue Jay Drive", "residents": 90, "baseline_drive_min": 10.8, "cut_time": null, "window_min": null, "drive_share": null, "cut_step": null, "tight": false }, "geometry": { "type": "Point", "coordinates": [ -119.67254, 49.84839 ] } },
{ "type": "Feature", "properties": { "name": "near White Lake Road", "residents": 30, "baseline_drive_min": 15.2, "cut_time": null, "window_min": null, "drive_share": null, "cut_step": null, "tight": false }, "geometry": { "type": "Point", "coordinates": [ -119.63827, 49.31833 ] } },
{ "type": "Feature", "properties": { "name": "near St Andrews Drive", "residents": 90, "baseline_drive_min": 14.2, "cut_time": null, "window_min": null, "drive_share": null, "cut_step": null, "tight": false }, "geometry": { "type": "Point", "coordinates": [ -119.63518, 49.34018 ] } },
{ "type": "Feature", "properties": { "name": "near Saddlehorn Drive", "residents": 30, "baseline_drive_min": 13.4, "cut_time": null, "window_min": null, "drive_share": null, "cut_step": null, "tight": false }, "geometry": { "type": "Point", "coordinates": [ -119.63285, 49.34817 ] } },
{ "type": "Feature", "properties": { "name": "near Westhills Drive", "residents": 20, "baseline_drive_min": 6.9, "cut_time": null, "window_min": null, "drive_share": null, "cut_step": null, "tight": false }, "geometry": { "type": "Point", "coordinates": [ -119.6439, 49.48909 ] } },
{ "type": "Feature", "properties": { "name": "near Forsyth Drive", "residents": 100, "baseline_drive_min": 7.6, "cut_time": null, "window_min": null, "drive_share": null, "cut_step": null, "tight": false }, "geometry": { "type": "Point", "coordinates": [ -119.64189, 49.50903 ] } },
{ "type": "Feature", "properties": { "name": "near Forsyth Drive", "residents": 30, "baseline_drive_min": 8.7, "cut_time": null, "window_min": null, "drive_share": null, "cut_step": null, "tight": false }, "geometry": { "type": "Point", "coordinates": [ -119.63983, 49.51553 ] } },
{ "type": "Feature", "properties": { "name": "near Morgan Street", "residents": 50, "baseline_drive_min": 9.4, "cut_time": null, "window_min": null, "drive_share": null, "cut_step": null, "tight": false }, "geometry": { "type": "Point", "coordinates": [ -119.64394, 49.57312 ] } },
{ "type": "Feature", "properties": { "name": "near Happy Valley Road", "residents": 70, "baseline_drive_min": 12.0, "cut_time": null, "window_min": null, "drive_share": null, "cut_step": null, "tight": false }, "geometry": { "type": "Point", "coordinates": [ -119.65082, 49.58322 ] } },
{ "type": "Feature", "properties": { "name": "near Walters Road", "residents": 250, "baseline_drive_min": 12.4, "cut_time": null, "window_min": null, "drive_share": null, "cut_step": null, "tight": false }, "geometry": { "type": "Point", "coordinates": [ -119.65388, 49.5917 ] } },
{ "type": "Feature", "properties": { "name": "near Okanagan Highway", "residents": 180, "baseline_drive_min": 11.9, "cut_time": null, "window_min": null, "drive_share": null, "cut_step": null, "tight": false }, "geometry": { "type": "Point", "coordinates": [ -119.65487, 49.59914 ] } },
{ "type": "Feature", "properties": { "name": "near Peach Orchard Road", "residents": 390, "baseline_drive_min": 13.3, "cut_time": null, "window_min": null, "drive_share": null, "cut_step": null, "tight": false }, "geometry": { "type": "Point", "coordinates": [ -119.65514, 49.60734 ] } },
{ "type": "Feature", "properties": { "name": "near Parkhurst Road", "residents": 1250, "baseline_drive_min": 8.0, "cut_time": null, "window_min": null, "drive_share": null, "cut_step": null, "tight": false }, "geometry": { "type": "Point", "coordinates": [ -119.66204, 49.83426 ] } },
{ "type": "Feature", "properties": { "name": "near Gates Road", "residents": 2020, "baseline_drive_min": 9.3, "cut_time": null, "window_min": null, "drive_share": null, "cut_step": null, "tight": false }, "geometry": { "type": "Point", "coordinates": [ -119.66395, 49.84186 ] } },
{ "type": "Feature", "properties": { "name": "near Webber Road", "residents": 430, "baseline_drive_min": 11.2, "cut_time": null, "window_min": null, "drive_share": null, "cut_step": null, "tight": false }, "geometry": { "type": "Point", "coordinates": [ -119.66582, 49.84857 ] } },
{ "type": "Feature", "properties": { "name": "near Sandy Point Place", "residents": 100, "baseline_drive_min": 8.0, "cut_time": null, "window_min": null, "drive_share": null, "cut_step": null, "tight": false }, "geometry": { "type": "Point", "coordinates": [ -119.63087, 49.48314 ] } },
{ "type": "Feature", "properties": { "name": "near Vedette Drive", "residents": 890, "baseline_drive_min": 3.5, "cut_time": null, "window_min": null, "drive_share": null, "cut_step": null, "tight": false }, "geometry": { "type": "Point", "coordinates": [ -119.62769, 49.49424 ] } },
{ "type": "Feature", "properties": { "name": "near Newton Drive", "residents": 600, "baseline_drive_min": 5.0, "cut_time": null, "window_min": null, "drive_share": null, "cut_step": null, "tight": false }, "geometry": { "type": "Point", "coordinates": [ -119.63096, 49.50219 ] } },
{ "type": "Feature", "properties": { "name": "near West Bench Drive", "residents": 320, "baseline_drive_min": 6.0, "cut_time": null, "window_min": null, "drive_share": null, "cut_step": null, "tight": false }, "geometry": { "type": "Point", "coordinates": [ -119.6326, 49.50763 ] } },
{ "type": "Feature", "properties": { "name": "near Okanagan Highway", "residents": 70, "baseline_drive_min": 8.1, "cut_time": null, "window_min": null, "drive_share": null, "cut_step": null, "tight": false }, "geometry": { "type": "Point", "coordinates": [ -119.63271, 49.56694 ] } },
{ "type": "Feature", "properties": { "name": "near Okanagan Highway", "residents": 580, "baseline_drive_min": 8.3, "cut_time": null, "window_min": null, "drive_share": null, "cut_step": null, "tight": false }, "geometry": { "type": "Point", "coordinates": [ -119.63296, 49.57313 ] } },
{ "type": "Feature", "properties": { "name": "near Okanagan Highway", "residents": 130, "baseline_drive_min": 9.3, "cut_time": null, "window_min": null, "drive_share": null, "cut_step": null, "tight": false }, "geometry": { "type": "Point", "coordinates": [ -119.6334, 49.57864 ] } },
{ "type": "Feature", "properties": { "name": "near Sunstone Street", "residents": 90, "baseline_drive_min": 6.5, "cut_time": null, "window_min": null, "drive_share": null, "cut_step": null, "tight": false }, "geometry": { "type": "Point", "coordinates": [ -119.64777, 49.8177 ] } },
{ "type": "Feature", "properties": { "name": "near Glenrosa Road", "residents": 780, "baseline_drive_min": 7.1, "cut_time": null, "window_min": null, "drive_share": null, "cut_step": null, "tight": false }, "geometry": { "type": "Point", "coordinates": [ -119.65037, 49.82537 ] } },
{ "type": "Feature", "properties": { "name": "near Dunbarton Road", "residents": 1550, "baseline_drive_min": 8.1, "cut_time": null, "window_min": null, "drive_share": null, "cut_step": null, "tight": false }, "geometry": { "type": "Point", "coordinates": [ -119.65131, 49.83362 ] } },
{ "type": "Feature", "properties": { "name": "near Scharf Road", "residents": 420, "baseline_drive_min": 9.6, "cut_time": null, "window_min": null, "drive_share": null, "cut_step": null, "tight": false }, "geometry": { "type": "Point", "coordinates": [ -119.6505, 49.84058 ] } },
{ "type": "Feature", "properties": { "name": "near Salish Road", "residents": 510, "baseline_drive_min": 12.5, "cut_time": null, "window_min": null, "drive_share": null, "cut_step": null, "tight": false }, "geometry": { "type": "Point", "coordinates": [ -119.64911, 49.8506 ] } },
{ "type": "Feature", "properties": { "name": "near Okanagan Highway", "residents": 40, "baseline_drive_min": 9.3, "cut_time": null, "window_min": null, "drive_share": null, "cut_step": null, "tight": false }, "geometry": { "type": "Point", "coordinates": [ -119.61384, 49.37599 ] } },
{ "type": "Feature", "properties": { "name": "near Okanagan Highway", "residents": 280, "baseline_drive_min": 6.3, "cut_time": null, "window_min": null, "drive_share": null, "cut_step": null, "tight": false }, "geometry": { "type": "Point", "coordinates": [ -119.61422, 49.44767 ] } },
{ "type": "Feature", "properties": { "name": "near View Road", "residents": 100, "baseline_drive_min": 5.9, "cut_time": null, "window_min": null, "drive_share": null, "cut_step": null, "tight": false }, "geometry": { "type": "Point", "coordinates": [ -119.61158, 49.45309 ] } },
{ "type": "Feature", "properties": { "name": "near Green Mountain Road", "residents": 60, "baseline_drive_min": 4.5, "cut_time": null, "window_min": null, "drive_share": null, "cut_step": null, "tight": false }, "geometry": { "type": "Point", "coordinates": [ -119.61722, 49.47764 ] } },
{ "type": "Feature", "properties": { "name": "near Eckhardt Avenue West", "residents": 400, "baseline_drive_min": 1.6, "cut_time": null, "window_min": null, "drive_share": null, "cut_step": null, "tight": false }, "geometry": { "type": "Point", "coordinates": [ -119.61567, 49.49425 ] } },
{ "type": "Feature", "properties": { "name": "near Red Wing Place", "residents": 1200, "baseline_drive_min": 3.0, "cut_time": null, "window_min": null, "drive_share": null, "cut_step": null, "tight": false }, "geometry": { "type": "Point", "coordinates": [ -119.61668, 49.50126 ] } },
{ "type": "Feature", "properties": { "name": "near Hyslop Drive", "residents": 120, "baseline_drive_min": 5.4, "cut_time": null, "window_min": null, "drive_share": null, "cut_step": null, "tight": false }, "geometry": { "type": "Point", "coordinates": [ -119.62097, 49.50911 ] } },
{ "type": "Feature", "properties": { "name": "near Ladera Place", "residents": 20, "baseline_drive_min": 4.5, "cut_time": null, "window_min": null, "drive_share": null, "cut_step": null, "tight": false }, "geometry": { "type": "Point", "coordinates": [ -119.62208, 49.51704 ] } },
{ "type": "Feature", "properties": { "name": "near Dent Street", "residents": 110, "baseline_drive_min": 8.6, "cut_time": null, "window_min": null, "drive_share": null, "cut_step": null, "tight": false }, "geometry": { "type": "Point", "coordinates": [ -119.62506, 49.56723 ] } },
{ "type": "Feature", "properties": { "name": "near Wharf Street", "residents": 410, "baseline_drive_min": 8.3, "cut_time": null, "window_min": null, "drive_share": null, "cut_step": null, "tight": false }, "geometry": { "type": "Point", "coordinates": [ -119.62521, 49.57135 ] } },
{ "type": "Feature", "properties": { "name": "near Whitworth Road", "residents": 90, "baseline_drive_min": 11.9, "cut_time": null, "window_min": null, "drive_share": null, "cut_step": null, "tight": false }, "geometry": { "type": "Point", "coordinates": [ -119.63276, 49.80898 ] } },
{ "type": "Feature", "properties": { "name": "near Brown Road", "residents": 840, "baseline_drive_min": 7.5, "cut_time": null, "window_min": null, "drive_share": null, "cut_step": null, "tight": false }, "geometry": { "type": "Point", "coordinates": [ -119.63168, 49.82631 ] } },
{ "type": "Feature", "properties": { "name": "near Elliott Road", "residents": 650, "baseline_drive_min": 7.4, "cut_time": null, "window_min": null, "drive_share": null, "cut_step": null, "tight": false }, "geometry": { "type": "Point", "coordinates": [ -119.63265, 49.83299 ] } },
{ "type": "Feature", "properties": { "name": "near Broadview Road", "residents": 900, "baseline_drive_min": 9.4, "cut_time": null, "window_min": null, "drive_share": null, "cut_step": null, "tight": false }, "geometry": { "type": "Point", "coordinates": [ -119.63211, 49.84294 ] } },
{ "type": "Feature", "properties": { "name": "near Bridlehill Drive", "residents": 900, "baseline_drive_min": 11.7, "cut_time": null, "window_min": null, "drive_share": null, "cut_step": null, "tight": false }, "geometry": { "type": "Point", "coordinates": [ -119.63514, 49.85132 ] } },
{ "type": "Feature", "properties": { "name": "near Linden Avenue", "residents": 260, "baseline_drive_min": 13.5, "cut_time": null, "window_min": null, "drive_share": null, "cut_step": null, "tight": false }, "geometry": { "type": "Point", "coordinates": [ -119.59687, 49.38389 ] } },
{ "type": "Feature", "properties": { "name": "near Cedar Avenue", "residents": 280, "baseline_drive_min": 11.9, "cut_time": null, "window_min": null, "drive_share": null, "cut_step": null, "tight": false }, "geometry": { "type": "Point", "coordinates": [ -119.59706, 49.39349 ] } },
{ "type": "Feature", "properties": { "name": "near Lombardy Place", "residents": 110, "baseline_drive_min": 11.2, "cut_time": null, "window_min": null, "drive_share": null, "cut_step": null, "tight": false }, "geometry": { "type": "Point", "coordinates": [ -119.60145, 49.40252 ] } },
{ "type": "Feature", "properties": { "name": "near Pineview Drive", "residents": 30, "baseline_drive_min": 9.7, "cut_time": null, "window_min": null, "drive_share": null, "cut_step": null, "tight": false }, "geometry": { "type": "Point", "coordinates": [ -119.60397, 49.40763 ] } },
{ "type": "Feature", "properties": { "name": "near Skaha Lake Road", "residents": 50, "baseline_drive_min": 4.9, "cut_time": null, "window_min": null, "drive_share": null, "cut_step": null, "tight": false }, "geometry": { "type": "Point", "coordinates": [ -119.60464, 49.45206 ] } },
{ "type": "Feature", "properties": { "name": "near Airport Road", "residents": 270, "baseline_drive_min": 5.5, "cut_time": null, "window_min": null, "drive_share": null, "cut_step": null, "tight": false }, "geometry": { "type": "Point", "coordinates": [ -119.60316, 49.45731 ] } },
{ "type": "Feature", "properties": { "name": "near Channel Parkway", "residents": 560, "baseline_drive_min": 2.5, "cut_time": null, "window_min": null, "drive_share": null, "cut_step": null, "tight": false }, "geometry": { "type": "Point", "coordinates": [ -119.60174, 49.47735 ] } },
{ "type": "Feature", "properties": { "name": "near Hastings Avenue", "residents": 830, "baseline_drive_min": 1.8, "cut_time": null, "window_min": null, "drive_share": null, "cut_step": null, "tight": false }, "geometry": { "type": "Point", "coordinates": [ -119.59873, 49.48496 ] } },
{ "type": "Feature", "properties": { "name": "near Eckhardt Avenue West", "residents": 1770, "baseline_drive_min": 0.7, "cut_time": null, "window_min": null, "drive_share": null, "cut_step": null, "tight": false }, "geometry": { "type": "Point", "coordinates": [ -119.60148, 49.49334 ] } },
{ "type": "Feature", "properties": { "name": "near Westminster Avenue West", "residents": 1260, "baseline_drive_min": 1.4, "cut_time": null, "window_min": null, "drive_share": null, "cut_step": null, "tight": false }, "geometry": { "type": "Point", "coordinates": [ -119.60255, 49.49909 ] } },
{ "type": "Feature", "properties": { "name": "near George Court", "residents": 30, "baseline_drive_min": 11.4, "cut_time": null, "window_min": null, "drive_share": null, "cut_step": null, "tight": false }, "geometry": { "type": "Point", "coordinates": [ -119.62584, 49.80972 ] } },
{ "type": "Feature", "properties": { "name": "near Angus Drive", "residents": 440, "baseline_drive_min": 10.3, "cut_time": null, "window_min": null, "drive_share": null, "cut_step": null, "tight": false }, "geometry": { "type": "Point", "coordinates": [ -119.62507, 49.81597 ] } },
{ "type": "Feature", "properties": { "name": "near Gellatly Road", "residents": 620, "baseline_drive_min": 8.3, "cut_time": null, "window_min": null, "drive_share": null, "cut_step": null, "tight": false }, "geometry": { "type": "Point", "coordinates": [ -119.62229, 49.82697 ] } },
{ "type": "Feature", "properties": { "name": "near Okanagan Highway", "residents": 1610, "baseline_drive_min": 8.2, "cut_time": null, "window_min": null, "drive_share": null, "cut_step": null, "tight": false }, "geometry": { "type": "Point", "coordinates": [ -119.62349, 49.83545 ] } },
{ "type": "Feature", "properties": { "name": "near Old Okanagan Highway", "residents": 2180, "baseline_drive_min": 10.0, "cut_time": null, "window_min": null, "drive_share": null, "cut_step": null, "tight": false }, "geometry": { "type": "Point", "coordinates": [ -119.62192, 49.84259 ] } },
{ "type": "Feature", "properties": { "name": "near Asquith Road", "residents": 800, "baseline_drive_min": 11.3, "cut_time": null, "window_min": null, "drive_share": null, "cut_step": null, "tight": false }, "geometry": { "type": "Point", "coordinates": [ -119.62062, 49.85171 ] } },
{ "type": "Feature", "properties": { "name": "near Paramount Drive", "residents": 300, "baseline_drive_min": 12.7, "cut_time": null, "window_min": null, "drive_share": null, "cut_step": null, "tight": false }, "geometry": { "type": "Point", "coordinates": [ -119.61873, 49.86073 ] } },
{ "type": "Feature", "properties": { "name": "near Big Sky Drive", "residents": 60, "baseline_drive_min": 14.6, "cut_time": null, "window_min": null, "drive_share": null, "cut_step": null, "tight": false }, "geometry": { "type": "Point", "coordinates": [ -119.61831, 49.86785 ] } },
{ "type": "Feature", "properties": { "name": "near Cedar Street", "residents": 30, "baseline_drive_min": 6.9, "cut_time": null, "window_min": null, "drive_share": null, "cut_step": null, "tight": false }, "geometry": { "type": "Point", "coordinates": [ -119.57601, 49.3354 ] } },
{ "type": "Feature", "properties": { "name": "near Cedar Street", "residents": 450, "baseline_drive_min": 5.8, "cut_time": null, "window_min": null, "drive_share": null, "cut_step": null, "tight": false }, "geometry": { "type": "Point", "coordinates": [ -119.57631, 49.34124 ] } },
{ "type": "Feature", "properties": { "name": "near Okanagan Highway", "residents": 80, "baseline_drive_min": 5.5, "cut_time": null, "window_min": null, "drive_share": null, "cut_step": null, "tight": false }, "geometry": { "type": "Point", "coordinates": [ -119.57636, 49.34583 ] } },
{ "type": "Feature", "properties": { "name": "near Maple Avenue", "residents": 40, "baseline_drive_min": 13.5, "cut_time": null, "window_min": null, "drive_share": null, "cut_step": null, "tight": false }, "geometry": { "type": "Point", "coordinates": [ -119.58311, 49.37955 ] } },
{ "type": "Feature", "properties": { "name": "near Lakehill Road", "residents": 220, "baseline_drive_min": 13.4, "cut_time": null, "window_min": null, "drive_share": null, "cut_step": null, "tight": false }, "geometry": { "type": "Point", "coordinates": [ -119.5874, 49.38776 ] } },
{ "type": "Feature", "properties": { "name": "near Finnerty Road", "residents": 40, "baseline_drive_min": 7.0, "cut_time": null, "window_min": null, "drive_share": null, "cut_step": null, "tight": false }, "geometry": { "type": "Point", "coordinates": [ -119.5809, 49.44657 ] } },
{ "type": "Feature", "properties": { "name": "near Yorkton Avenue", "residents": 1880, "baseline_drive_min": 4.7, "cut_time": null, "window_min": null, "drive_share": null, "cut_step": null, "tight": false }, "geometry": { "type": "Point", "coordinates": [ -119.587, 49.45846 ] } },
{ "type": "Feature", "properties": { "name": "near McGraw Street", "residents": 2310, "baseline_drive_min": 4.0, "cut_time": null, "window_min": null, "drive_share": null, "cut_step": null, "tight": false }, "geometry": { "type": "Point", "coordinates": [ -119.5865, 49.46671 ] } },
{ "type": "Feature", "properties": { "name": "near Okanagan Avenue West", "residents": 2510, "baseline_drive_min": 3.2, "cut_time": null, "window_min": null, "drive_share": null, "cut_step": null, "tight": false }, "geometry": { "type": "Point", "coordinates": [ -119.58737, 49.47561 ] } },
{ "type": "Feature", "properties": { "name": "near Fairview Road", "residents": 3600, "baseline_drive_min": 2.4, "cut_time": null, "window_min": null, "drive_share": null, "cut_step": null, "tight": false }, "geometry": { "type": "Point", "coordinates": [ -119.58882, 49.48496 ] } },
{ "type": "Feature", "properties": { "name": "near Eckhardt Avenue East", "residents": 3430, "baseline_drive_min": 1.7, "cut_time": null, "window_min": null, "drive_share": null, "cut_step": null, "tight": false }, "geometry": { "type": "Point", "coordinates": [ -119.58962, 49.49289 ] } },
{ "type": "Feature", "properties": { "name": "near Nanaimo Avenue East", "residents": 1360, "baseline_drive_min": 2.9, "cut_time": null, "window_min": null, "drive_share": null, "cut_step": null, "tight": false }, "geometry": { "type": "Point", "coordinates": [ -119.58798, 49.5006 ] } },
{ "type": "Feature", "properties": { "name": "near Ellis Avenue", "residents": 1010, "baseline_drive_min": 18.0, "cut_time": null, "window_min": null, "drive_share": null, "cut_step": null, "tight": false }, "geometry": { "type": "Point", "coordinates": [ -119.59409, 49.59401 ] } },
{ "type": "Feature", "properties": { "name": "near Robinson Avenue", "residents": 920, "baseline_drive_min": 18.1, "cut_time": null, "window_min": null, "drive_share": null, "cut_step": null, "tight": false }, "geometry": { "type": "Point", "coordinates": [ -119.59656, 49.59788 ] } },
{ "type": "Feature", "properties": { "name": "near Witt Road", "residents": 1610, "baseline_drive_min": 10.1, "cut_time": null, "window_min": null, "drive_share": null, "cut_step": null, "tight": false }, "geometry": { "type": "Point", "coordinates": [ -119.6073, 49.82872 ] } },
{ "type": "Feature", "properties": { "name": "near Red Cloud Way", "residents": 810, "baseline_drive_min": 9.6, "cut_time": null, "window_min": null, "drive_share": null, "cut_step": null, "tight": false }, "geometry": { "type": "Point", "coordinates": [ -119.60917, 49.83401 ] } },
{ "type": "Feature", "properties": { "name": "near Elk Road", "residents": 1670, "baseline_drive_min": 10.2, "cut_time": null, "window_min": null, "drive_share": null, "cut_step": null, "tight": false }, "geometry": { "type": "Point", "coordinates": [ -119.60794, 49.84245 ] } },
{ "type": "Feature", "properties": { "name": "near Shannon Way", "residents": 1730, "baseline_drive_min": 11.7, "cut_time": null, "window_min": null, "drive_share": null, "cut_step": null, "tight": false }, "geometry": { "type": "Point", "coordinates": [ -119.60884, 49.85169 ] } },
{ "type": "Feature", "properties": { "name": "near Shannon Lake Road", "residents": 340, "baseline_drive_min": 13.1, "cut_time": null, "window_min": null, "drive_share": null, "cut_step": null, "tight": false }, "geometry": { "type": "Point", "coordinates": [ -119.60738, 49.86262 ] } },
{ "type": "Feature", "properties": { "name": "near Shannon Woods Drive", "residents": 560, "baseline_drive_min": 14.2, "cut_time": null, "window_min": null, "drive_share": null, "cut_step": null, "tight": false }, "geometry": { "type": "Point", "coordinates": [ -119.60988, 49.8701 ] } },
{ "type": "Feature", "properties": { "name": "near Oliver Ranch Road", "residents": 560, "baseline_drive_min": 5.7, "cut_time": null, "window_min": null, "drive_share": null, "cut_step": null, "tight": false }, "geometry": { "type": "Point", "coordinates": [ -119.5641, 49.33136 ] } },
{ "type": "Feature", "properties": { "name": "near McLean Creek Road", "residents": 2050, "baseline_drive_min": 5.7, "cut_time": null, "window_min": null, "drive_share": null, "cut_step": null, "tight": false }, "geometry": { "type": "Point", "coordinates": [ -119.5682, 49.3417 ] } },
{ "type": "Feature", "properties": { "name": "near Eastside Road", "residents": 380, "baseline_drive_min": 5.5, "cut_time": null, "window_min": null, "drive_share": null, "cut_step": null, "tight": false }, "geometry": { "type": "Point", "coordinates": [ -119.56896, 49.34724 ] } },
{ "type": "Feature", "properties": { "name": "near Smythe Drive", "residents": 20, "baseline_drive_min": 9.6, "cut_time": null, "window_min": null, "drive_share": null, "cut_step": null, "tight": false }, "geometry": { "type": "Point", "coordinates": [ -119.57652, 49.42961 ] } },
{ "type": "Feature", "properties": { "name": "near Brantford Avenue", "residents": 110, "baseline_drive_min": 7.0, "cut_time": null, "window_min": null, "drive_share": null, "cut_step": null, "tight": false }, "geometry": { "type": "Point", "coordinates": [ -119.57776, 49.44958 ] } },
{ "type": "Feature", "properties": { "name": "near South Main Street", "residents": 450, "baseline_drive_min": 6.6, "cut_time": null, "window_min": null, "drive_share": null, "cut_step": null, "tight": false }, "geometry": { "type": "Point", "coordinates": [ -119.57619, 49.45804 ] } },
{ "type": "Feature", "properties": { "name": "near Dartmouth Drive", "residents": 2320, "baseline_drive_min": 5.1, "cut_time": null, "window_min": null, "drive_share": null, "cut_step": null, "tight": false }, "geometry": { "type": "Point", "coordinates": [ -119.5763, 49.46811 ] } },
{ "type": "Feature", "properties": { "name": "near Government Street", "residents": 3090, "baseline_drive_min": 4.7, "cut_time": null, "window_min": null, "drive_share": null, "cut_step": null, "tight": false }, "geometry": { "type": "Point", "coordinates": [ -119.57407, 49.47536 ] } },
{ "type": "Feature", "properties": { "name": "near Edgewood Drive", "residents": 3440, "baseline_drive_min": 3.7, "cut_time": null, "window_min": null, "drive_share": null, "cut_step": null, "tight": false }, "geometry": { "type": "Point", "coordinates": [ -119.57506, 49.48504 ] } },
{ "type": "Feature", "properties": { "name": "near Forestbrook Drive", "residents": 2860, "baseline_drive_min": 3.0, "cut_time": null, "window_min": null, "drive_share": null, "cut_step": null, "tight": false }, "geometry": { "type": "Point", "coordinates": [ -119.57667, 49.4935 ] } },
{ "type": "Feature", "properties": { "name": "near MacDonald Street", "residents": 1180, "baseline_drive_min": 3.4, "cut_time": null, "window_min": null, "drive_share": null, "cut_step": null, "tight": false }, "geometry": { "type": "Point", "coordinates": [ -119.57813, 49.50092 ] } },
{ "type": "Feature", "properties": { "name": "near Middle Bench Road North", "residents": 70, "baseline_drive_min": 5.0, "cut_time": null, "window_min": null, "drive_share": null, "cut_step": null, "tight": false }, "geometry": { "type": "Point", "coordinates": [ -119.57497, 49.51077 ] } },
{ "type": "Feature", "properties": { "name": "near Noyes Road", "residents": 30, "baseline_drive_min": 16.1, "cut_time": null, "window_min": null, "drive_share": null, "cut_step": null, "tight": false }, "geometry": { "type": "Point", "coordinates": [ -119.57815, 49.5827 ] } },
{ "type": "Feature", "properties": { "name": "near Smethurst Road", "residents": 40, "baseline_drive_min": 16.7, "cut_time": null, "window_min": null, "drive_share": null, "cut_step": null, "tight": false }, "geometry": { "type": "Point", "coordinates": [ -119.58214, 49.59273 ] } },
{ "type": "Feature", "properties": { "name": "near Partridge Road", "residents": 80, "baseline_drive_min": 17.5, "cut_time": null, "window_min": null, "drive_share": null, "cut_step": null, "tight": false }, "geometry": { "type": "Point", "coordinates": [ -119.58467, 49.59841 ] } },
{ "type": "Feature", "properties": { "name": "near Pritchard Drive", "residents": 740, "baseline_drive_min": 11.4, "cut_time": null, "window_min": null, "drive_share": null, "cut_step": null, "tight": false }, "geometry": { "type": "Point", "coordinates": [ -119.59594, 49.82672 ] } },
{ "type": "Feature", "properties": { "name": "near Boucherie Road", "residents": 710, "baseline_drive_min": 12.1, "cut_time": null, "window_min": null, "drive_share": null, "cut_step": null, "tight": false }, "geometry": { "type": "Point", "coordinates": [ -119.59235, 49.83529 ] } },
{ "type": "Feature", "properties": { "name": "near Grouse Road", "residents": 1740, "baseline_drive_min": 11.9, "cut_time": null, "window_min": null, "drive_share": null, "cut_step": null, "tight": false }, "geometry": { "type": "Point", "coordinates": [ -119.59426, 49.84354 ] } },
{ "type": "Feature", "properties": { "name": "near East Boundary Road", "residents": 1490, "baseline_drive_min": 11.3, "cut_time": null, "window_min": null, "drive_share": null, "cut_step": null, "tight": false }, "geometry": { "type": "Point", "coordinates": [ -119.59623, 49.85273 ] } },
{ "type": "Feature", "properties": { "name": "near Cornerstone Drive", "residents": 1120, "baseline_drive_min": 12.8, "cut_time": null, "window_min": null, "drive_share": null, "cut_step": null, "tight": false }, "geometry": { "type": "Point", "coordinates": [ -119.59518, 49.86226 ] } },
{ "type": "Feature", "properties": { "name": "near Lenz Road", "residents": 210, "baseline_drive_min": 12.1, "cut_time": null, "window_min": null, "drive_share": null, "cut_step": null, "tight": false }, "geometry": { "type": "Point", "coordinates": [ -119.59062, 49.86858 ] } },
{ "type": "Feature", "properties": { "name": "near D Street", "residents": 100, "baseline_drive_min": 6.2, "cut_time": null, "window_min": null, "drive_share": null, "cut_step": null, "tight": false }, "geometry": { "type": "Point", "coordinates": [ -119.55671, 49.33146 ] } },
{ "type": "Feature", "properties": { "name": "near McLean Creek Road", "residents": 390, "baseline_drive_min": 7.0, "cut_time": null, "window_min": null, "drive_share": null, "cut_step": null, "tight": false }, "geometry": { "type": "Point", "coordinates": [ -119.55832, 49.33827 ] } },
{ "type": "Feature", "properties": { "name": "near Cabernet Drive", "residents": 180, "baseline_drive_min": 14.6, "cut_time": null, "window_min": null, "drive_share": null, "cut_step": null, "tight": false }, "geometry": { "type": "Point", "coordinates": [ -119.55329, 49.39603 ] } },
{ "type": "Feature", "properties": { "name": "near Sunnybrook Drive", "residents": 50, "baseline_drive_min": 14.8, "cut_time": null, "window_min": null, "drive_share": null, "cut_step": null, "tight": false }, "geometry": { "type": "Point", "coordinates": [ -119.55676, 49.40336 ] } },
{ "type": "Feature", "properties": { "name": "near Penrose Court", "residents": 70, "baseline_drive_min": 7.0, "cut_time": null, "window_min": null, "drive_share": null, "cut_step": null, "tight": false }, "geometry": { "type": "Point", "coordinates": [ -119.56384, 49.46121 ] } },
{ "type": "Feature", "properties": { "name": "near Balsam Avenue", "residents": 600, "baseline_drive_min": 6.4, "cut_time": null, "window_min": null, "drive_share": null, "cut_step": null, "tight": false }, "geometry": { "type": "Point", "coordinates": [ -119.56415, 49.4672 ] } },
{ "type": "Feature", "properties": { "name": "near Stocks Crescent", "residents": 1640, "baseline_drive_min": 6.7, "cut_time": null, "window_min": null, "drive_share": null, "cut_step": null, "tight": false }, "geometry": { "type": "Point", "coordinates": [ -119.56258, 49.47489 ] } },
{ "type": "Feature", "properties": { "name": "near Carmi Avenue", "residents": 2690, "baseline_drive_min": 5.6, "cut_time": null, "window_min": null, "drive_share": null, "cut_step": null, "tight": false }, "geometry": { "type": "Point", "coordinates": [ -119.56166, 49.48446 ] } },
{ "type": "Feature", "properties": { "name": "near Penticton Avenue", "residents": 490, "baseline_drive_min": 4.7, "cut_time": null, "window_min": null, "drive_share": null, "cut_step": null, "tight": false }, "geometry": { "type": "Point", "coordinates": [ -119.56477, 49.49142 ] } },
{ "type": "Feature", "properties": { "name": "near Upper Bench Road North", "residents": 70, "baseline_drive_min": 5.8, "cut_time": null, "window_min": null, "drive_share": null, "cut_step": null, "tight": false }, "geometry": { "type": "Point", "coordinates": [ -119.56335, 49.51154 ] } },
{ "type": "Feature", "properties": { "name": "near Naramata Road", "residents": 20, "baseline_drive_min": 7.5, "cut_time": null, "window_min": null, "drive_share": null, "cut_step": null, "tight": false }, "geometry": { "type": "Point", "coordinates": [ -119.56187, 49.52054 ] } },
{ "type": "Feature", "properties": { "name": "near Newport Road", "residents": 110, "baseline_drive_min": 13.9, "cut_time": null, "window_min": null, "drive_share": null, "cut_step": null, "tight": false }, "geometry": { "type": "Point", "coordinates": [ -119.58137, 49.82787 ] } },
{ "type": "Feature", "properties": { "name": "near Mission Hill Road", "residents": 1100, "baseline_drive_min": 14.7, "cut_time": null, "window_min": null, "drive_share": null, "cut_step": null, "tight": false }, "geometry": { "type": "Point", "coordinates": [ -119.58182, 49.83684 ] } },
{ "type": "Feature", "properties": { "name": "near Pinot Noir Drive", "residents": 1680, "baseline_drive_min": 15.1, "cut_time": null, "window_min": null, "drive_share": null, "cut_step": null, "tight": false }, "geometry": { "type": "Point", "coordinates": [ -119.58104, 49.84337 ] } },
{ "type": "Feature", "properties": { "name": "near Bartley Road", "residents": 1710, "baseline_drive_min": 11.9, "cut_time": null, "window_min": null, "drive_share": null, "cut_step": null, "tight": false }, "geometry": { "type": "Point", "coordinates": [ -119.58038, 49.8626 ] } },
{ "type": "Feature", "properties": { "name": "near Rose Meadow Drive", "residents": 550, "baseline_drive_min": 13.8, "cut_time": null, "window_min": null, "drive_share": null, "cut_step": null, "tight": false }, "geometry": { "type": "Point", "coordinates": [ -119.5809, 49.87219 ] } },
{ "type": "Feature", "properties": { "name": "near Rosealee Lane", "residents": 210, "baseline_drive_min": 16.0, "cut_time": null, "window_min": null, "drive_share": null, "cut_step": null, "tight": false }, "geometry": { "type": "Point", "coordinates": [ -119.57653, 49.87741 ] } },
{ "type": "Feature", "properties": { "name": "near Lawrence Avenue", "residents": 640, "baseline_drive_min": 6.5, "cut_time": null, "window_min": null, "drive_share": null, "cut_step": null, "tight": false }, "geometry": { "type": "Point", "coordinates": [ -119.55226, 49.48462 ] } },
{ "type": "Feature", "properties": { "name": "near Ridgedale Avenue", "residents": 240, "baseline_drive_min": 7.8, "cut_time": null, "window_min": null, "drive_share": null, "cut_step": null, "tight": false }, "geometry": { "type": "Point", "coordinates": [ -119.54981, 49.4912 ] } },
{ "type": "Feature", "properties": { "name": "near Green Bay Road", "residents": 90, "baseline_drive_min": 15.0, "cut_time": null, "window_min": null, "drive_share": null, "cut_step": null, "tight": false }, "geometry": { "type": "Point", "coordinates": [ -119.56976, 49.8361 ] } },
{ "type": "Feature", "properties": { "name": "near Kelly Drive", "residents": 1310, "baseline_drive_min": 16.0, "cut_time": null, "window_min": null, "drive_share": null, "cut_step": null, "tight": false }, "geometry": { "type": "Point", "coordinates": [ -119.56444, 49.8452 ] } },
{ "type": "Feature", "properties": { "name": "near Trevor Drive", "residents": 660, "baseline_drive_min": 15.4, "cut_time": null, "window_min": null, "drive_share": null, "cut_step": null, "tight": false }, "geometry": { "type": "Point", "coordinates": [ -119.56363, 49.85336 ] } },
{ "type": "Feature", "properties": { "name": "near Westlake Road", "residents": 1300, "baseline_drive_min": 13.0, "cut_time": null, "window_min": null, "drive_share": null, "cut_step": null, "tight": false }, "geometry": { "type": "Point", "coordinates": [ -119.56713, 49.86237 ] } },
{ "type": "Feature", "properties": { "name": "near Sussex Road", "residents": 130, "baseline_drive_min": 14.9, "cut_time": null, "window_min": null, "drive_share": null, "cut_step": null, "tight": false }, "geometry": { "type": "Point", "coordinates": [ -119.56906, 49.87492 ] } },
{ "type": "Feature", "properties": { "name": "near Rosewood Drive", "residents": 510, "baseline_drive_min": 15.1, "cut_time": null, "window_min": null, "drive_share": null, "cut_step": null, "tight": false }, "geometry": { "type": "Point", "coordinates": [ -119.56787, 49.87813 ] } },
{ "type": "Feature", "properties": { "name": "near Holden Road", "residents": 130, "baseline_drive_min": 9.4, "cut_time": null, "window_min": null, "drive_share": null, "cut_step": null, "tight": false }, "geometry": { "type": "Point", "coordinates": [ -119.53794, 49.49273 ] } },
{ "type": "Feature", "properties": { "name": "near Thacker Drive", "residents": 560, "baseline_drive_min": 15.8, "cut_time": null, "window_min": null, "drive_share": null, "cut_step": null, "tight": false }, "geometry": { "type": "Point", "coordinates": [ -119.55348, 49.84764 ] } },
{ "type": "Feature", "properties": { "name": "near Thacker Drive", "residents": 1130, "baseline_drive_min": 15.2, "cut_time": null, "window_min": null, "drive_share": null, "cut_step": null, "tight": false }, "geometry": { "type": "Point", "coordinates": [ -119.55232, 49.85322 ] } },
{ "type": "Feature", "properties": { "name": "near Boucherie Road", "residents": 1950, "baseline_drive_min": 13.8, "cut_time": null, "window_min": null, "drive_share": null, "cut_step": null, "tight": false }, "geometry": { "type": "Point", "coordinates": [ -119.55349, 49.86218 ] } },
{ "type": "Feature", "properties": { "name": "near Sussex Road", "residents": 670, "baseline_drive_min": 14.7, "cut_time": null, "window_min": null, "drive_share": null, "cut_step": null, "tight": false }, "geometry": { "type": "Point", "coordinates": [ -119.55663, 49.87186 ] } },
{ "type": "Feature", "properties": { "name": "near Horizon Drive", "residents": 1640, "baseline_drive_min": 16.8, "cut_time": null, "window_min": null, "drive_share": null, "cut_step": null, "tight": false }, "geometry": { "type": "Point", "coordinates": [ -119.55435, 49.88061 ] } },
{ "type": "Feature", "properties": { "name": "near Westlake Road", "residents": 860, "baseline_drive_min": 17.7, "cut_time": null, "window_min": null, "drive_share": null, "cut_step": null, "tight": false }, "geometry": { "type": "Point", "coordinates": [ -119.55321, 49.89034 ] } },
{ "type": "Feature", "properties": { "name": "near West Kelowna Road", "residents": 100, "baseline_drive_min": 18.7, "cut_time": null, "window_min": null, "drive_share": null, "cut_step": null, "tight": false }, "geometry": { "type": "Point", "coordinates": [ -119.55224, 49.89732 ] } },
{ "type": "Feature", "properties": { "name": "near Aspen Road", "residents": 50, "baseline_drive_min": 34.6, "cut_time": null, "window_min": null, "drive_share": null, "cut_step": null, "tight": false }, "geometry": { "type": "Point", "coordinates": [ -119.53924, 49.79211 ] } },
{ "type": "Feature", "properties": { "name": "near Thacker Drive", "residents": 560, "baseline_drive_min": 17.0, "cut_time": null, "window_min": null, "drive_share": null, "cut_step": null, "tight": false }, "geometry": { "type": "Point", "coordinates": [ -119.54309, 49.85562 ] } },
{ "type": "Feature", "properties": { "name": "near Casa Palmero Drive", "residents": 1150, "baseline_drive_min": 16.6, "cut_time": null, "window_min": null, "drive_share": null, "cut_step": null, "tight": false }, "geometry": { "type": "Point", "coordinates": [ -119.5418, 49.86346 ] } },
{ "type": "Feature", "properties": { "name": "near Bridgeview Road", "residents": 1320, "baseline_drive_min": 15.2, "cut_time": null, "window_min": null, "drive_share": null, "cut_step": null, "tight": false }, "geometry": { "type": "Point", "coordinates": [ -119.53947, 49.87183 ] } },
{ "type": "Feature", "properties": { "name": "near Sneena Road", "residents": 660, "baseline_drive_min": 15.6, "cut_time": null, "window_min": null, "drive_share": null, "cut_step": null, "tight": false }, "geometry": { "type": "Point", "coordinates": [ -119.54056, 49.88012 ] } },
{ "type": "Feature", "properties": { "name": "near Marina Way", "residents": 400, "baseline_drive_min": 17.3, "cut_time": null, "window_min": null, "drive_share": null, "cut_step": null, "tight": false }, "geometry": { "type": "Point", "coordinates": [ -119.54126, 49.89085 ] } },
{ "type": "Feature", "properties": { "name": "near Bear Creek Road", "residents": 140, "baseline_drive_min": 18.3, "cut_time": null, "window_min": null, "drive_share": null, "cut_step": null, "tight": false }, "geometry": { "type": "Point", "coordinates": [ -119.54702, 49.89664 ] } },
{ "type": "Feature", "properties": { "name": "near Mountainside Drive", "residents": 140, "baseline_drive_min": 35.1, "cut_time": null, "window_min": null, "drive_share": null, "cut_step": null, "tight": false }, "geometry": { "type": "Point", "coordinates": [ -119.52151, 49.78482 ] } },
{ "type": "Feature", "properties": { "name": "near Mountainside Drive", "residents": 1550, "baseline_drive_min": 34.4, "cut_time": null, "window_min": null, "drive_share": null, "cut_step": null, "tight": false }, "geometry": { "type": "Point", "coordinates": [ -119.52053, 49.79145 ] } },
{ "type": "Feature", "properties": { "name": "near Braeloch Road", "residents": 820, "baseline_drive_min": 33.2, "cut_time": null, "window_min": null, "drive_share": null, "cut_step": null, "tight": false }, "geometry": { "type": "Point", "coordinates": [ -119.52077, 49.79855 ] } },
{ "type": "Feature", "properties": { "name": "near Campbell Place", "residents": 20, "baseline_drive_min": 17.4, "cut_time": null, "window_min": null, "drive_share": null, "cut_step": null, "tight": false }, "geometry": { "type": "Point", "coordinates": [ -119.52926, 49.87453 ] } },
{ "type": "Feature", "properties": { "name": "near Sneena Road", "residents": 530, "baseline_drive_min": 16.2, "cut_time": null, "window_min": null, "drive_share": null, "cut_step": null, "tight": false }, "geometry": { "type": "Point", "coordinates": [ -119.53053, 49.87974 ] } },
{ "type": "Feature", "properties": { "name": "near Upper Mission Drive", "residents": 1020, "baseline_drive_min": 33.0, "cut_time": null, "window_min": null, "drive_share": null, "cut_step": null, "tight": false }, "geometry": { "type": "Point", "coordinates": [ -119.50967, 49.79341 ] } },
{ "type": "Feature", "properties": { "name": "near Curlew Drive", "residents": 1310, "baseline_drive_min": 32.6, "cut_time": null, "window_min": null, "drive_share": null, "cut_step": null, "tight": false }, "geometry": { "type": "Point", "coordinates": [ -119.50931, 49.79841 ] } },
{ "type": "Feature", "properties": { "name": "near Lakeshore Road", "residents": 60, "baseline_drive_min": 30.3, "cut_time": null, "window_min": null, "drive_share": null, "cut_step": null, "tight": false }, "geometry": { "type": "Point", "coordinates": [ -119.50542, 49.80839 ] } },
{ "type": "Feature", "properties": { "name": "near Gillard Creek Forest Service Road", "residents": 50, "baseline_drive_min": 32.3, "cut_time": null, "window_min": null, "drive_share": null, "cut_step": null, "tight": false }, "geometry": { "type": "Point", "coordinates": [ -119.49429, 49.79587 ] } },
{ "type": "Feature", "properties": { "name": "near Frost Road", "residents": 1180, "baseline_drive_min": 31.6, "cut_time": null, "window_min": null, "drive_share": null, "cut_step": null, "tight": false }, "geometry": { "type": "Point", "coordinates": [ -119.4947, 49.80053 ] } },
{ "type": "Feature", "properties": { "name": "near Lakeshore Road", "residents": 340, "baseline_drive_min": 29.8, "cut_time": null, "window_min": null, "drive_share": null, "cut_step": null, "tight": false }, "geometry": { "type": "Point", "coordinates": [ -119.49189, 49.81103 ] } },
{ "type": "Feature", "properties": { "name": "near Lakeshore Road", "residents": 2130, "baseline_drive_min": 28.4, "cut_time": null, "window_min": null, "drive_share": null, "cut_step": null, "tight": false }, "geometry": { "type": "Point", "coordinates": [ -119.49446, 49.81965 ] } },
{ "type": "Feature", "properties": { "name": "near Sarsons Road", "residents": 1000, "baseline_drive_min": 27.2, "cut_time": null, "window_min": null, "drive_share": null, "cut_step": null, "tight": false }, "geometry": { "type": "Point", "coordinates": [ -119.49233, 49.82596 ] } },
{ "type": "Feature", "properties": { "name": "near Capozzi Road", "residents": 70, "baseline_drive_min": 24.9, "cut_time": null, "window_min": null, "drive_share": null, "cut_step": null, "tight": false }, "geometry": { "type": "Point", "coordinates": [ -119.49191, 49.8432 ] } },
{ "type": "Feature", "properties": { "name": "near Lakeshore Road", "residents": 140, "baseline_drive_min": 22.3, "cut_time": null, "window_min": null, "drive_share": null, "cut_step": null, "tight": false }, "geometry": { "type": "Point", "coordinates": [ -119.49211, 49.85784 ] } },
{ "type": "Feature", "properties": { "name": "near Pandosy Street", "residents": 780, "baseline_drive_min": 21.3, "cut_time": null, "window_min": null, "drive_share": null, "cut_step": null, "tight": false }, "geometry": { "type": "Point", "coordinates": [ -119.49284, 49.86493 ] } },
{ "type": "Feature", "properties": { "name": "near Abbott Street", "residents": 1470, "baseline_drive_min": 20.1, "cut_time": null, "window_min": null, "drive_share": null, "cut_step": null, "tight": false }, "geometry": { "type": "Point", "coordinates": [ -119.49373, 49.87268 ] } },
{ "type": "Feature", "properties": { "name": "near Abbott Street", "residents": 1460, "baseline_drive_min": 18.8, "cut_time": null, "window_min": null, "drive_share": null, "cut_step": null, "tight": false }, "geometry": { "type": "Point", "coordinates": [ -119.4959, 49.88138 ] } },
{ "type": "Feature", "properties": { "name": "near Water Street", "residents": 490, "baseline_drive_min": 19.4, "cut_time": null, "window_min": null, "drive_share": null, "cut_step": null, "tight": false }, "geometry": { "type": "Point", "coordinates": [ -119.49458, 49.89112 ] } },
{ "type": "Feature", "properties": { "name": "near Guy Street", "residents": 330, "baseline_drive_min": 20.4, "cut_time": null, "window_min": null, "drive_share": null, "cut_step": null, "tight": false }, "geometry": { "type": "Point", "coordinates": [ -119.49747, 49.89795 ] } },
{ "type": "Feature", "properties": { "name": "near South Ridge Drive", "residents": 120, "baseline_drive_min": 33.6, "cut_time": null, "window_min": null, "drive_share": null, "cut_step": null, "tight": false }, "geometry": { "type": "Point", "coordinates": [ -119.48508, 49.79609 ] } },
{ "type": "Feature", "properties": { "name": "near South Ridge Drive", "residents": 990, "baseline_drive_min": 32.6, "cut_time": null, "window_min": null, "drive_share": null, "cut_step": null, "tight": false }, "geometry": { "type": "Point", "coordinates": [ -119.48175, 49.80111 ] } },
{ "type": "Feature", "properties": { "name": "near Drummond Court", "residents": 1450, "baseline_drive_min": 30.0, "cut_time": null, "window_min": null, "drive_share": null, "cut_step": null, "tight": false }, "geometry": { "type": "Point", "coordinates": [ -119.48055, 49.81076 ] } },
{ "type": "Feature", "properties": { "name": "near Raymer Road", "residents": 2860, "baseline_drive_min": 28.1, "cut_time": null, "window_min": null, "drive_share": null, "cut_step": null, "tight": false }, "geometry": { "type": "Point", "coordinates": [ -119.48191, 49.81887 ] } },
{ "type": "Feature", "properties": { "name": "near Lakeshore Road", "residents": 2140, "baseline_drive_min": 26.8, "cut_time": null, "window_min": null, "drive_share": null, "cut_step": null, "tight": false }, "geometry": { "type": "Point", "coordinates": [ -119.48362, 49.82754 ] } },
{ "type": "Feature", "properties": { "name": "near Lakeshore Road", "residents": 820, "baseline_drive_min": 25.1, "cut_time": null, "window_min": null, "drive_share": null, "cut_step": null, "tight": false }, "geometry": { "type": "Point", "coordinates": [ -119.48563, 49.83812 ] } },
{ "type": "Feature", "properties": { "name": "near Cook Road", "residents": 1450, "baseline_drive_min": 24.2, "cut_time": null, "window_min": null, "drive_share": null, "cut_step": null, "tight": false }, "geometry": { "type": "Point", "coordinates": [ -119.48361, 49.84677 ] } },
{ "type": "Feature", "properties": { "name": "near Swordy Road", "residents": 2910, "baseline_drive_min": 23.1, "cut_time": null, "window_min": null, "drive_share": null, "cut_step": null, "tight": false }, "geometry": { "type": "Point", "coordinates": [ -119.48294, 49.8556 ] } },
{ "type": "Feature", "properties": { "name": "near Richter Street", "residents": 2780, "baseline_drive_min": 21.5, "cut_time": null, "window_min": null, "drive_share": null, "cut_step": null, "tight": false }, "geometry": { "type": "Point", "coordinates": [ -119.48406, 49.86527 ] } },
{ "type": "Feature", "properties": { "name": "near Richter Street", "residents": 4320, "baseline_drive_min": 20.5, "cut_time": null, "window_min": null, "drive_share": null, "cut_step": null, "tight": false }, "geometry": { "type": "Point", "coordinates": [ -119.48446, 49.87275 ] } },
{ "type": "Feature", "properties": { "name": "near Richter Street", "residents": 3930, "baseline_drive_min": 19.5, "cut_time": null, "window_min": null, "drive_share": null, "cut_step": null, "tight": false }, "geometry": { "type": "Point", "coordinates": [ -119.48439, 49.88258 ] } },
{ "type": "Feature", "properties": { "name": "near Saint Paul Street", "residents": 4460, "baseline_drive_min": 20.2, "cut_time": null, "window_min": null, "drive_share": null, "cut_step": null, "tight": false }, "geometry": { "type": "Point", "coordinates": [ -119.48508, 49.89046 ] } },
{ "type": "Feature", "properties": { "name": "near Ethel Street", "residents": 730, "baseline_drive_min": 21.5, "cut_time": null, "window_min": null, "drive_share": null, "cut_step": null, "tight": false }, "geometry": { "type": "Point", "coordinates": [ -119.48599, 49.89866 ] } },
{ "type": "Feature", "properties": { "name": "near Clarance Avenue", "residents": 410, "baseline_drive_min": 31.5, "cut_time": null, "window_min": null, "drive_share": null, "cut_step": null, "tight": false }, "geometry": { "type": "Point", "coordinates": [ -119.46718, 49.8034 ] } },
{ "type": "Feature", "properties": { "name": "near Westridge Drive", "residents": 1080, "baseline_drive_min": 30.8, "cut_time": null, "window_min": null, "drive_share": null, "cut_step": null, "tight": false }, "geometry": { "type": "Point", "coordinates": [ -119.46852, 49.81132 ] } },
{ "type": "Feature", "properties": { "name": "near Westridge Drive", "residents": 620, "baseline_drive_min": 30.8, "cut_time": null, "window_min": null, "drive_share": null, "cut_step": null, "tight": false }, "geometry": { "type": "Point", "coordinates": [ -119.46753, 49.81729 ] } },
{ "type": "Feature", "properties": { "name": "near DeHart Road", "residents": 100, "baseline_drive_min": 28.0, "cut_time": null, "window_min": null, "drive_share": null, "cut_step": null, "tight": false }, "geometry": { "type": "Point", "coordinates": [ -119.47066, 49.82811 ] } },
{ "type": "Feature", "properties": { "name": "near Lexington Drive", "residents": 100, "baseline_drive_min": 26.6, "cut_time": null, "window_min": null, "drive_share": null, "cut_step": null, "tight": false }, "geometry": { "type": "Point", "coordinates": [ -119.46846, 49.83869 ] } },
{ "type": "Feature", "properties": { "name": "near Casorso Road", "residents": 160, "baseline_drive_min": 24.6, "cut_time": null, "window_min": null, "drive_share": null, "cut_step": null, "tight": false }, "geometry": { "type": "Point", "coordinates": [ -119.46793, 49.84732 ] } },
{ "type": "Feature", "properties": { "name": "near Bothe Road", "residents": 820, "baseline_drive_min": 23.5, "cut_time": null, "window_min": null, "drive_share": null, "cut_step": null, "tight": false }, "geometry": { "type": "Point", "coordinates": [ -119.47258, 49.85601 ] } },
{ "type": "Feature", "properties": { "name": "near Raymer Avenue", "residents": 2780, "baseline_drive_min": 22.6, "cut_time": null, "window_min": null, "drive_share": null, "cut_step": null, "tight": false }, "geometry": { "type": "Point", "coordinates": [ -119.47198, 49.86466 ] } },
{ "type": "Feature", "properties": { "name": "near Guisachan Road", "residents": 3340, "baseline_drive_min": 21.8, "cut_time": null, "window_min": null, "drive_share": null, "cut_step": null, "tight": false }, "geometry": { "type": "Point", "coordinates": [ -119.47069, 49.87403 ] } },
{ "type": "Feature", "properties": { "name": "near Harvey Avenue", "residents": 4040, "baseline_drive_min": 20.9, "cut_time": null, "window_min": null, "drive_share": null, "cut_step": null, "tight": false }, "geometry": { "type": "Point", "coordinates": [ -119.47084, 49.88288 ] } },
{ "type": "Feature", "properties": { "name": "near Clement Avenue", "residents": 3940, "baseline_drive_min": 21.5, "cut_time": null, "window_min": null, "drive_share": null, "cut_step": null, "tight": false }, "geometry": { "type": "Point", "coordinates": [ -119.47128, 49.89063 ] } },
{ "type": "Feature", "properties": { "name": "near Mountain Avenue", "residents": 1210, "baseline_drive_min": 23.1, "cut_time": null, "window_min": null, "drive_share": null, "cut_step": null, "tight": false }, "geometry": { "type": "Point", "coordinates": [ -119.47054, 49.89764 ] } },
{ "type": "Feature", "properties": { "name": "near Canyon Falls Court", "residents": 120, "baseline_drive_min": 31.8, "cut_time": null, "window_min": null, "drive_share": null, "cut_step": null, "tight": false }, "geometry": { "type": "Point", "coordinates": [ -119.45357, 49.80522 ] } },
{ "type": "Feature", "properties": { "name": "near Parkridge Drive", "residents": 870, "baseline_drive_min": 31.1, "cut_time": null, "window_min": null, "drive_share": null, "cut_step": null, "tight": false }, "geometry": { "type": "Point", "coordinates": [ -119.457, 49.81096 ] } },
{ "type": "Feature", "properties": { "name": "near Parkridge Drive", "residents": 180, "baseline_drive_min": 29.9, "cut_time": null, "window_min": null, "drive_share": null, "cut_step": null, "tight": false }, "geometry": { "type": "Point", "coordinates": [ -119.45676, 49.81756 ] } },
{ "type": "Feature", "properties": { "name": "near Pioneer Road", "residents": 30, "baseline_drive_min": 26.0, "cut_time": null, "window_min": null, "drive_share": null, "cut_step": null, "tight": false }, "geometry": { "type": "Point", "coordinates": [ -119.45953, 49.85056 ] } },
{ "type": "Feature", "properties": { "name": "near Chamberlain Road", "residents": 220, "baseline_drive_min": 24.8, "cut_time": null, "window_min": null, "drive_share": null, "cut_step": null, "tight": false }, "geometry": { "type": "Point", "coordinates": [ -119.45915, 49.85803 ] } },
{ "type": "Feature", "properties": { "name": "near Fisher Road", "residents": 470, "baseline_drive_min": 24.2, "cut_time": null, "window_min": null, "drive_share": null, "cut_step": null, "tight": false }, "geometry": { "type": "Point", "coordinates": [ -119.45231, 49.86215 ] } },
{ "type": "Feature", "properties": { "name": "near Spall Road", "residents": 590, "baseline_drive_min": 22.2, "cut_time": null, "window_min": null, "drive_share": null, "cut_step": null, "tight": false }, "geometry": { "type": "Point", "coordinates": [ -119.45677, 49.87687 ] } },
{ "type": "Feature", "properties": { "name": "near Harvey Avenue", "residents": 1870, "baseline_drive_min": 21.9, "cut_time": null, "window_min": null, "drive_share": null, "cut_step": null, "tight": false }, "geometry": { "type": "Point", "coordinates": [ -119.45716, 49.88182 ] } },
{ "type": "Feature", "properties": { "name": "near Highland Drive North", "residents": 2420, "baseline_drive_min": 22.9, "cut_time": null, "window_min": null, "drive_share": null, "cut_step": null, "tight": false }, "geometry": { "type": "Point", "coordinates": [ -119.45892, 49.89233 ] } },
{ "type": "Feature", "properties": { "name": "near Mountain Avenue", "residents": 1950, "baseline_drive_min": 23.5, "cut_time": null, "window_min": null, "drive_share": null, "cut_step": null, "tight": false }, "geometry": { "type": "Point", "coordinates": [ -119.45851, 49.89819 ] } },
{ "type": "Feature", "properties": { "name": "near Saucier Road", "residents": 140, "baseline_drive_min": 30.8, "cut_time": null, "window_min": null, "drive_share": null, "cut_step": null, "tight": false }, "geometry": { "type": "Point", "coordinates": [ -119.44253, 49.81898 ] } },
{ "type": "Feature", "properties": { "name": "near Bedford Lane", "residents": 50, "baseline_drive_min": 30.1, "cut_time": null, "window_min": null, "drive_share": null, "cut_step": null, "tight": false }, "geometry": { "type": "Point", "coordinates": [ -119.44326, 49.82735 ] } },
{ "type": "Feature", "properties": { "name": "near Berard Road", "residents": 140, "baseline_drive_min": 28.6, "cut_time": null, "window_min": null, "drive_share": null, "cut_step": null, "tight": false }, "geometry": { "type": "Point", "coordinates": [ -119.44277, 49.84749 ] } },
{ "type": "Feature", "properties": { "name": "near Parsons Road", "residents": 340, "baseline_drive_min": 25.7, "cut_time": null, "window_min": null, "drive_share": null, "cut_step": null, "tight": false }, "geometry": { "type": "Point", "coordinates": [ -119.44243, 49.85783 ] } },
{ "type": "Feature", "properties": { "name": "near Beetlestone Drive", "residents": 600, "baseline_drive_min": 25.5, "cut_time": null, "window_min": null, "drive_share": null, "cut_step": null, "tight": false }, "geometry": { "type": "Point", "coordinates": [ -119.44158, 49.86395 ] } },
{ "type": "Feature", "properties": { "name": "near Cooper Road", "residents": 440, "baseline_drive_min": 23.5, "cut_time": null, "window_min": null, "drive_share": null, "cut_step": null, "tight": false }, "geometry": { "type": "Point", "coordinates": [ -119.44338, 49.87515 ] } },
{ "type": "Feature", "properties": { "name": "near Harvey Avenue", "residents": 920, "baseline_drive_min": 22.8, "cut_time": null, "window_min": null, "drive_share": null, "cut_step": null, "tight": false }, "geometry": { "type": "Point", "coordinates": [ -119.44388, 49.88262 ] } },
{ "type": "Feature", "properties": { "name": "near Omineca Place", "residents": 680, "baseline_drive_min": 24.6, "cut_time": null, "window_min": null, "drive_share": null, "cut_step": null, "tight": false }, "geometry": { "type": "Point", "coordinates": [ -119.43866, 49.89019 ] } },
{ "type": "Feature", "properties": { "name": "near Wallace Hill Road", "residents": 90, "baseline_drive_min": 33.0, "cut_time": null, "window_min": null, "drive_share": null, "cut_step": null, "tight": false }, "geometry": { "type": "Point", "coordinates": [ -119.42822, 49.81948 ] } },
{ "type": "Feature", "properties": { "name": "near Spiers Road", "residents": 120, "baseline_drive_min": 33.8, "cut_time": null, "window_min": null, "drive_share": null, "cut_step": null, "tight": false }, "geometry": { "type": "Point", "coordinates": [ -119.42395, 49.83339 ] } },
{ "type": "Feature", "properties": { "name": "near Hewlett Road", "residents": 70, "baseline_drive_min": 32.3, "cut_time": null, "window_min": null, "drive_share": null, "cut_step": null, "tight": false }, "geometry": { "type": "Point", "coordinates": [ -119.42795, 49.83939 ] } },
{ "type": "Feature", "properties": { "name": "near Gulley Road", "residents": 60, "baseline_drive_min": 30.1, "cut_time": null, "window_min": null, "drive_share": null, "cut_step": null, "tight": false }, "geometry": { "type": "Point", "coordinates": [ -119.42471, 49.84567 ] } },
{ "type": "Feature", "properties": { "name": "near McCulloch Road", "residents": 160, "baseline_drive_min": 26.4, "cut_time": null, "window_min": null, "drive_share": null, "cut_step": null, "tight": false }, "geometry": { "type": "Point", "coordinates": [ -119.4289, 49.86026 ] } },
{ "type": "Feature", "properties": { "name": "near O'Reilly Road", "residents": 810, "baseline_drive_min": 27.5, "cut_time": null, "window_min": null, "drive_share": null, "cut_step": null, "tight": false }, "geometry": { "type": "Point", "coordinates": [ -119.43027, 49.86439 ] } },
{ "type": "Feature", "properties": { "name": "near Durnin Road", "residents": 250, "baseline_drive_min": 28.3, "cut_time": null, "window_min": null, "drive_share": null, "cut_step": null, "tight": false }, "geometry": { "type": "Point", "coordinates": [ -119.42812, 49.87312 ] } },
{ "type": "Feature", "properties": { "name": "near Leckie Road", "residents": 1240, "baseline_drive_min": 23.8, "cut_time": null, "window_min": null, "drive_share": null, "cut_step": null, "tight": false }, "geometry": { "type": "Point", "coordinates": [ -119.42904, 49.88379 ] } },
{ "type": "Feature", "properties": { "name": "near Glacier Court", "residents": 1840, "baseline_drive_min": 24.7, "cut_time": null, "window_min": null, "drive_share": null, "cut_step": null, "tight": false }, "geometry": { "type": "Point", "coordinates": [ -119.42839, 49.89268 ] } },
{ "type": "Feature", "properties": { "name": "near Monashee Place", "residents": 650, "baseline_drive_min": 25.5, "cut_time": null, "window_min": null, "drive_share": null, "cut_step": null, "tight": false }, "geometry": { "type": "Point", "coordinates": [ -119.42547, 49.89857 ] } },
{ "type": "Feature", "properties": { "name": "near Mathews Road", "residents": 160, "baseline_drive_min": 35.7, "cut_time": null, "window_min": null, "drive_share": null, "cut_step": null, "tight": false }, "geometry": { "type": "Point", "coordinates": [ -119.41469, 49.83056 ] } },
{ "type": "Feature", "properties": { "name": "near Larkspur Court", "residents": 330, "baseline_drive_min": 30.7, "cut_time": null, "window_min": null, "drive_share": null, "cut_step": null, "tight": false }, "geometry": { "type": "Point", "coordinates": [ -119.40839, 49.84081 ] } },
{ "type": "Feature", "properties": { "name": "near McCulloch Road", "residents": 50, "baseline_drive_min": 30.2, "cut_time": null, "window_min": null, "drive_share": null, "cut_step": null, "tight": false }, "geometry": { "type": "Point", "coordinates": [ -119.41369, 49.84715 ] } },
{ "type": "Feature", "properties": { "name": "near McCulloch Road", "residents": 130, "baseline_drive_min": 28.0, "cut_time": null, "window_min": null, "drive_share": null, "cut_step": null, "tight": false }, "geometry": { "type": "Point", "coordinates": [ -119.41627, 49.85593 ] } },
{ "type": "Feature", "properties": { "name": "near East Kelowna Road", "residents": 80, "baseline_drive_min": 28.1, "cut_time": null, "window_min": null, "drive_share": null, "cut_step": null, "tight": false }, "geometry": { "type": "Point", "coordinates": [ -119.41893, 49.86601 ] } },
{ "type": "Feature", "properties": { "name": "near Irma Road", "residents": 390, "baseline_drive_min": 26.5, "cut_time": null, "window_min": null, "drive_share": null, "cut_step": null, "tight": false }, "geometry": { "type": "Point", "coordinates": [ -119.40987, 49.87806 ] } },
{ "type": "Feature", "properties": { "name": "near Ziprick Road", "residents": 4000, "baseline_drive_min": 25.6, "cut_time": null, "window_min": null, "drive_share": null, "cut_step": null, "tight": false }, "geometry": { "type": "Point", "coordinates": [ -119.41412, 49.88423 ] } },
{ "type": "Feature", "properties": { "name": "near Highway 97 North", "residents": 2880, "baseline_drive_min": 25.3, "cut_time": null, "window_min": null, "drive_share": null, "cut_step": null, "tight": false }, "geometry": { "type": "Point", "coordinates": [ -119.41424, 49.89239 ] } },
{ "type": "Feature", "properties": { "name": "near Christina Place", "residents": 310, "baseline_drive_min": 26.4, "cut_time": null, "window_min": null, "drive_share": null, "cut_step": null, "tight": false }, "geometry": { "type": "Point", "coordinates": [ -119.41329, 49.89869 ] } },
{ "type": "Feature", "properties": { "name": "near McClain Road", "residents": 80, "baseline_drive_min": 34.0, "cut_time": null, "window_min": null, "drive_share": null, "cut_step": null, "tight": false }, "geometry": { "type": "Point", "coordinates": [ -119.40382, 49.83164 ] } },
{ "type": "Feature", "properties": { "name": "near Lupin Crescent", "residents": 380, "baseline_drive_min": 31.1, "cut_time": null, "window_min": null, "drive_share": null, "cut_step": null, "tight": false }, "geometry": { "type": "Point", "coordinates": [ -119.40538, 49.84018 ] } },
{ "type": "Feature", "properties": { "name": "near East Kelowna Road", "residents": 110, "baseline_drive_min": 29.6, "cut_time": null, "window_min": null, "drive_share": null, "cut_step": null, "tight": false }, "geometry": { "type": "Point", "coordinates": [ -119.40119, 49.86713 ] } },
{ "type": "Feature", "properties": { "name": "near Quigley Road", "residents": 1070, "baseline_drive_min": 26.9, "cut_time": null, "window_min": null, "drive_share": null, "cut_step": null, "tight": false }, "geometry": { "type": "Point", "coordinates": [ -119.40355, 49.8771 ] } },
{ "type": "Feature", "properties": { "name": "near Graham Road", "residents": 2580, "baseline_drive_min": 26.7, "cut_time": null, "window_min": null, "drive_share": null, "cut_step": null, "tight": false }, "geometry": { "type": "Point", "coordinates": [ -119.40364, 49.88428 ] } },
{ "type": "Feature", "properties": { "name": "near Houghton Road", "residents": 2290, "baseline_drive_min": 26.2, "cut_time": null, "window_min": null, "drive_share": null, "cut_step": null, "tight": false }, "geometry": { "type": "Point", "coordinates": [ -119.40455, 49.89254 ] } },
{ "type": "Feature", "properties": { "name": "near Pearson Road", "residents": 370, "baseline_drive_min": 27.3, "cut_time": null, "window_min": null, "drive_share": null, "cut_step": null, "tight": false }, "geometry": { "type": "Point", "coordinates": [ -119.40184, 49.89827 ] } }
]
}
