{"type": "FeatureCollection", "features": [{"id": "82", "type": "Feature", "properties": {}, "geometry": {"type": "Polygon", "coordinates": [[[-119.96182023550404, 49.56698351024351], [-119.96053104584158, 49.56695112016243], [-119.96076933308571, 49.56731031177467], [-119.96030747135175, 49.56754713124119], [-119.96161186067972, 49.56813858410673], [-119.96538149869998, 49.56775439255563], [-119.96668058984734, 49.56834699712049], [-119.96835354870677, 49.568348931379205], [-119.96859245611095, 49.56806756154735], [-119.96769812120722, 49.56684847181455], [-119.96913647978089, 49.5651751786655], [-119.97074561246566, 49.56519026449785], [-119.97388623241136, 49.56377276630979], [-119.97638033337935, 49.56377753884602], [-119.97711121120162, 49.56626427417668], [-119.97639380588141, 49.568546371074945], [-119.9764992661807, 49.57137749668084], [-119.97832314587309, 49.57370179752019], [-119.97961190345308, 49.579393745384365], [-119.98052991610699, 49.57919529152122], [-119.98426228377902, 49.580662499110474], [-119.98467724956417, 49.58403028118585], [-119.98619607970674, 49.585662358708085], [-119.99080335109556, 49.58635711443], [-119.99135169378856, 49.58678762759666], [-119.99426364262433, 49.58587892362104], [-119.99711904677268, 49.58639354926576], [-119.99593474340405, 49.58846782295275], [-119.9941618086436, 49.590152878747304], [-119.99454983372289, 49.592076381967225], [-119.99619216391383, 49.59418814435533], [-119.99606879993905, 49.59513232945819], [-119.99464483373191, 49.596242312336244], [-119.99116369392816, 49.59771392311367], [-119.99171762966935, 49.599765479472595], [-119.99083382445819, 49.60233182422252], [-119.98304240727956, 49.602851257901385], [-119.98169083499273, 49.60437843508237], [-119.97815034933942, 49.60624888589231], [-119.97811005005333, 49.60721066235543], [-119.97957081694058, 49.608078082037004], [-119.97897982858251, 49.609251207340066], [-119.97539024585663, 49.61029790411628], [-119.97470594622932, 49.61146292088123], [-119.9707558589423, 49.61418014946591], [-119.97024154786848, 49.61529023094896], [-119.96812180093883, 49.6165208939462], [-119.96733944912036, 49.6177903107501], [-119.96787030758807, 49.618912172041426], [-119.96749857013764, 49.61959706950625], [-119.96188131700744, 49.6220764488866], [-119.96388709620574, 49.62328194967946], [-119.9649813153154, 49.62282890457004], [-119.9653813941527, 49.62189200561218], [-119.96991655619283, 49.62492707210384], [-119.9698785164663, 49.6256274492237], [-119.96849762761165, 49.625987892438005], [-119.96877977496955, 49.62702828136784], [-119.96761905528889, 49.628396999668695], [-119.96755204732511, 49.63024923622166], [-119.96711797302423, 49.63040987375968], [-119.96770079735181, 49.631855812316545], [-119.9673852541862, 49.63296720250903], [-119.96666365489972, 49.63358289973831], [-119.96670391673815, 49.63748096251517], [-119.96611453011366, 49.63770618196474], [-119.9653035260558, 49.63956093567471], [-119.96644123325389, 49.639840796349766], [-119.96676275118408, 49.640617317622855], [-119.96230505671382, 49.641206823363994], [-119.95913123121602, 49.64011129016626], [-119.95679252180666, 49.640149005324666], [-119.95845699912431, 49.64250061846178], [-119.95593828413443, 49.643637057297546], [-119.95500909340443, 49.64472929045254], [-119.95617195959174, 49.64589749856161], [-119.95723058886104, 49.64875351789058], [-119.95610284634456, 49.64886722717913], [-119.95269409499053, 49.6477846897346], [-119.95253910114498, 49.64805418261678], [-119.95399155607055, 49.64898430580012], [-119.95248641140613, 49.650481700722345], [-119.94622490066256, 49.65010009356207], [-119.94811269096098, 49.65238184803802], [-119.9416782448028, 49.650020432871436], [-119.93941602341837, 49.65065774110586], [-119.93726409022335, 49.650511582126576], [-119.93645990070738, 49.651637473184834], [-119.93511355368312, 49.652011715849355], [-119.93353396111299, 49.651053632920615], [-119.92939271775235, 49.65035052304063], [-119.92938835214, 49.648167656122624], [-119.92778563776115, 49.64730676056537], [-119.92673699413001, 49.647874916410096], [-119.92419428117479, 49.647335689372746], [-119.92088769416996, 49.64511070485514], [-119.92069416184644, 49.64396121609375], [-119.92150358278485, 49.64224973498955], [-119.9208332402562, 49.64085814840185], [-119.91976626908911, 49.6400179420366], [-119.91639530697158, 49.64001924449528], [-119.90985573825914, 49.63892368852739], [-119.90977753561732, 49.63999176432195], [-119.90905167599159, 49.64059327826293], [-119.91157274765828, 49.64217715040057], [-119.91573139074896, 49.64264014820591], [-119.91811660371027, 49.64618109738094], [-119.92061473208265, 49.64816275227496], [-119.92038683073558, 49.64856281950763], [-119.92087138734797, 49.64932049988893], [-119.92035167728524, 49.649734363307594], [-119.92107707393065, 49.651338951615315], [-119.92059693492118, 49.65242502553918], [-119.91962502807385, 49.65312260227074], [-119.9204697496913, 49.654433129233915], [-119.92011097585598, 49.65504469460687], [-119.91537641646283, 49.655773049141985], [-119.91286753536436, 49.6542704726508], [-119.91001311827179, 49.65430103136931], [-119.90815225367714, 49.65646690949885], [-119.90496037602155, 49.658848858587895], [-119.9021648515699, 49.6584823038268], [-119.90184800264602, 49.66047653930274], [-119.90097132765476, 49.66133552495013], [-119.89905972602335, 49.66089800168891], [-119.89895062947262, 49.658373750129854], [-119.89785678694037, 49.65677344146675], [-119.89404015731463, 49.656123996654706], [-119.8935709563499, 49.65525742718582], [-119.89095884562582, 49.654129058579], [-119.89006431644982, 49.653069471732955], [-119.88548827950622, 49.65215177701798], [-119.8824335936101, 49.65208144850764], [-119.88235832311436, 49.652737099061646], [-119.88160399039539, 49.653284896116894], [-119.87998228522612, 49.65305120254396], [-119.87875221757837, 49.652006153408955], [-119.8757086146663, 49.65351632028664], [-119.87301093719852, 49.653735801821774], [-119.87024972340868, 49.65469176714282], [-119.86934478291252, 49.65631271149599], [-119.86653419703835, 49.65700180841239], [-119.86573217849028, 49.657599692583695], [-119.86553070524234, 49.65901933602991], [-119.86434870812145, 49.659365807020045], [-119.86323722368299, 49.659185000910526], [-119.86232207779359, 49.657536638246796], [-119.8578348572427, 49.65824856933834], [-119.85607047108296, 49.65978358174924], [-119.85475434611207, 49.66006334282241], [-119.85359155544364, 49.66105625866756], [-119.85825283754755, 49.663136679395755], [-119.86020870578595, 49.665861106723405], [-119.86392231006536, 49.66717881722173], [-119.86448781877651, 49.66800631310679], [-119.86398014811152, 49.669423804019274], [-119.85133188285539, 49.671009592439546], [-119.84865742708764, 49.673058695210415], [-119.8469308502627, 49.673226616245124], [-119.84713810867373, 49.675407590119626], [-119.8467553999521, 49.67656647085059], [-119.84354324652882, 49.67685048642292], [-119.84099530675975, 49.67830611291366], [-119.83751342766072, 49.678562628385905], [-119.83234380744506, 49.68003641367972], [-119.8300717915727, 49.683425162530085], [-119.82732316766898, 49.683062763969815], [-119.82499779340246, 49.681580110761985], [-119.82415077506494, 49.68316768565724], [-119.82242120681403, 49.68318163102625], [-119.82183289199992, 49.682419003339646], [-119.82146952130796, 49.68008819466624], [-119.81877248877086, 49.679522076981236], [-119.81633268597903, 49.67781456896744], [-119.81595528112196, 49.67637059003721], [-119.81352115183091, 49.675138224526776], [-119.81240115450645, 49.675856969330205], [-119.81079088367908, 49.67601302260741], [-119.80897251286534, 49.67582692738226], [-119.8085273771689, 49.6748947903525], [-119.80446556068352, 49.67557775896307], [-119.79945723257627, 49.67288681023365], [-119.79911979128781, 49.67175154785393], [-119.80106725119367, 49.670055729555976], [-119.80523311223446, 49.66997433693715], [-119.80641006301146, 49.669288051514336], [-119.80727188892247, 49.66811800253914], [-119.80745800311078, 49.66673950675906], [-119.80535451345672, 49.66416638200953], [-119.80341994237796, 49.663159369306065], [-119.80162869142302, 49.65955991588361], [-119.7999970640799, 49.65937717414324], [-119.79884853037531, 49.65868391954753], [-119.79821433662377, 49.65774005371955], [-119.79795397696633, 49.65596687520991], [-119.79414332959713, 49.65469378131691], [-119.79375426694345, 49.65399898746097], [-119.7938693375363, 49.651617836555026], [-119.79176920351212, 49.65082005931901], [-119.79096184602666, 49.65168722120574], [-119.79093986329862, 49.65643884387645], [-119.79396106225487, 49.66220651900943], [-119.79371793249527, 49.66277506636183], [-119.79487902358902, 49.66560780787139], [-119.79587087534128, 49.66688151518093], [-119.79630381326815, 49.671793388624636], [-119.79748381552125, 49.672496407841216], [-119.796497491714, 49.6754218159681], [-119.79442686653144, 49.678390301921404], [-119.7952299112832, 49.68330005171198], [-119.79364826712458, 49.68454704739431], [-119.7921809073124, 49.68721534737055], [-119.79355548134743, 49.68838147125839], [-119.79309714332273, 49.68953329178494], [-119.7894211806949, 49.690874931875825], [-119.78402771221828, 49.690319104898535], [-119.78266885169356, 49.68908545475468], [-119.77899340129856, 49.68832533677548], [-119.77896159848349, 49.687735463770046], [-119.77773371007326, 49.687258831107], [-119.7774446983678, 49.686414751791155], [-119.77645460965974, 49.68679776920418], [-119.77820493619978, 49.68978736067244], [-119.77795400000034, 49.690249000450336], [-119.77554363116948, 49.690349213731274], [-119.77438899897737, 49.68983700042307], [-119.77168914427666, 49.68969907916177], [-119.76952270844674, 49.688273826691294], [-119.77087799920756, 49.69263899944577], [-119.77259000030095, 49.69555900012], [-119.7693850007207, 49.697159000395], [-119.7669699993153, 49.69461600029189], [-119.76664600003333, 49.692966000367655], [-119.76582499935482, 49.69253800074706], [-119.76552599916513, 49.691226000771856], [-119.76321208445307, 49.69151358601473], [-119.76386299869749, 49.691038000715785], [-119.76321599968018, 49.68998300022721], [-119.76339700008829, 49.689419000794615], [-119.76455300027897, 49.68824100050107], [-119.76370603975305, 49.68725327600127], [-119.7595080000844, 49.687334000446114], [-119.7585569998968, 49.68810499992915], [-119.75788999984704, 49.68770100018896], [-119.75464299849519, 49.68978200046704], [-119.75390299991662, 49.68971000022727], [-119.75434999942026, 49.68888200096498], [-119.75373499884944, 49.68679200017859], [-119.75046100076824, 49.68523100010402], [-119.74710985486114, 49.68674844179606], [-119.74390854563806, 49.686982764437204], [-119.73807495368756, 49.685530969470534], [-119.73748291597191, 49.686370736190824], [-119.73565796670987, 49.68712924138764], [-119.7345128380935, 49.68863810211011], [-119.73253754261677, 49.68877828585509], [-119.73080711078136, 49.688272135579844], [-119.72899040597802, 49.68725296696193], [-119.72289221625705, 49.68207494249854], [-119.71778616922045, 49.68091831360503], [-119.71542329142036, 49.67980970345731], [-119.71267443698731, 49.67584027086469], [-119.7112358600455, 49.67497940630939], [-119.70826506961114, 49.670337950602324], [-119.70550550752017, 49.66898239613291], [-119.70420721790767, 49.66771140968942], [-119.70413663154228, 49.66585839882289], [-119.70115132511066, 49.66327527971967], [-119.6995267388311, 49.660860469940445], [-119.6971467465177, 49.65923153360932], [-119.69650170698925, 49.65589685309874], [-119.69506330706261, 49.65351963951789], [-119.69491997838881, 49.652243346934426], [-119.69564756735207, 49.65175568874333], [-119.6912910824441, 49.64651369177526], [-119.68902295728499, 49.641598509839895], [-119.68746177179062, 49.64090986371855], [-119.68627902723424, 49.63880813897453], [-119.68313775561127, 49.636233737973946], [-119.6820043205284, 49.63377603623946], [-119.68350749507047, 49.630873742346964], [-119.68428073310056, 49.625856783810534], [-119.68717788287539, 49.62558605648154], [-119.69083734120868, 49.6230481844526], [-119.69126747319517, 49.622594818661206], [-119.69117971544831, 49.62055669321328], [-119.69324867086794, 49.6188830445477], [-119.69390366974429, 49.6154529777818], [-119.69768254544681, 49.61471569641657], [-119.69898875620021, 49.61323684957213], [-119.6984544446559, 49.611770752544906], [-119.69667587201732, 49.6099932211791], [-119.69493099620834, 49.60975966670981], [-119.69392910015958, 49.6090917549554], [-119.69391084068772, 49.608086985668706], [-119.69232123313606, 49.60555454590709], [-119.69182339217453, 49.603380339287426], [-119.69186918657064, 49.601909512274155], [-119.69474686325928, 49.60056132318728], [-119.69573458858716, 49.598098943317325], [-119.69856260238583, 49.59602306469982], [-119.6997782138438, 49.59583558025411], [-119.70040129162116, 49.59627319263804], [-119.70042611580915, 49.59692774590359], [-119.69929613264004, 49.60124260714125], [-119.70004591404064, 49.60327420071958], [-119.70253650697313, 49.60418337734461], [-119.70534925583674, 49.60320822218968], [-119.7060181499049, 49.60365278102861], [-119.70624696014112, 49.60489510293566], [-119.70771108372534, 49.605042107580175], [-119.70791603426227, 49.603903974818785], [-119.71261347340064, 49.60371453581494], [-119.71283326534125, 49.60229326379981], [-119.71349310391244, 49.60252071268904], [-119.71267804261815, 49.601593216325895], [-119.71065610108916, 49.60155819192006], [-119.71063484270114, 49.59886921221927], [-119.715136481356, 49.59842647075631], [-119.71527287936807, 49.59727260963767], [-119.71640000087073, 49.59792409073019], [-119.71732000611829, 49.59713592112371], [-119.71769771182372, 49.59788082826871], [-119.72033353234366, 49.59765994157947], [-119.72119343428677, 49.597204380785485], [-119.720510528206, 49.59709257781647], [-119.7206152245556, 49.59653170371657], [-119.72479350244495, 49.59614101593044], [-119.73143981526313, 49.591630386209225], [-119.73313330356214, 49.589780197065], [-119.73459306162434, 49.58946682334825], [-119.73857935478412, 49.58718558348971], [-119.73714422057392, 49.58423261427111], [-119.73309662049935, 49.582922566176435], [-119.72958418455076, 49.58307837515327], [-119.7263512257261, 49.58253268825026], [-119.72565440193077, 49.58225320575123], [-119.72556206003621, 49.5815837632567], [-119.7230396878871, 49.58074681861371], [-119.72091958823957, 49.577935587142676], [-119.72059621933876, 49.57517771662713], [-119.71662974915267, 49.57300053660462], [-119.71588064045677, 49.57176119031688], [-119.71571078471791, 49.57031621130347], [-119.71264995208993, 49.565833358921886], [-119.71237540807228, 49.56246874206651], [-119.71276484529187, 49.55962099662574], [-119.71419163100008, 49.557965234686776], [-119.71199673884831, 49.55529037899221], [-119.71077508417012, 49.5509072057968], [-119.71225506205742, 49.5506130819111], [-119.71473235384023, 49.54915875856162], [-119.71580487935307, 49.54753863511715], [-119.7179188132376, 49.54881371705166], [-119.71912434906878, 49.547304527527125], [-119.72224031457812, 49.54599451729772], [-119.72298910028108, 49.543457065238684], [-119.72416159195929, 49.54419764501289], [-119.72962557386039, 49.539592159294465], [-119.73142453510366, 49.53873293179322], [-119.73433889459287, 49.538901465092806], [-119.73477572892945, 49.539430367752495], [-119.73526579900766, 49.538864503747305], [-119.73658460672448, 49.538783778516034], [-119.73713068407633, 49.537806329702896], [-119.73904541384042, 49.5379985560698], [-119.73975720695873, 49.538518976728646], [-119.74322369356763, 49.53719969652815], [-119.74374621581764, 49.53646502716836], [-119.7426640838891, 49.53498504212622], [-119.74602068673501, 49.53262935662848], [-119.74775278649939, 49.53232140124434], [-119.74892412658807, 49.53327793767692], [-119.75105968266156, 49.53309344284197], [-119.75335742552315, 49.531644129882665], [-119.75396614753951, 49.53169833592813], [-119.75492455658365, 49.5332829078449], [-119.7547732744664, 49.53482043933088], [-119.75643412944308, 49.536126059042715], [-119.75807121941516, 49.53625521380857], [-119.75801562100604, 49.53757159507803], [-119.75864023645518, 49.53822110382094], [-119.75970786395497, 49.537542102823664], [-119.76133122715488, 49.539608118917506], [-119.76392675888117, 49.53911962282932], [-119.76634437812248, 49.539433688858615], [-119.76715786540242, 49.53747215569192], [-119.76592925320077, 49.532582593347804], [-119.7660868820487, 49.530510310582414], [-119.76486916148386, 49.529797933707144], [-119.76371809422355, 49.527728279444446], [-119.7637086794842, 49.52641251743744], [-119.76270164705278, 49.52380056431064], [-119.76336266436049, 49.52188219540114], [-119.77155631981543, 49.52079254232803], [-119.77501575140262, 49.52003040098733], [-119.77664696478149, 49.5188763727035], [-119.77740362226368, 49.51891983935437], [-119.78006363360815, 49.52031370084286], [-119.78028993943133, 49.52093280639141], [-119.78115329000677, 49.52109781920439], [-119.78224134283363, 49.5205830260849], [-119.78230102676052, 49.52145232215959], [-119.79386825055798, 49.52637185497474], [-119.79423404809833, 49.52807250036408], [-119.79626777117981, 49.52837793020982], [-119.79676181079519, 49.52956886584545], [-119.79652675332174, 49.530224458848096], [-119.795225324605, 49.53090137781983], [-119.79378385162637, 49.53108325524065], [-119.7941177116725, 49.53298434395148], [-119.7953907028881, 49.53399823780697], [-119.79869670596756, 49.534387592853385], [-119.79934435824288, 49.53733971125487], [-119.80132934236231, 49.53948707264927], [-119.80271013337286, 49.54231772761112], [-119.80573573622789, 49.54384895262373], [-119.8062701020546, 49.544892586687936], [-119.8062187355391, 49.546434539587665], [-119.80778866961091, 49.54856379414848], [-119.81371360355335, 49.55176852813162], [-119.81617077523742, 49.55220214808542], [-119.81637748688455, 49.55289862682848], [-119.81556077468676, 49.55398024904655], [-119.82023878612223, 49.5561418001486], [-119.82079109448227, 49.55749217055191], [-119.81987190855313, 49.558513442446994], [-119.81981974788698, 49.55954373582937], [-119.82113772342709, 49.56012016049454], [-119.82185858313727, 49.56412241165882], [-119.82368249029838, 49.56252559118393], [-119.82410331146782, 49.56007743461208], [-119.82650617549072, 49.559082322524645], [-119.82947645966917, 49.55701853437432], [-119.83040380441076, 49.55734140031285], [-119.83173926939513, 49.5567599213572], [-119.83118961282851, 49.55561233519552], [-119.83182442685991, 49.554868280979946], [-119.8341730910293, 49.55484701638235], [-119.83519331772655, 49.55374799002058], [-119.83523129424952, 49.553056727366645], [-119.8375097228384, 49.55163191496697], [-119.83903071812132, 49.551599818416456], [-119.84194913487093, 49.55291152363469], [-119.84734720149142, 49.553376042657995], [-119.84858292190606, 49.55320908011322], [-119.8520002272683, 49.55102676856742], [-119.85337632852873, 49.550715168536335], [-119.8541387558833, 49.55120796033734], [-119.85627790403139, 49.556723984529704], [-119.85710002656894, 49.55745989229647], [-119.85781870236838, 49.563126329370895], [-119.86007103756683, 49.56347243087496], [-119.86101976452065, 49.56473300895012], [-119.86442355853221, 49.565168621217275], [-119.86596245450713, 49.563975094112706], [-119.86934209203878, 49.56460579748368], [-119.8708551458275, 49.564372608450896], [-119.87520471844108, 49.565322631962786], [-119.87645419712823, 49.56624516013057], [-119.8787893677054, 49.56693011918493], [-119.88441711479496, 49.567815032096476], [-119.88683245317029, 49.56765150119472], [-119.88727174382835, 49.568155769080974], [-119.88687895787523, 49.56903270922029], [-119.88815297115231, 49.57018339622891], [-119.89192921021848, 49.5709068094666], [-119.89113817247858, 49.57820340340161], [-119.89581855815094, 49.58075616122878], [-119.89754143622194, 49.581019534571546], [-119.90055156735649, 49.58236780212854], [-119.90454206147979, 49.58510077888555], [-119.9052842494132, 49.58610144121198], [-119.90372264449647, 49.58850104671674], [-119.90407381275584, 49.58894380515026], [-119.90676506045403, 49.5870647899294], [-119.9068845613318, 49.58616347402571], [-119.9085767976152, 49.58366115862568], [-119.90983055589624, 49.577621888406696], [-119.90899819843094, 49.57329541587425], [-119.90933663114455, 49.57142542060355], [-119.9113562791461, 49.57304008698858], [-119.91766017235447, 49.57342075153339], [-119.91952863235377, 49.57259033490972], [-119.91988680170064, 49.57186971499868], [-119.91876771672848, 49.5703902473033], [-119.92277923853615, 49.56964537706985], [-119.92615828360894, 49.568325068014715], [-119.92712309235442, 49.56719848451211], [-119.9302031973249, 49.56686313891621], [-119.93414928912661, 49.56523677358511], [-119.93698957423771, 49.56516692771843], [-119.93990099952366, 49.56728299966746], [-119.94035300054071, 49.56668099937716], [-119.94252400000343, 49.56663599953216], [-119.94315199977956, 49.56627099991599], [-119.94231599972069, 49.56561100027377], [-119.94356900037168, 49.564984000368995], [-119.94406000108374, 49.56403000053802], [-119.94371100013467, 49.56366499989116], [-119.94455399922839, 49.56363099993908], [-119.94407467486923, 49.561331507871444], [-119.94978530512122, 49.55970152112377], [-119.95082501332843, 49.5599368533464], [-119.95058042191643, 49.56128130341235], [-119.95336862331501, 49.56054278786935], [-119.9557849661518, 49.56252204907172], [-119.95672770911752, 49.562684536154755], [-119.95791409232365, 49.56163285529097], [-119.95929742160905, 49.56189404215996], [-119.95931917818824, 49.56256922420613], [-119.96026595829285, 49.562642032182545], [-119.95958612990005, 49.56315115118338], [-119.95810436629927, 49.56314794481983], [-119.95803897212524, 49.56386538768407], [-119.960651882384, 49.56504534331184], [-119.96182023550404, 49.56698351024351]]]}, "bbox": [-119.99711904677268, 49.5188763727035, -119.6820043205284, 49.697159000395]}], "bbox": [-119.99711904677268, 49.5188763727035, -119.6820043205284, 49.697159000395]}