{
"type": "FeatureCollection",
"name": "points",
"crs": { "type": "name", "properties": { "name": "urn:ogc:def:crs:OGC:1.3:CRS84" } },
"xy_coordinate_resolution": 1e-05,
"features": [
{ "type": "Feature", "properties": { "kind": "exit" }, "geometry": { "type": "Point", "coordinates": [ -119.72412, 49.78364 ] } },
{ "type": "Feature", "properties": { "kind": "exit" }, "geometry": { "type": "Point", "coordinates": [ -119.53098, 49.30012 ] } },
{ "type": "Feature", "properties": { "kind": "exit" }, "geometry": { "type": "Point", "coordinates": [ -119.60301, 49.49327 ] } },
{ "type": "Feature", "properties": { "kind": "origin" }, "geometry": { "type": "Point", "coordinates": [ -119.68136, 49.58595 ] } },
{ "type": "Feature", "properties": { "kind": "origin" }, "geometry": { "type": "Point", "coordinates": [ -119.69031, 49.60566 ] } },
{ "type": "Feature", "properties": { "kind": "origin" }, "geometry": { "type": "Point", "coordinates": [ -119.69021, 49.61023 ] } },
{ "type": "Feature", "properties": { "kind": "origin" }, "geometry": { "type": "Point", "coordinates": [ -119.69375, 49.60572 ] } },
{ "type": "Feature", "properties": { "kind": "origin" }, "geometry": { "type": "Point", "coordinates": [ -119.67765, 49.6049 ] } },
{ "type": "Feature", "properties": { "kind": "origin" }, "geometry": { "type": "Point", "coordinates": [ -119.68274, 49.60021 ] } },
{ "type": "Feature", "properties": { "kind": "origin" }, "geometry": { "type": "Point", "coordinates": [ -119.68076, 49.59841 ] } },
{ "type": "Feature", "properties": { "kind": "origin" }, "geometry": { "type": "Point", "coordinates": [ -119.6909, 49.59771 ] } },
{ "type": "Feature", "properties": { "kind": "origin" }, "geometry": { "type": "Point", "coordinates": [ -119.69412, 49.59714 ] } },
{ "type": "Feature", "properties": { "kind": "origin" }, "geometry": { "type": "Point", "coordinates": [ -119.68913, 49.60236 ] } },
{ "type": "Feature", "properties": { "kind": "origin" }, "geometry": { "type": "Point", "coordinates": [ -119.65225, 49.59393 ] } },
{ "type": "Feature", "properties": { "kind": "origin" }, "geometry": { "type": "Point", "coordinates": [ -119.65075, 49.59062 ] } },
{ "type": "Feature", "properties": { "kind": "origin" }, "geometry": { "type": "Point", "coordinates": [ -119.68118, 49.59399 ] } },
{ "type": "Feature", "properties": { "kind": "origin" }, "geometry": { "type": "Point", "coordinates": [ -119.6658, 49.60558 ] } },
{ "type": "Feature", "properties": { "kind": "origin" }, "geometry": { "type": "Point", "coordinates": [ -119.66325, 49.60123 ] } },
{ "type": "Feature", "properties": { "kind": "origin" }, "geometry": { "type": "Point", "coordinates": [ -119.6568, 49.59852 ] } },
{ "type": "Feature", "properties": { "kind": "origin" }, "geometry": { "type": "Point", "coordinates": [ -119.66534, 49.60278 ] } },
{ "type": "Feature", "properties": { "kind": "origin" }, "geometry": { "type": "Point", "coordinates": [ -119.65571, 49.6041 ] } },
{ "type": "Feature", "properties": { "kind": "origin" }, "geometry": { "type": "Point", "coordinates": [ -119.65669, 49.60372 ] } },
{ "type": "Feature", "properties": { "kind": "origin" }, "geometry": { "type": "Point", "coordinates": [ -119.67803, 49.58295 ] } },
{ "type": "Feature", "properties": { "kind": "origin" }, "geometry": { "type": "Point", "coordinates": [ -119.67576, 49.58239 ] } },
{ "type": "Feature", "properties": { "kind": "origin" }, "geometry": { "type": "Point", "coordinates": [ -119.67671, 49.59111 ] } },
{ "type": "Feature", "properties": { "kind": "origin" }, "geometry": { "type": "Point", "coordinates": [ -119.69531, 49.59067 ] } },
{ "type": "Feature", "properties": { "kind": "origin" }, "geometry": { "type": "Point", "coordinates": [ -119.69839, 49.59068 ] } },
{ "type": "Feature", "properties": { "kind": "origin" }, "geometry": { "type": "Point", "coordinates": [ -119.69538, 49.58893 ] } },
{ "type": "Feature", "properties": { "kind": "origin" }, "geometry": { "type": "Point", "coordinates": [ -119.65971, 49.59388 ] } },
{ "type": "Feature", "properties": { "kind": "origin" }, "geometry": { "type": "Point", "coordinates": [ -119.65862, 49.59761 ] } },
{ "type": "Feature", "properties": { "kind": "origin" }, "geometry": { "type": "Point", "coordinates": [ -119.66523, 49.59633 ] } },
{ "type": "Feature", "properties": { "kind": "origin" }, "geometry": { "type": "Point", "coordinates": [ -119.67206, 49.60208 ] } },
{ "type": "Feature", "properties": { "kind": "origin" }, "geometry": { "type": "Point", "coordinates": [ -119.68453, 49.57966 ] } },
{ "type": "Feature", "properties": { "kind": "origin" }, "geometry": { "type": "Point", "coordinates": [ -119.67731, 49.59756 ] } },
{ "type": "Feature", "properties": { "kind": "origin" }, "geometry": { "type": "Point", "coordinates": [ -119.70843, 49.59342 ] } },
{ "type": "Feature", "properties": { "kind": "origin" }, "geometry": { "type": "Point", "coordinates": [ -119.70857, 49.59427 ] } },
{ "type": "Feature", "properties": { "kind": "origin" }, "geometry": { "type": "Point", "coordinates": [ -119.65354, 49.61008 ] } },
{ "type": "Feature", "properties": { "kind": "origin" }, "geometry": { "type": "Point", "coordinates": [ -119.67805, 49.57957 ] } },
{ "type": "Feature", "properties": { "kind": "origin" }, "geometry": { "type": "Point", "coordinates": [ -119.71008, 49.6019 ] } },
{ "type": "Feature", "properties": { "kind": "origin" }, "geometry": { "type": "Point", "coordinates": [ -119.7056, 49.59989 ] } },
{ "type": "Feature", "properties": { "kind": "origin" }, "geometry": { "type": "Point", "coordinates": [ -119.65953, 49.58436 ] } },
{ "type": "Feature", "properties": { "kind": "origin" }, "geometry": { "type": "Point", "coordinates": [ -119.70273, 49.59468 ] } },
{ "type": "Feature", "properties": { "kind": "origin" }, "geometry": { "type": "Point", "coordinates": [ -119.711, 49.60293 ] } },
{ "type": "Feature", "properties": { "kind": "origin" }, "geometry": { "type": "Point", "coordinates": [ -119.658, 49.60595 ] } },
{ "type": "Feature", "properties": { "kind": "origin" }, "geometry": { "type": "Point", "coordinates": [ -119.69024, 49.58203 ] } },
{ "type": "Feature", "properties": { "kind": "origin" }, "geometry": { "type": "Point", "coordinates": [ -119.67568, 49.58602 ] } },
{ "type": "Feature", "properties": { "kind": "origin" }, "geometry": { "type": "Point", "coordinates": [ -119.68649, 49.59435 ] } },
{ "type": "Feature", "properties": { "kind": "origin" }, "geometry": { "type": "Point", "coordinates": [ -119.69521, 49.59956 ] } },
{ "type": "Feature", "properties": { "kind": "origin" }, "geometry": { "type": "Point", "coordinates": [ -119.65785, 49.58904 ] } },
{ "type": "Feature", "properties": { "kind": "origin" }, "geometry": { "type": "Point", "coordinates": [ -119.68419, 49.60559 ] } },
{ "type": "Feature", "properties": { "kind": "origin" }, "geometry": { "type": "Point", "coordinates": [ -119.64765, 49.59128 ] } },
{ "type": "Feature", "properties": { "kind": "origin" }, "geometry": { "type": "Point", "coordinates": [ -119.67565, 49.58008 ] } },
{ "type": "Feature", "properties": { "kind": "origin" }, "geometry": { "type": "Point", "coordinates": [ -119.69149, 49.58493 ] } },
{ "type": "Feature", "properties": { "kind": "origin" }, "geometry": { "type": "Point", "coordinates": [ -119.64889, 49.5888 ] } },
{ "type": "Feature", "properties": { "kind": "origin" }, "geometry": { "type": "Point", "coordinates": [ -119.7042, 49.58848 ] } },
{ "type": "Feature", "properties": { "kind": "origin" }, "geometry": { "type": "Point", "coordinates": [ -119.66853, 49.58793 ] } },
{ "type": "Feature", "properties": { "kind": "origin" }, "geometry": { "type": "Point", "coordinates": [ -119.70134, 49.60777 ] } },
{ "type": "Feature", "properties": { "kind": "origin" }, "geometry": { "type": "Point", "coordinates": [ -119.65999, 49.60924 ] } },
{ "type": "Feature", "properties": { "kind": "origin" }, "geometry": { "type": "Point", "coordinates": [ -119.67848, 49.61406 ] } },
{ "type": "Feature", "properties": { "kind": "origin" }, "geometry": { "type": "Point", "coordinates": [ -119.67951, 49.6186 ] } },
{ "type": "Feature", "properties": { "kind": "origin" }, "geometry": { "type": "Point", "coordinates": [ -119.68733, 49.62071 ] } },
{ "type": "Feature", "properties": { "kind": "origin" }, "geometry": { "type": "Point", "coordinates": [ -119.67766, 49.6222 ] } },
{ "type": "Feature", "properties": { "kind": "origin" }, "geometry": { "type": "Point", "coordinates": [ -119.66952, 49.6229 ] } },
{ "type": "Feature", "properties": { "kind": "origin" }, "geometry": { "type": "Point", "coordinates": [ -119.6807, 49.61244 ] } },
{ "type": "Feature", "properties": { "kind": "origin" }, "geometry": { "type": "Point", "coordinates": [ -119.6807, 49.61284 ] } },
{ "type": "Feature", "properties": { "kind": "origin" }, "geometry": { "type": "Point", "coordinates": [ -119.67857, 49.6124 ] } },
{ "type": "Feature", "properties": { "kind": "origin" }, "geometry": { "type": "Point", "coordinates": [ -119.67438, 49.61882 ] } },
{ "type": "Feature", "properties": { "kind": "origin" }, "geometry": { "type": "Point", "coordinates": [ -119.68308, 49.62271 ] } },
{ "type": "Feature", "properties": { "kind": "origin" }, "geometry": { "type": "Point", "coordinates": [ -119.68709, 49.61634 ] } },
{ "type": "Feature", "properties": { "kind": "origin" }, "geometry": { "type": "Point", "coordinates": [ -119.66277, 49.61827 ] } },
{ "type": "Feature", "properties": { "kind": "origin" }, "geometry": { "type": "Point", "coordinates": [ -119.66729, 49.61786 ] } },
{ "type": "Feature", "properties": { "kind": "origin" }, "geometry": { "type": "Point", "coordinates": [ -119.66905, 49.61263 ] } },
{ "type": "Feature", "properties": { "kind": "origin" }, "geometry": { "type": "Point", "coordinates": [ -119.66483, 49.61564 ] } },
{ "type": "Feature", "properties": { "kind": "origin" }, "geometry": { "type": "Point", "coordinates": [ -119.66707, 49.61561 ] } },
{ "type": "Feature", "properties": { "kind": "origin" }, "geometry": { "type": "Point", "coordinates": [ -119.69361, 49.61026 ] } },
{ "type": "Feature", "properties": { "kind": "origin" }, "geometry": { "type": "Point", "coordinates": [ -119.69824, 49.61404 ] } },
{ "type": "Feature", "properties": { "kind": "origin" }, "geometry": { "type": "Point", "coordinates": [ -119.6862, 49.62166 ] } }
]
}
