{
"type": "FeatureCollection",
"name": "pois",
"crs": { "type": "name", "properties": { "name": "urn:ogc:def:crs:OGC:1.3:CRS84" } },
"xy_coordinate_resolution": 1e-05,
"features": [
{ "type": "Feature", "properties": { "kind": "school", "name": "Glenmore Elementary" }, "geometry": { "type": "Point", "coordinates": [ -119.45485, 49.89789 ] } },
{ "type": "Feature", "properties": { "kind": "school", "name": "Rose ValleyElementary" }, "geometry": { "type": "Point", "coordinates": [ -119.55684, 49.88738 ] } },
{ "type": "Feature", "properties": { "kind": "school", "name": "Skaha Middle School" }, "geometry": { "type": "Point", "coordinates": [ -119.58176, 49.46361 ] } },
{ "type": "Feature", "properties": { "kind": "school", "name": "Princess Margaret Secondary School" }, "geometry": { "type": "Point", "coordinates": [ -119.58356, 49.4628 ] } },
{ "type": "Feature", "properties": { "kind": "community_centre", "name": "Project literacy" }, "geometry": { "type": "Point", "coordinates": [ -119.48969, 49.88512 ] } },
{ "type": "Feature", "properties": { "kind": "school", "name": "Parkway Elementary" }, "geometry": { "type": "Point", "coordinates": [ -119.58977, 49.4717 ] } },
{ "type": "Feature", "properties": { "kind": "school", "name": "Unisus School" }, "geometry": { "type": "Point", "coordinates": [ -119.6766, 49.57901 ] } },
{ "type": "Feature", "properties": { "kind": "community_centre", "name": "Harold Simpson Memorial Youth Centre" }, "geometry": { "type": "Point", "coordinates": [ -119.67605, 49.60461 ] } },
{ "type": "Feature", "properties": { "kind": "park", "name": "Chute Lake Recreation Site" }, "geometry": { "type": "Point", "coordinates": [ -119.53231, 49.68845 ] } },
{ "type": "Feature", "properties": { "kind": "park", "name": "Old Hedley Road East Recreation Site" }, "geometry": { "type": "Point", "coordinates": [ -120.17822, 49.38386 ] } },
{ "type": "Feature", "properties": { "kind": "park", "name": "Old Hedley Road West Recreation Site" }, "geometry": { "type": "Point", "coordinates": [ -120.19273, 49.38567 ] } },
{ "type": "Feature", "properties": { "kind": "park", "name": "Mission Recreation Park" }, "geometry": { "type": "Point", "coordinates": [ -119.47798, 49.8414 ] } },
{ "type": "Feature", "properties": { "kind": "park", "name": "Dilworth Mountain Park" }, "geometry": { "type": "Point", "coordinates": [ -119.43431, 49.90228 ] } },
{ "type": "Feature", "properties": { "kind": "park", "name": "Knox Mountain Park" }, "geometry": { "type": "Point", "coordinates": [ -119.45886, 49.91487 ] } },
{ "type": "Feature", "properties": { "kind": "park", "name": "Kalamoir Regional Park" }, "geometry": { "type": "Point", "coordinates": [ -119.5437, 49.84982 ] } },
{ "type": "Feature", "properties": { "kind": "school", "name": "Constable Neil Bruce Middle School" }, "geometry": { "type": "Point", "coordinates": [ -119.59693, 49.85876 ] } },
{ "type": "Feature", "properties": { "kind": "hospital", "name": "Kelowna General Hospital" }, "geometry": { "type": "Point", "coordinates": [ -119.49327, 49.87406 ] } },
{ "type": "Feature", "properties": { "kind": "park", "name": "Parkinson Recreation Park" }, "geometry": { "type": "Point", "coordinates": [ -119.45931, 49.88489 ] } },
{ "type": "Feature", "properties": { "kind": "school", "name": "Springvalley Elementary and Middle School" }, "geometry": { "type": "Point", "coordinates": [ -119.41924, 49.88459 ] } },
{ "type": "Feature", "properties": { "kind": "school", "name": "Kelowna Secondary School" }, "geometry": { "type": "Point", "coordinates": [ -119.47894, 49.86425 ] } },
{ "type": "Feature", "properties": { "kind": "school", "name": "Raymer Elementary School" }, "geometry": { "type": "Point", "coordinates": [ -119.48902, 49.86437 ] } },
{ "type": "Feature", "properties": { "kind": "beach", "name": "Tugboat Bay Beach" }, "geometry": { "type": "Point", "coordinates": [ -119.49939, 49.89428 ] } },
{ "type": "Feature", "properties": { "kind": "school", "name": "Carmi Elementary School" }, "geometry": { "type": "Point", "coordinates": [ -119.58145, 49.48196 ] } },
{ "type": "Feature", "properties": { "kind": "school", "name": "Quigley Elementary School" }, "geometry": { "type": "Point", "coordinates": [ -119.39991, 49.88072 ] } },
{ "type": "Feature", "properties": { "kind": "school", "name": "Hollywood Education Centre" }, "geometry": { "type": "Point", "coordinates": [ -119.39943, 49.87695 ] } },
{ "type": "Feature", "properties": { "kind": "school", "name": "Peachland Elementary School" }, "geometry": { "type": "Point", "coordinates": [ -119.71807, 49.78686 ] } },
{ "type": "Feature", "properties": { "kind": "school", "name": "Chute Lake Elementary" }, "geometry": { "type": "Point", "coordinates": [ -119.50956, 49.79572 ] } },
{ "type": "Feature", "properties": { "kind": "park", "name": "Cedar Mountain Regional Park" }, "geometry": { "type": "Point", "coordinates": [ -119.52646, 49.77662 ] } },
{ "type": "Feature", "properties": { "kind": "park", "name": "Elinor Lake Recreation Site" }, "geometry": { "type": "Point", "coordinates": [ -119.53759, 49.66742 ] } },
{ "type": "Feature", "properties": { "kind": "park", "name": "Isintok Lake Recreation Site" }, "geometry": { "type": "Point", "coordinates": [ -119.98052, 49.54207 ] } },
{ "type": "Feature", "properties": { "kind": "park", "name": "Link Lake Recreation Site" }, "geometry": { "type": "Point", "coordinates": [ -120.23989, 49.70146 ] } },
{ "type": "Feature", "properties": { "kind": "park", "name": "Pickard Creek Recreation Site" }, "geometry": { "type": "Point", "coordinates": [ -120.14915, 49.37783 ] } },
{ "type": "Feature", "properties": { "kind": "park", "name": "Whitehead Lake Recreation Site" }, "geometry": { "type": "Point", "coordinates": [ -120.18847, 49.78966 ] } },
{ "type": "Feature", "properties": { "kind": "park", "name": "Munro Lake Recreation Site" }, "geometry": { "type": "Point", "coordinates": [ -119.92322, 49.71564 ] } },
{ "type": "Feature", "properties": { "kind": "fire_station", "name": "Fire Hall" }, "geometry": { "type": "Point", "coordinates": [ -119.90317, 49.39213 ] } },
{ "type": "Feature", "properties": { "kind": "school", "name": "Dorothea Walker Elementary" }, "geometry": { "type": "Point", "coordinates": [ -119.48437, 49.82666 ] } },
{ "type": "Feature", "properties": { "kind": "school", "name": "South Kelowna Elementary" }, "geometry": { "type": "Point", "coordinates": [ -119.42207, 49.83458 ] } },
{ "type": "Feature", "properties": { "kind": "school", "name": "Shannon Lake Elementary" }, "geometry": { "type": "Point", "coordinates": [ -119.61377, 49.85273 ] } },
{ "type": "Feature", "properties": { "kind": "beach", "name": "Powell Beach" }, "geometry": { "type": "Point", "coordinates": [ -119.6212, 49.57338 ] } },
{ "type": "Feature", "properties": { "kind": "community_centre", "name": "Summerland Senior Citizens Drop-In Centre" }, "geometry": { "type": "Point", "coordinates": [ -119.67948, 49.59972 ] } },
{ "type": "Feature", "properties": { "kind": "police", "name": "Summerland RCMP Detachment" }, "geometry": { "type": "Point", "coordinates": [ -119.67492, 49.60513 ] } },
{ "type": "Feature", "properties": { "kind": "fire_station", "name": "Kelowna Fire Department Station #1" }, "geometry": { "type": "Point", "coordinates": [ -119.43576, 49.88279 ] } },
{ "type": "Feature", "properties": { "kind": "fire_station", "name": "Mission/Kettle Valley Stn 4" }, "geometry": { "type": "Point", "coordinates": [ -119.48742, 49.82266 ] } },
{ "type": "Feature", "properties": { "kind": "community_centre", "name": "Okanagan Mission Community Hall" }, "geometry": { "type": "Point", "coordinates": [ -119.48814, 49.82265 ] } },
{ "type": "Feature", "properties": { "kind": "school", "name": "Okanagan Mission Secondary" }, "geometry": { "type": "Point", "coordinates": [ -119.48591, 49.81839 ] } },
{ "type": "Feature", "properties": { "kind": "school", "name": "Anne Mclymont Elementary" }, "geometry": { "type": "Point", "coordinates": [ -119.49008, 49.82028 ] } },
{ "type": "Feature", "properties": { "kind": "school", "name": "Anne Mclymont Primary" }, "geometry": { "type": "Point", "coordinates": [ -119.49161, 49.82105 ] } },
{ "type": "Feature", "properties": { "kind": "school", "name": "KLO Middle School" }, "geometry": { "type": "Point", "coordinates": [ -119.47596, 49.85925 ] } },
{ "type": "Feature", "properties": { "kind": "school", "name": "École de l'Anse-au-sable" }, "geometry": { "type": "Point", "coordinates": [ -119.48404, 49.83517 ] } },
{ "type": "Feature", "properties": { "kind": "school", "name": "Summerland Secondary" }, "geometry": { "type": "Point", "coordinates": [ -119.67933, 49.60267 ] } },
{ "type": "Feature", "properties": { "kind": "school", "name": "Summerland Middle School" }, "geometry": { "type": "Point", "coordinates": [ -119.67987, 49.60415 ] } },
{ "type": "Feature", "properties": { "kind": "hospital", "name": "Penticton Regional Hospital" }, "geometry": { "type": "Point", "coordinates": [ -119.57739, 49.48173 ] } },
{ "type": "Feature", "properties": { "kind": "school", "name": "Uplands Elementary School" }, "geometry": { "type": "Point", "coordinates": [ -119.57476, 49.50187 ] } },
{ "type": "Feature", "properties": { "kind": "beach", "name": "Marina Way Beach" }, "geometry": { "type": "Point", "coordinates": [ -119.5882, 49.50435 ] } },
{ "type": "Feature", "properties": { "kind": "community_centre", "name": "Peachland Community Centre" }, "geometry": { "type": "Point", "coordinates": [ -119.73504, 49.77722 ] } },
{ "type": "Feature", "properties": { "kind": "community_centre", "name": "50+ Activity Centre" }, "geometry": { "type": "Point", "coordinates": [ -119.73378, 49.77831 ] } },
{ "type": "Feature", "properties": { "kind": "fire_station", "name": "Peachland Fire Station 21" }, "geometry": { "type": "Point", "coordinates": [ -119.73653, 49.7739 ] } },
{ "type": "Feature", "properties": { "kind": "beach", "name": "Swim Bay Beach" }, "geometry": { "type": "Point", "coordinates": [ -119.73393, 49.77673 ] } },
{ "type": "Feature", "properties": { "kind": "beach", "name": "Skaha Lake Beach" }, "geometry": { "type": "Point", "coordinates": [ -119.58224, 49.45277 ] } },
{ "type": "Feature", "properties": { "kind": "school", "name": "Giant's Head Elementary School" }, "geometry": { "type": "Point", "coordinates": [ -119.68497, 49.59658 ] } },
{ "type": "Feature", "properties": { "kind": "beach", "name": "Crescent Beach" }, "geometry": { "type": "Point", "coordinates": [ -119.65858, 49.61515 ] } },
{ "type": "Feature", "properties": { "kind": "fire_station", "name": "Summerland Fire Hall 231" }, "geometry": { "type": "Point", "coordinates": [ -119.68253, 49.603 ] } },
{ "type": "Feature", "properties": { "kind": "school", "name": "Queens Park Elementary School" }, "geometry": { "type": "Point", "coordinates": [ -119.60249, 49.49582 ] } },
{ "type": "Feature", "properties": { "kind": "park", "name": "Mission Ridge Park" }, "geometry": { "type": "Point", "coordinates": [ -119.47171, 49.81677 ] } },
{ "type": "Feature", "properties": { "kind": "park", "name": "Mount Boucherie Park" }, "geometry": { "type": "Point", "coordinates": [ -119.58478, 49.85449 ] } },
{ "type": "Feature", "properties": { "kind": "school", "name": "Studio9 Independent School of the Arts" }, "geometry": { "type": "Point", "coordinates": [ -119.40985, 49.89256 ] } },
{ "type": "Feature", "properties": { "kind": "police", "name": "Penticton RCMP" }, "geometry": { "type": "Point", "coordinates": [ -119.58645, 49.48707 ] } },
{ "type": "Feature", "properties": { "kind": "community_centre", "name": "Old Age Pensioners Hall" }, "geometry": { "type": "Point", "coordinates": [ -120.0761, 49.35694 ] } },
{ "type": "Feature", "properties": { "kind": "hospital", "name": "Summerland Community Health Centre" }, "geometry": { "type": "Point", "coordinates": [ -119.66888, 49.60116 ] } },
{ "type": "Feature", "properties": { "kind": "school", "name": "Giants Head Elementary School" }, "geometry": { "type": "Point", "coordinates": [ -119.68464, 49.59674 ] } },
{ "type": "Feature", "properties": { "kind": "school", "name": "École Glenrosa Middle School" }, "geometry": { "type": "Point", "coordinates": [ -119.65779, 49.83404 ] } },
{ "type": "Feature", "properties": { "kind": "school", "name": "École Hudson Road Elementary" }, "geometry": { "type": "Point", "coordinates": [ -119.56466, 49.86128 ] } },
{ "type": "Feature", "properties": { "kind": "school", "name": "Mount Boucherie Secondary" }, "geometry": { "type": "Point", "coordinates": [ -119.58446, 49.85827 ] } },
{ "type": "Feature", "properties": { "kind": "fire_station", "name": "Station #7" }, "geometry": { "type": "Point", "coordinates": [ -119.41078, 49.84105 ] } },
{ "type": "Feature", "properties": { "kind": "school", "name": "St. Joseph Elementary School" }, "geometry": { "type": "Point", "coordinates": [ -119.48421, 49.87958 ] } },
{ "type": "Feature", "properties": { "kind": "police", "name": "West Kelowna RCMP" }, "geometry": { "type": "Point", "coordinates": [ -119.62385, 49.8292 ] } },
{ "type": "Feature", "properties": { "kind": "police", "name": "Kelowna RCMP Detachment" }, "geometry": { "type": "Point", "coordinates": [ -119.48943, 49.89409 ] } },
{ "type": "Feature", "properties": { "kind": "school", "name": "Trout Creek Elementary" }, "geometry": { "type": "Point", "coordinates": [ -119.62473, 49.57128 ] } },
{ "type": "Feature", "properties": { "kind": "fire_station", "name": "Hayes Creek Fire Hall" }, "geometry": { "type": "Point", "coordinates": [ -120.2287, 49.71272 ] } },
{ "type": "Feature", "properties": { "kind": "community_centre", "name": "Chuchuwayha Community Hall" }, "geometry": { "type": "Point", "coordinates": [ -120.07877, 49.35582 ] } },
{ "type": "Feature", "properties": { "kind": "community_centre", "name": "Luso Canadian Multicultural Society of Penticton" }, "geometry": { "type": "Point", "coordinates": [ -119.59665, 49.50032 ] } },
{ "type": "Feature", "properties": { "kind": "park", "name": "Rock Ovens Park" }, "geometry": { "type": "Point", "coordinates": [ -119.56185, 49.62419 ] } },
{ "type": "Feature", "properties": { "kind": "community_centre", "name": "Westbank Lions Community Centre" }, "geometry": { "type": "Point", "coordinates": [ -119.62925, 49.83011 ] } },
{ "type": "Feature", "properties": { "kind": "school", "name": "KVR Middle School" }, "geometry": { "type": "Point", "coordinates": [ -119.58394, 49.49142 ] } },
{ "type": "Feature", "properties": { "kind": "school", "name": "ConnectEd" }, "geometry": { "type": "Point", "coordinates": [ -119.5858, 49.49342 ] } },
{ "type": "Feature", "properties": { "kind": "school", "name": "Penticton Secondary School" }, "geometry": { "type": "Point", "coordinates": [ -119.58633, 49.49227 ] } },
{ "type": "Feature", "properties": { "kind": "school", "name": "Safety Village" }, "geometry": { "type": "Point", "coordinates": [ -119.58142, 49.48983 ] } },
{ "type": "Feature", "properties": { "kind": "school", "name": "Columbia Elementary" }, "geometry": { "type": "Point", "coordinates": [ -119.55759, 49.48531 ] } },
{ "type": "Feature", "properties": { "kind": "school", "name": "Wiltse Elementary" }, "geometry": { "type": "Point", "coordinates": [ -119.56677, 49.47054 ] } },
{ "type": "Feature", "properties": { "kind": "community_centre", "name": "Okanagani Magyar Ház" }, "geometry": { "type": "Point", "coordinates": [ -119.58477, 49.86109 ] } },
{ "type": "Feature", "properties": { "kind": "school", "name": "Canyon Falls Middle School" }, "geometry": { "type": "Point", "coordinates": [ -119.46806, 49.80438 ] } },
{ "type": "Feature", "properties": { "kind": "community_centre", "name": "Penticton Community Centre" }, "geometry": { "type": "Point", "coordinates": [ -119.60527, 49.49548 ] } },
{ "type": "Feature", "properties": { "kind": "school", "name": "Okanagan Falls Elementary School" }, "geometry": { "type": "Point", "coordinates": [ -119.57503, 49.34196 ] } },
{ "type": "Feature", "properties": { "kind": "school", "name": "West Bench Elementary" }, "geometry": { "type": "Point", "coordinates": [ -119.63103, 49.50107 ] } },
{ "type": "Feature", "properties": { "kind": "school", "name": "Glenrosa Elementary School" }, "geometry": { "type": "Point", "coordinates": [ -119.65589, 49.8393 ] } },
{ "type": "Feature", "properties": { "kind": "school", "name": "Helen Gorman Elementary" }, "geometry": { "type": "Point", "coordinates": [ -119.67212, 49.84667 ] } },
{ "type": "Feature", "properties": { "kind": "fire_station", "name": "West Kelowna Fire Hall 33" }, "geometry": { "type": "Point", "coordinates": [ -119.55802, 49.8844 ] } },
{ "type": "Feature", "properties": { "kind": "school", "name": "sənsisyustən House of Learning" }, "geometry": { "type": "Point", "coordinates": [ -119.59666, 49.84044 ] } },
{ "type": "Feature", "properties": { "kind": "fire_station", "name": "Naramata Fire Hall 161" }, "geometry": { "type": "Point", "coordinates": [ -119.58008, 49.59062 ] } },
{ "type": "Feature", "properties": { "kind": "fire_station", "name": "Okanagan Falls Fire Hall" }, "geometry": { "type": "Point", "coordinates": [ -119.57196, 49.34258 ] } },
{ "type": "Feature", "properties": { "kind": "fire_station", "name": "Kaleden Fire Hall" }, "geometry": { "type": "Point", "coordinates": [ -119.59588, 49.39075 ] } },
{ "type": "Feature", "properties": { "kind": "fire_station", "name": "West Kelowna Fire Hall 32" }, "geometry": { "type": "Point", "coordinates": [ -119.54988, 49.85973 ] } },
{ "type": "Feature", "properties": { "kind": "fire_station", "name": "West Kelowna Fire Hall 31" }, "geometry": { "type": "Point", "coordinates": [ -119.62508, 49.83105 ] } },
{ "type": "Feature", "properties": { "kind": "community_centre", "name": "West Kelowna Seniors Centre" }, "geometry": { "type": "Point", "coordinates": [ -119.62501, 49.83069 ] } },
{ "type": "Feature", "properties": { "kind": "fire_station", "name": "West Kelowna Fire Hall 34" }, "geometry": { "type": "Point", "coordinates": [ -119.66977, 49.84059 ] } },
{ "type": "Feature", "properties": { "kind": "school", "name": "Bellevue Creek Elementary" }, "geometry": { "type": "Point", "coordinates": [ -119.4793, 49.81715 ] } },
{ "type": "Feature", "properties": { "kind": "school", "name": "Casorso Elementary School" }, "geometry": { "type": "Point", "coordinates": [ -119.48027, 49.85355 ] } },
{ "type": "Feature", "properties": { "kind": "school", "name": "Little Triumphs" }, "geometry": { "type": "Point", "coordinates": [ -119.5813, 49.49013 ] } },
{ "type": "Feature", "properties": { "kind": "fire_station", "name": "Penticton Fire Hall 202" }, "geometry": { "type": "Point", "coordinates": [ -119.57751, 49.47442 ] } },
{ "type": "Feature", "properties": { "kind": "school", "name": "Kaleden Elementary" }, "geometry": { "type": "Point", "coordinates": [ -119.59569, 49.38769 ] } },
{ "type": "Feature", "properties": { "kind": "fire_station", "name": "Penticton Fire Hall 201" }, "geometry": { "type": "Point", "coordinates": [ -119.59602, 49.49793 ] } },
{ "type": "Feature", "properties": { "kind": "fire_station", "name": "Fire Station #32" }, "geometry": { "type": "Point", "coordinates": [ -119.54914, 49.86046 ] } },
{ "type": "Feature", "properties": { "kind": "school", "name": "Bankhead Elementary" }, "geometry": { "type": "Point", "coordinates": [ -119.47211, 49.89182 ] } }
]
}
