{
"type": "FeatureCollection",
"name": "road_labels",
"crs": { "type": "name", "properties": { "name": "urn:ogc:def:crs:OGC:1.3:CRS84" } },
"xy_coordinate_resolution": 1e-05,
"features": [
{ "type": "Feature", "properties": { "label": "Highway 97" }, "geometry": { "type": "LineString", "coordinates": [ [ -119.66593, 49.80373 ], [ -119.67284, 49.8005 ], [ -119.67724, 49.80016 ], [ -119.6807, 49.79859 ], [ -119.70123, 49.79464 ], [ -119.70563, 49.79187 ], [ -119.71021, 49.78628 ], [ -119.71348, 49.78447 ], [ -119.71689, 49.78382 ], [ -119.72692, 49.78352 ], [ -119.73094, 49.78225 ], [ -119.73706, 49.77586 ], [ -119.73911, 49.77127 ], [ -119.74637, 49.76502 ], [ -119.75218, 49.75716 ], [ -119.75861, 49.75051 ], [ -119.76102, 49.74565 ], [ -119.76073, 49.74198 ], [ -119.76728, 49.73818 ], [ -119.76788, 49.73529 ], [ -119.76738, 49.73225 ], [ -119.76422, 49.72725 ], [ -119.76007, 49.71688 ], [ -119.75384, 49.71079 ], [ -119.74783, 49.70352 ], [ -119.73928, 49.69512 ] ] } },
{ "type": "Feature", "properties": { "label": "Highway 97" }, "geometry": { "type": "LineString", "coordinates": [ [ -119.73928, 49.69512 ], [ -119.72358, 49.68251 ], [ -119.71748, 49.67945 ], [ -119.71516, 49.67585 ], [ -119.71189, 49.67305 ], [ -119.70929, 49.66851 ], [ -119.70343, 49.66297 ], [ -119.70027, 49.65832 ], [ -119.69948, 49.65521 ], [ -119.69688, 49.65104 ], [ -119.69441, 49.64891 ], [ -119.68868, 49.64554 ], [ -119.68765, 49.64058 ], [ -119.68418, 49.63681 ], [ -119.68289, 49.63403 ], [ -119.68024, 49.63094 ], [ -119.68049, 49.62957 ], [ -119.68291, 49.62634 ], [ -119.68308, 49.62271 ] ] } },
{ "type": "Feature", "properties": { "label": "Highway 97" }, "geometry": { "type": "LineString", "coordinates": [ [ -119.68308, 49.62271 ], [ -119.68276, 49.62635 ], [ -119.68035, 49.62959 ], [ -119.68009, 49.63106 ], [ -119.6827, 49.63411 ], [ -119.68406, 49.63684 ], [ -119.68744, 49.64047 ], [ -119.68857, 49.64557 ], [ -119.69433, 49.64897 ], [ -119.69676, 49.65108 ], [ -119.69931, 49.65522 ], [ -119.70014, 49.6584 ], [ -119.70311, 49.66273 ], [ -119.70916, 49.66855 ], [ -119.71164, 49.67294 ], [ -119.71499, 49.67585 ], [ -119.71752, 49.67965 ], [ -119.72326, 49.68248 ], [ -119.73928, 49.69512 ] ] } },
{ "type": "Feature", "properties": { "label": "Highway 97" }, "geometry": { "type": "LineString", "coordinates": [ [ -119.68158, 49.61964 ], [ -119.68281, 49.62105 ], [ -119.68308, 49.62271 ] ] } },
{ "type": "Feature", "properties": { "label": "Highway 97" }, "geometry": { "type": "LineString", "coordinates": [ [ -119.68158, 49.61964 ], [ -119.67882, 49.61695 ], [ -119.67849, 49.611 ], [ -119.67753, 49.60818 ], [ -119.67613, 49.60669 ], [ -119.67469, 49.60605 ] ] } },
{ "type": "Feature", "properties": { "label": "Highway 97" }, "geometry": { "type": "LineString", "coordinates": [ [ -119.67469, 49.60605 ], [ -119.67672, 49.60737 ], [ -119.67798, 49.6096 ], [ -119.67879, 49.61727 ], [ -119.68158, 49.61964 ] ] } },
{ "type": "Feature", "properties": { "label": "Highway 97" }, "geometry": { "type": "LineString", "coordinates": [ [ -119.67469, 49.60605 ], [ -119.66752, 49.60365 ] ] } },
{ "type": "Feature", "properties": { "label": "Highway 97" }, "geometry": { "type": "LineString", "coordinates": [ [ -119.66752, 49.60365 ], [ -119.66325, 49.60123 ] ] } },
{ "type": "Feature", "properties": { "label": "Highway 97" }, "geometry": { "type": "LineString", "coordinates": [ [ -119.66325, 49.60123 ], [ -119.66574, 49.60302 ], [ -119.66752, 49.60365 ] ] } },
{ "type": "Feature", "properties": { "label": "Highway 97" }, "geometry": { "type": "LineString", "coordinates": [ [ -119.66325, 49.60123 ], [ -119.6568, 49.59852 ] ] } },
{ "type": "Feature", "properties": { "label": "Highway 97" }, "geometry": { "type": "LineString", "coordinates": [ [ -119.6568, 49.59852 ], [ -119.65116, 49.59608 ] ] } },
{ "type": "Feature", "properties": { "label": "Highway 97" }, "geometry": { "type": "LineString", "coordinates": [ [ -119.65116, 49.59608 ], [ -119.6568, 49.59852 ] ] } },
{ "type": "Feature", "properties": { "label": "Highway 97" }, "geometry": { "type": "LineString", "coordinates": [ [ -119.66593, 49.80373 ], [ -119.65713, 49.81385 ], [ -119.65412, 49.81599 ], [ -119.65247, 49.8188 ], [ -119.64781, 49.82341 ], [ -119.64521, 49.82751 ], [ -119.64241, 49.82828 ], [ -119.62338, 49.82887 ], [ -119.62255, 49.83105 ], [ -119.60013, 49.84775 ], [ -119.59549, 49.85588 ], [ -119.58953, 49.86047 ], [ -119.58611, 49.86192 ], [ -119.58306, 49.86253 ], [ -119.56936, 49.86258 ], [ -119.56424, 49.86367 ], [ -119.55252, 49.87102 ], [ -119.54114, 49.87496 ], [ -119.5363, 49.88111 ], [ -119.53093, 49.88499 ], [ -119.52914, 49.88528 ], [ -119.52723, 49.8847 ], [ -119.52437, 49.88197 ], [ -119.52378, 49.87878 ], [ -119.52131, 49.87778 ], [ -119.50252, 49.88112 ], [ -119.50071, 49.88312 ], [ -119.49961, 49.88353 ], [ -119.47711, 49.88349 ], [ -119.46639, 49.88189 ], [ -119.43564, 49.88184 ], [ -119.43332, 49.88233 ], [ -119.4257, 49.88594 ], [ -119.41902, 49.89053 ], [ -119.4142, 49.89545 ] ] } },
{ "type": "Feature", "properties": { "label": "Highway 97" }, "geometry": { "type": "LineString", "coordinates": [ [ -119.41442, 49.89545 ], [ -119.41901, 49.89072 ], [ -119.42608, 49.88585 ], [ -119.43342, 49.88241 ], [ -119.43523, 49.88198 ], [ -119.46639, 49.882 ], [ -119.47635, 49.88357 ], [ -119.49951, 49.88369 ], [ -119.50083, 49.88327 ], [ -119.50175, 49.88166 ], [ -119.50277, 49.88114 ], [ -119.52137, 49.8779 ], [ -119.52365, 49.87884 ], [ -119.52413, 49.88186 ], [ -119.52709, 49.88479 ], [ -119.52897, 49.88538 ], [ -119.53104, 49.88506 ], [ -119.53616, 49.88142 ], [ -119.54104, 49.87523 ], [ -119.5526, 49.8711 ], [ -119.56385, 49.86397 ], [ -119.56953, 49.86269 ], [ -119.58404, 49.86252 ], [ -119.58959, 49.86056 ], [ -119.59535, 49.85627 ], [ -119.60056, 49.84753 ], [ -119.62414, 49.83004 ], [ -119.62592, 49.8296 ], [ -119.63486, 49.82954 ], [ -119.63824, 49.82857 ], [ -119.64316, 49.8283 ], [ -119.64531, 49.8276 ], [ -119.64629, 49.82676 ], [ -119.64786, 49.82353 ], [ -119.65276, 49.81865 ], [ -119.65422, 49.81605 ], [ -119.65725, 49.8139 ], [ -119.66593, 49.80373 ] ] } },
{ "type": "Feature", "properties": { "label": "Highway 97" }, "geometry": { "type": "LineString", "coordinates": [ [ -119.65116, 49.59608 ], [ -119.64946, 49.59487 ], [ -119.6486, 49.59303 ] ] } },
{ "type": "Feature", "properties": { "label": "Highway 97" }, "geometry": { "type": "LineString", "coordinates": [ [ -119.6486, 49.59303 ], [ -119.64819, 49.59165 ], [ -119.64582, 49.58861 ] ] } },
{ "type": "Feature", "properties": { "label": "Highway 97" }, "geometry": { "type": "LineString", "coordinates": [ [ -119.64582, 49.58861 ], [ -119.6486, 49.59303 ] ] } },
{ "type": "Feature", "properties": { "label": "Highway 97" }, "geometry": { "type": "LineString", "coordinates": [ [ -119.64582, 49.58861 ], [ -119.64463, 49.58365 ], [ -119.64294, 49.58045 ] ] } },
{ "type": "Feature", "properties": { "label": "Highway 97" }, "geometry": { "type": "LineString", "coordinates": [ [ -119.64294, 49.58045 ], [ -119.64125, 49.57937 ], [ -119.63862, 49.57881 ] ] } },
{ "type": "Feature", "properties": { "label": "Highway 97" }, "geometry": { "type": "LineString", "coordinates": [ [ -119.63862, 49.57881 ], [ -119.64102, 49.5794 ], [ -119.64294, 49.58045 ] ] } },
{ "type": "Feature", "properties": { "label": "Highway 97" }, "geometry": { "type": "LineString", "coordinates": [ [ -119.63862, 49.57881 ], [ -119.63597, 49.57847 ], [ -119.63366, 49.57749 ], [ -119.63109, 49.57342 ] ] } },
{ "type": "Feature", "properties": { "label": "Highway 97" }, "geometry": { "type": "LineString", "coordinates": [ [ -119.63176, 49.56701 ], [ -119.63099, 49.57018 ] ] } },
{ "type": "Feature", "properties": { "label": "Highway 97" }, "geometry": { "type": "LineString", "coordinates": [ [ -119.63176, 49.56701 ], [ -119.63782, 49.56158 ], [ -119.63856, 49.55858 ], [ -119.63632, 49.55344 ], [ -119.63446, 49.55085 ], [ -119.63405, 49.54677 ], [ -119.62974, 49.5437 ], [ -119.6261, 49.54025 ], [ -119.62476, 49.53601 ], [ -119.62066, 49.53238 ], [ -119.61876, 49.52951 ], [ -119.61777, 49.52593 ], [ -119.61738, 49.51038 ], [ -119.61578, 49.50556 ], [ -119.61892, 49.49665 ], [ -119.61794, 49.49584 ], [ -119.6134, 49.49507 ] ] } },
{ "type": "Feature", "properties": { "label": "Highway 97" }, "geometry": { "type": "LineString", "coordinates": [ [ -119.62622, 49.54053 ], [ -119.62959, 49.54377 ], [ -119.63389, 49.54681 ], [ -119.63426, 49.55088 ], [ -119.6362, 49.55347 ], [ -119.63848, 49.55882 ], [ -119.63771, 49.56154 ], [ -119.63302, 49.56532 ], [ -119.63176, 49.56701 ] ] } },
{ "type": "Feature", "properties": { "label": "Highway 97" }, "geometry": { "type": "LineString", "coordinates": [ [ -119.63099, 49.57018 ], [ -119.63109, 49.57342 ] ] } },
{ "type": "Feature", "properties": { "label": "Highway 97" }, "geometry": { "type": "LineString", "coordinates": [ [ -119.63109, 49.57342 ], [ -119.63099, 49.57018 ] ] } },
{ "type": "Feature", "properties": { "label": "Highway 97" }, "geometry": { "type": "LineString", "coordinates": [ [ -119.6134, 49.49507 ], [ -119.61783, 49.49597 ], [ -119.6187, 49.49662 ], [ -119.61565, 49.50556 ], [ -119.61725, 49.51039 ], [ -119.61767, 49.52617 ], [ -119.61941, 49.53101 ], [ -119.62448, 49.53582 ], [ -119.62522, 49.53816 ] ] } },
{ "type": "Feature", "properties": { "label": "Highway 97" }, "geometry": { "type": "LineString", "coordinates": [ [ -119.61203, 49.38159 ], [ -119.61007, 49.38368 ], [ -119.60957, 49.38619 ] ] } },
{ "type": "Feature", "properties": { "label": "Highway 97" }, "geometry": { "type": "LineString", "coordinates": [ [ -119.60957, 49.38619 ], [ -119.61017, 49.38376 ], [ -119.61203, 49.38159 ] ] } },
{ "type": "Feature", "properties": { "label": "Highway 97" }, "geometry": { "type": "LineString", "coordinates": [ [ -119.61203, 49.38159 ], [ -119.61312, 49.37951 ], [ -119.61344, 49.37663 ], [ -119.61257, 49.37448 ], [ -119.61065, 49.37293 ], [ -119.6058, 49.37142 ], [ -119.60437, 49.37047 ], [ -119.60093, 49.36552 ], [ -119.59527, 49.35945 ], [ -119.59357, 49.35625 ], [ -119.5918, 49.35517 ], [ -119.58423, 49.3544 ], [ -119.58307, 49.3539 ], [ -119.58264, 49.34866 ], [ -119.58036, 49.34573 ], [ -119.57785, 49.34499 ], [ -119.57147, 49.34487 ], [ -119.57165, 49.33977 ], [ -119.56896, 49.33241 ], [ -119.55886, 49.32059 ], [ -119.55596, 49.3181 ], [ -119.5401, 49.30755 ], [ -119.53648, 49.30418 ], [ -119.53251, 49.30265 ], [ -119.53098, 49.30012 ] ] } },
{ "type": "Feature", "properties": { "label": "Highway 97" }, "geometry": { "type": "LineString", "coordinates": [ [ -119.59529, 49.46029 ], [ -119.59695, 49.45292 ], [ -119.60354, 49.4523 ], [ -119.6104, 49.45048 ], [ -119.61233, 49.44625 ], [ -119.61392, 49.44444 ], [ -119.61539, 49.43987 ], [ -119.61466, 49.43528 ], [ -119.6119, 49.43146 ], [ -119.60864, 49.42453 ], [ -119.60695, 49.42227 ], [ -119.6053, 49.41706 ], [ -119.60603, 49.41186 ], [ -119.60592, 49.39311 ], [ -119.60898, 49.38856 ], [ -119.60957, 49.38619 ] ] } },
{ "type": "Feature", "properties": { "label": "Highway 97" }, "geometry": { "type": "LineString", "coordinates": [ [ -119.6134, 49.49507 ], [ -119.6104, 49.49455 ] ] } },
{ "type": "Feature", "properties": { "label": "Highway 97" }, "geometry": { "type": "LineString", "coordinates": [ [ -119.60635, 49.49387 ], [ -119.6104, 49.49455 ] ] } },
{ "type": "Feature", "properties": { "label": "Highway 97" }, "geometry": { "type": "LineString", "coordinates": [ [ -119.6104, 49.49455 ], [ -119.60635, 49.49387 ] ] } },
{ "type": "Feature", "properties": { "label": "Highway 97" }, "geometry": { "type": "LineString", "coordinates": [ [ -119.60635, 49.49387 ], [ -119.60451, 49.49354 ] ] } },
{ "type": "Feature", "properties": { "label": "Highway 97" }, "geometry": { "type": "LineString", "coordinates": [ [ -119.60586, 49.48633 ], [ -119.60481, 49.48895 ] ] } },
{ "type": "Feature", "properties": { "label": "Highway 97" }, "geometry": { "type": "LineString", "coordinates": [ [ -119.60481, 49.48895 ], [ -119.60586, 49.48633 ] ] } },
{ "type": "Feature", "properties": { "label": "Highway 97" }, "geometry": { "type": "LineString", "coordinates": [ [ -119.59802, 49.48008 ], [ -119.59964, 49.48179 ], [ -119.60525, 49.48521 ], [ -119.60586, 49.48633 ] ] } },
{ "type": "Feature", "properties": { "label": "Highway 97" }, "geometry": { "type": "LineString", "coordinates": [ [ -119.60411, 49.49064 ], [ -119.60481, 49.48895 ] ] } },
{ "type": "Feature", "properties": { "label": "Highway 97" }, "geometry": { "type": "LineString", "coordinates": [ [ -119.60314, 49.4933 ], [ -119.60451, 49.49354 ] ] } },
{ "type": "Feature", "properties": { "label": "Highway 97" }, "geometry": { "type": "LineString", "coordinates": [ [ -119.60451, 49.49354 ], [ -119.60314, 49.4933 ] ] } },
{ "type": "Feature", "properties": { "label": "Highway 97" }, "geometry": { "type": "LineString", "coordinates": [ [ -119.60411, 49.49064 ], [ -119.60314, 49.4933 ] ] } },
{ "type": "Feature", "properties": { "label": "Highway 97" }, "geometry": { "type": "LineString", "coordinates": [ [ -119.60314, 49.4933 ], [ -119.60411, 49.49064 ] ] } },
{ "type": "Feature", "properties": { "label": "Highway 97" }, "geometry": { "type": "LineString", "coordinates": [ [ -119.59802, 49.48008 ], [ -119.59669, 49.47795 ] ] } },
{ "type": "Feature", "properties": { "label": "Highway 97" }, "geometry": { "type": "LineString", "coordinates": [ [ -119.59669, 49.47795 ], [ -119.59802, 49.48008 ] ] } },
{ "type": "Feature", "properties": { "label": "Highway 97" }, "geometry": { "type": "LineString", "coordinates": [ [ -119.59669, 49.47795 ], [ -119.59598, 49.4737 ] ] } },
{ "type": "Feature", "properties": { "label": "Highway 97" }, "geometry": { "type": "LineString", "coordinates": [ [ -119.59529, 49.46029 ], [ -119.5942, 49.46486 ] ] } },
{ "type": "Feature", "properties": { "label": "Highway 97" }, "geometry": { "type": "LineString", "coordinates": [ [ -119.5942, 49.46486 ], [ -119.59529, 49.46029 ] ] } },
{ "type": "Feature", "properties": { "label": "Highway 97" }, "geometry": { "type": "LineString", "coordinates": [ [ -119.59598, 49.4737 ], [ -119.59531, 49.4712 ] ] } },
{ "type": "Feature", "properties": { "label": "Highway 97" }, "geometry": { "type": "LineString", "coordinates": [ [ -119.59531, 49.4712 ], [ -119.59598, 49.4737 ] ] } },
{ "type": "Feature", "properties": { "label": "Highway 97" }, "geometry": { "type": "LineString", "coordinates": [ [ -119.59531, 49.4712 ], [ -119.5941, 49.46676 ], [ -119.5942, 49.46486 ] ] } },
{ "type": "Feature", "properties": { "label": "Prairie Valley Road" }, "geometry": { "type": "LineString", "coordinates": [ [ -119.68191, 49.59766 ], [ -119.69294, 49.59764 ], [ -119.69412, 49.59714 ], [ -119.69681, 49.59401 ], [ -119.70009, 49.5924 ], [ -119.70218, 49.59288 ], [ -119.70372, 49.59427 ], [ -119.7246, 49.59423 ], [ -119.7254, 49.59245 ], [ -119.7239, 49.59178 ] ] } },
{ "type": "Feature", "properties": { "label": "Prairie Valley Road" }, "geometry": { "type": "LineString", "coordinates": [ [ -119.68121, 49.59777 ], [ -119.68191, 49.59766 ] ] } },
{ "type": "Feature", "properties": { "label": "Prairie Valley Road" }, "geometry": { "type": "LineString", "coordinates": [ [ -119.68191, 49.59766 ], [ -119.68123, 49.59764 ] ] } },
{ "type": "Feature", "properties": { "label": "Prairie Valley Road" }, "geometry": { "type": "LineString", "coordinates": [ [ -119.68067, 49.59775 ], [ -119.67988, 49.59791 ] ] } },
{ "type": "Feature", "properties": { "label": "Prairie Valley Road" }, "geometry": { "type": "LineString", "coordinates": [ [ -119.67988, 49.59791 ], [ -119.68067, 49.5979 ] ] } },
{ "type": "Feature", "properties": { "label": "Prairie Valley Road" }, "geometry": { "type": "LineString", "coordinates": [ [ -119.67988, 49.59791 ], [ -119.67873, 49.59843 ], [ -119.678, 49.60003 ] ] } },
{ "type": "Feature", "properties": { "label": "Prairie Valley Road" }, "geometry": { "type": "LineString", "coordinates": [ [ -119.67804, 49.60053 ], [ -119.678, 49.60003 ] ] } },
{ "type": "Feature", "properties": { "label": "Prairie Valley Road" }, "geometry": { "type": "LineString", "coordinates": [ [ -119.678, 49.60003 ], [ -119.67781, 49.60047 ] ] } },
{ "type": "Feature", "properties": { "label": "Prairie Valley Road" }, "geometry": { "type": "LineString", "coordinates": [ [ -119.6777, 49.60051 ], [ -119.67535, 49.60066 ] ] } },
{ "type": "Feature", "properties": { "label": "Prairie Valley Road" }, "geometry": { "type": "LineString", "coordinates": [ [ -119.67535, 49.60066 ], [ -119.67769, 49.60067 ] ] } },
{ "type": "Feature", "properties": { "label": "Prairie Valley Road" }, "geometry": { "type": "LineString", "coordinates": [ [ -119.67014, 49.60201 ], [ -119.67156, 49.60132 ], [ -119.67535, 49.60066 ] ] } },
{ "type": "Feature", "properties": { "label": "Prairie Valley Road" }, "geometry": { "type": "LineString", "coordinates": [ [ -119.67014, 49.60201 ], [ -119.66823, 49.60271 ], [ -119.66612, 49.60288 ] ] } },
{ "type": "Feature", "properties": { "label": "Prairie Valley Road" }, "geometry": { "type": "LineString", "coordinates": [ [ -119.66612, 49.60288 ], [ -119.66827, 49.60277 ], [ -119.67014, 49.60201 ] ] } },
{ "type": "Feature", "properties": { "label": "Prairie Valley Road" }, "geometry": { "type": "LineString", "coordinates": [ [ -119.66612, 49.60288 ], [ -119.66574, 49.60302 ] ] } },
{ "type": "Feature", "properties": { "label": "Princeton-Summerland Road" }, "geometry": { "type": "LineString", "coordinates": [ [ -119.83456, 49.61695 ], [ -119.83632, 49.61664 ], [ -119.84061, 49.61725 ], [ -119.84504, 49.61683 ], [ -119.84727, 49.61709 ], [ -119.85752, 49.62332 ], [ -119.86135, 49.62371 ], [ -119.86531, 49.62478 ], [ -119.8668, 49.6257 ], [ -119.86883, 49.62555 ], [ -119.87531, 49.62709 ], [ -119.8763, 49.62811 ], [ -119.88685, 49.63088 ], [ -119.89004, 49.63239 ], [ -119.89259, 49.63299 ], [ -119.89383, 49.63385 ], [ -119.90109, 49.63534 ], [ -119.91113, 49.64193 ], [ -119.91293, 49.64252 ], [ -119.91549, 49.64248 ], [ -119.91886, 49.64314 ], [ -119.91752, 49.64421 ], [ -119.9174, 49.64494 ], [ -119.92022, 49.64799 ], [ -119.9235, 49.64871 ], [ -119.9203, 49.64718 ], [ -119.92105, 49.64662 ], [ -119.92632, 49.64785 ], [ -119.92791, 49.64742 ], [ -119.92916, 49.64806 ], [ -119.92909, 49.64903 ], [ -119.93086, 49.65063 ], [ -119.93434, 49.65129 ], [ -119.93473, 49.65192 ], [ -119.93332, 49.65269 ], [ -119.93483, 49.65357 ], [ -119.9396, 49.65461 ], [ -119.94058, 49.65527 ], [ -119.9437, 49.65538 ], [ -119.9466, 49.65898 ], [ -119.95576, 49.66131 ], [ -119.95867, 49.66488 ], [ -119.9598, 49.6678 ], [ -119.96265, 49.67057 ], [ -119.96551, 49.67175 ], [ -119.96806, 49.6718 ], [ -119.96907, 49.67236 ], [ -119.97354, 49.67929 ], [ -119.97334, 49.68013 ], [ -119.97613, 49.68135 ], [ -119.9784, 49.68451 ], [ -119.97851, 49.6873 ], [ -119.98385, 49.68978 ], [ -119.98517, 49.69178 ], [ -119.99017, 49.69568 ], [ -119.99704, 49.70242 ], [ -120.00049, 49.70358 ], [ -120.00336, 49.70669 ], [ -120.00686, 49.70841 ], [ -120.01043, 49.70938 ], [ -120.01419, 49.70928 ], [ -120.02272, 49.7129 ], [ -120.02649, 49.71328 ], [ -120.02921, 49.71237 ], [ -120.03387, 49.71335 ], [ -120.04045, 49.71291 ], [ -120.04188, 49.71209 ], [ -120.04652, 49.71219 ], [ -120.05079, 49.7115 ], [ -120.05418, 49.71203 ], [ -120.05598, 49.7132 ], [ -120.0582, 49.71377 ], [ -120.0647, 49.7142 ], [ -120.0685, 49.71364 ], [ -120.07465, 49.71373 ], [ -120.07886, 49.71514 ], [ -120.08292, 49.71401 ], [ -120.08856, 49.71392 ], [ -120.09832, 49.71464 ], [ -120.10212, 49.71408 ], [ -120.10407, 49.71459 ], [ -120.10675, 49.71611 ], [ -120.10932, 49.71544 ], [ -120.1137, 49.71514 ], [ -120.1187, 49.7165 ], [ -120.11992, 49.7162 ], [ -120.12174, 49.71485 ], [ -120.12616, 49.71514 ], [ -120.12972, 49.71427 ], [ -120.13389, 49.71514 ], [ -120.1374, 49.71506 ], [ -120.14181, 49.71804 ], [ -120.14672, 49.71888 ], [ -120.14802, 49.72035 ], [ -120.15389, 49.72012 ], [ -120.15973, 49.72198 ], [ -120.16427, 49.72102 ], [ -120.16557, 49.72122 ], [ -120.17036, 49.71837 ], [ -120.17262, 49.71793 ], [ -120.17619, 49.71806 ], [ -120.18081, 49.71639 ], [ -120.18157, 49.71548 ], [ -120.18844, 49.71455 ], [ -120.19121, 49.71284 ], [ -120.19544, 49.71204 ], [ -120.19694, 49.71243 ], [ -120.19954, 49.71528 ], [ -120.20972, 49.71558 ] ] } },
{ "type": "Feature", "properties": { "label": "Princeton-Summerland Road" }, "geometry": { "type": "LineString", "coordinates": [ [ -119.82738, 49.61846 ], [ -119.82189, 49.61993 ], [ -119.81923, 49.61778 ], [ -119.81513, 49.61763 ], [ -119.81252, 49.61665 ], [ -119.80375, 49.61651 ], [ -119.79537, 49.61564 ], [ -119.79194, 49.61608 ], [ -119.78833, 49.61721 ], [ -119.78825, 49.61963 ], [ -119.7874, 49.6201 ], [ -119.78625, 49.61939 ], [ -119.7862, 49.61783 ], [ -119.78521, 49.61744 ] ] } },
{ "type": "Feature", "properties": { "label": "Princeton-Summerland Road" }, "geometry": { "type": "LineString", "coordinates": [ [ -119.78521, 49.61744 ], [ -119.78698, 49.61551 ], [ -119.78672, 49.61456 ] ] } },
{ "type": "Feature", "properties": { "label": "Princeton-Summerland Road" }, "geometry": { "type": "LineString", "coordinates": [ [ -119.78521, 49.61744 ], [ -119.78418, 49.61709 ], [ -119.78469, 49.61533 ], [ -119.78329, 49.61276 ], [ -119.77974, 49.61232 ], [ -119.77586, 49.61046 ], [ -119.77292, 49.60973 ], [ -119.7697, 49.608 ], [ -119.7676, 49.6034 ], [ -119.76558, 49.6008 ], [ -119.76094, 49.59773 ], [ -119.74797, 49.59399 ], [ -119.74519, 49.59535 ], [ -119.74124, 49.59623 ], [ -119.73855, 49.59825 ], [ -119.73711, 49.59871 ], [ -119.72967, 49.59764 ], [ -119.72632, 49.5985 ], [ -119.72405, 49.59748 ], [ -119.72415, 49.5963 ], [ -119.72065, 49.59641 ] ] } }
]
}
