{"type": "FeatureCollection", "features": [{"type": "Feature", "properties": {"step": 0, "minutes": 21.2}, "geometry": {"type": "LineString", "coordinates": [[-119.66853, 49.58793], [-119.67621, 49.59734], [-119.67558, 49.59738], [-119.66896, 49.59867], [-119.66987, 49.59894], [-119.66979, 49.59942], [-119.66979, 49.5997], [-119.66823, 49.60271], [-119.6662, 49.60281], [-119.66562, 49.60281], [-119.66325, 49.60123], [-119.6568, 49.59852], [-119.65525, 49.59767], [-119.65472, 49.5974], [-119.65435, 49.59723], [-119.65116, 49.59608], [-119.6486, 49.59303], [-119.64845, 49.59224], [-119.64679, 49.59014], [-119.64582, 49.58861], [-119.64294, 49.58045], [-119.6415, 49.57948], [-119.6411, 49.57931], [-119.64062, 49.57915], [-119.63862, 49.57881], [-119.6314, 49.57415], [-119.63109, 49.57342], [-119.63103, 49.57205], [-119.63104, 49.57177], [-119.63105, 49.57153], [-119.63099, 49.57018], [-119.631, 49.56968], [-119.63176, 49.56701], [-119.63249, 49.5661], [-119.63271, 49.56585], [-119.6329, 49.56565], [-119.63446, 49.55085], [-119.63441, 49.54794], [-119.62932, 49.54332], [-119.62895, 49.54299], [-119.62865, 49.5427], [-119.61765, 49.51403], [-119.61764, 49.51376], [-119.61762, 49.51345], [-119.61758, 49.50052], [-119.61768, 49.5003], [-119.61776, 49.50007], [-119.61861, 49.49617], [-119.61824, 49.49595], [-119.61794, 49.49584], [-119.61443, 49.49519], [-119.61429, 49.49517], [-119.6134, 49.49507], [-119.61116, 49.49467], [-119.6104, 49.49455], [-119.60912, 49.49428], [-119.60635, 49.49387], [-119.60504, 49.49363], [-119.60451, 49.49354], [-119.60394, 49.4934], [-119.60314, 49.4933], [-119.60301, 49.49327]]}}, {"type": "Feature", "properties": {"step": 1, "minutes": 21.2}, "geometry": {"type": "LineString", "coordinates": [[-119.66853, 49.58793], [-119.67621, 49.59734], [-119.67558, 49.59738], [-119.66896, 49.59867], [-119.66987, 49.59894], [-119.66979, 49.59942], [-119.66979, 49.5997], [-119.66823, 49.60271], [-119.6662, 49.60281], [-119.66562, 49.60281], [-119.66325, 49.60123], [-119.6568, 49.59852], [-119.65525, 49.59767], [-119.65472, 49.5974], [-119.65435, 49.59723], [-119.65116, 49.59608], [-119.6486, 49.59303], [-119.64845, 49.59224], [-119.64679, 49.59014], [-119.64582, 49.58861], [-119.64294, 49.58045], [-119.6415, 49.57948], [-119.6411, 49.57931], [-119.64062, 49.57915], [-119.63862, 49.57881], [-119.6314, 49.57415], [-119.63109, 49.57342], [-119.63103, 49.57205], [-119.63104, 49.57177], [-119.63105, 49.57153], [-119.63099, 49.57018], [-119.631, 49.56968], [-119.63176, 49.56701], [-119.63249, 49.5661], [-119.63271, 49.56585], [-119.6329, 49.56565], [-119.63446, 49.55085], [-119.63441, 49.54794], [-119.62932, 49.54332], [-119.62895, 49.54299], [-119.62865, 49.5427], [-119.61765, 49.51403], [-119.61764, 49.51376], [-119.61762, 49.51345], [-119.61758, 49.50052], [-119.61768, 49.5003], [-119.61776, 49.50007], [-119.61861, 49.49617], [-119.61824, 49.49595], [-119.61794, 49.49584], [-119.61443, 49.49519], [-119.61429, 49.49517], [-119.6134, 49.49507], [-119.61116, 49.49467], [-119.6104, 49.49455], [-119.60912, 49.49428], [-119.60635, 49.49387], [-119.60504, 49.49363], [-119.60451, 49.49354], [-119.60394, 49.4934], [-119.60314, 49.4933], [-119.60301, 49.49327]]}}, {"type": "Feature", "properties": {"step": 2, "minutes": 21.2}, "geometry": {"type": "LineString", "coordinates": [[-119.66853, 49.58793], [-119.67621, 49.59734], [-119.67558, 49.59738], [-119.66896, 49.59867], [-119.66987, 49.59894], [-119.66979, 49.59942], [-119.66979, 49.5997], [-119.66823, 49.60271], [-119.6662, 49.60281], [-119.66562, 49.60281], [-119.66325, 49.60123], [-119.6568, 49.59852], [-119.65525, 49.59767], [-119.65472, 49.5974], [-119.65435, 49.59723], [-119.65116, 49.59608], [-119.6486, 49.59303], [-119.64845, 49.59224], [-119.64679, 49.59014], [-119.64582, 49.58861], [-119.64294, 49.58045], [-119.6415, 49.57948], [-119.6411, 49.57931], [-119.64062, 49.57915], [-119.63862, 49.57881], [-119.6314, 49.57415], [-119.63109, 49.57342], [-119.63103, 49.57205], [-119.63104, 49.57177], [-119.63105, 49.57153], [-119.63099, 49.57018], [-119.631, 49.56968], [-119.63176, 49.56701], [-119.63249, 49.5661], [-119.63271, 49.56585], [-119.6329, 49.56565], [-119.63446, 49.55085], [-119.63441, 49.54794], [-119.62932, 49.54332], [-119.62895, 49.54299], [-119.62865, 49.5427], [-119.61765, 49.51403], [-119.61764, 49.51376], [-119.61762, 49.51345], [-119.61758, 49.50052], [-119.61768, 49.5003], [-119.61776, 49.50007], [-119.61861, 49.49617], [-119.61824, 49.49595], [-119.61794, 49.49584], [-119.61443, 49.49519], [-119.61429, 49.49517], [-119.6134, 49.49507], [-119.61116, 49.49467], [-119.6104, 49.49455], [-119.60912, 49.49428], [-119.60635, 49.49387], [-119.60504, 49.49363], [-119.60451, 49.49354], [-119.60394, 49.4934], [-119.60314, 49.4933], [-119.60301, 49.49327]]}}, {"type": "Feature", "properties": {"step": 3, "minutes": 21.2}, "geometry": {"type": "LineString", "coordinates": [[-119.66853, 49.58793], [-119.67621, 49.59734], [-119.67558, 49.59738], [-119.66896, 49.59867], [-119.66987, 49.59894], [-119.66979, 49.59942], [-119.66979, 49.5997], [-119.66823, 49.60271], [-119.6662, 49.60281], [-119.66562, 49.60281], [-119.66325, 49.60123], [-119.6568, 49.59852], [-119.65525, 49.59767], [-119.65472, 49.5974], [-119.65435, 49.59723], [-119.65116, 49.59608], [-119.6486, 49.59303], [-119.64845, 49.59224], [-119.64679, 49.59014], [-119.64582, 49.58861], [-119.64294, 49.58045], [-119.6415, 49.57948], [-119.6411, 49.57931], [-119.64062, 49.57915], [-119.63862, 49.57881], [-119.6314, 49.57415], [-119.63109, 49.57342], [-119.63103, 49.57205], [-119.63104, 49.57177], [-119.63105, 49.57153], [-119.63099, 49.57018], [-119.631, 49.56968], [-119.63176, 49.56701], [-119.63249, 49.5661], [-119.63271, 49.56585], [-119.6329, 49.56565], [-119.63446, 49.55085], [-119.63441, 49.54794], [-119.62932, 49.54332], [-119.62895, 49.54299], [-119.62865, 49.5427], [-119.61765, 49.51403], [-119.61764, 49.51376], [-119.61762, 49.51345], [-119.61758, 49.50052], [-119.61768, 49.5003], [-119.61776, 49.50007], [-119.61861, 49.49617], [-119.61824, 49.49595], [-119.61794, 49.49584], [-119.61443, 49.49519], [-119.61429, 49.49517], [-119.6134, 49.49507], [-119.61116, 49.49467], [-119.6104, 49.49455], [-119.60912, 49.49428], [-119.60635, 49.49387], [-119.60504, 49.49363], [-119.60451, 49.49354], [-119.60394, 49.4934], [-119.60314, 49.4933], [-119.60301, 49.49327]]}}, {"type": "Feature", "properties": {"step": 4, "minutes": 21.2}, "geometry": {"type": "LineString", "coordinates": [[-119.66853, 49.58793], [-119.67621, 49.59734], [-119.67558, 49.59738], [-119.66896, 49.59867], [-119.66987, 49.59894], [-119.66979, 49.59942], [-119.66979, 49.5997], [-119.66823, 49.60271], [-119.6662, 49.60281], [-119.66562, 49.60281], [-119.66325, 49.60123], [-119.6568, 49.59852], [-119.65525, 49.59767], [-119.65472, 49.5974], [-119.65435, 49.59723], [-119.65116, 49.59608], [-119.6486, 49.59303], [-119.64845, 49.59224], [-119.64679, 49.59014], [-119.64582, 49.58861], [-119.64294, 49.58045], [-119.6415, 49.57948], [-119.6411, 49.57931], [-119.64062, 49.57915], [-119.63862, 49.57881], [-119.6314, 49.57415], [-119.63109, 49.57342], [-119.63103, 49.57205], [-119.63104, 49.57177], [-119.63105, 49.57153], [-119.63099, 49.57018], [-119.631, 49.56968], [-119.63176, 49.56701], [-119.63249, 49.5661], [-119.63271, 49.56585], [-119.6329, 49.56565], [-119.63446, 49.55085], [-119.63441, 49.54794], [-119.62932, 49.54332], [-119.62895, 49.54299], [-119.62865, 49.5427], [-119.61765, 49.51403], [-119.61764, 49.51376], [-119.61762, 49.51345], [-119.61758, 49.50052], [-119.61768, 49.5003], [-119.61776, 49.50007], [-119.61861, 49.49617], [-119.61824, 49.49595], [-119.61794, 49.49584], [-119.61443, 49.49519], [-119.61429, 49.49517], [-119.6134, 49.49507], [-119.61116, 49.49467], [-119.6104, 49.49455], [-119.60912, 49.49428], [-119.60635, 49.49387], [-119.60504, 49.49363], [-119.60451, 49.49354], [-119.60394, 49.4934], [-119.60314, 49.4933], [-119.60301, 49.49327]]}}, {"type": "Feature", "properties": {"step": 5, "minutes": 21.2}, "geometry": {"type": "LineString", "coordinates": [[-119.66853, 49.58793], [-119.67621, 49.59734], [-119.67558, 49.59738], [-119.66896, 49.59867], [-119.66987, 49.59894], [-119.66979, 49.59942], [-119.66979, 49.5997], [-119.66823, 49.60271], [-119.6662, 49.60281], [-119.66562, 49.60281], [-119.66325, 49.60123], [-119.6568, 49.59852], [-119.65525, 49.59767], [-119.65472, 49.5974], [-119.65435, 49.59723], [-119.65116, 49.59608], [-119.6486, 49.59303], [-119.64845, 49.59224], [-119.64679, 49.59014], [-119.64582, 49.58861], [-119.64294, 49.58045], [-119.6415, 49.57948], [-119.6411, 49.57931], [-119.64062, 49.57915], [-119.63862, 49.57881], [-119.6314, 49.57415], [-119.63109, 49.57342], [-119.63103, 49.57205], [-119.63104, 49.57177], [-119.63105, 49.57153], [-119.63099, 49.57018], [-119.631, 49.56968], [-119.63176, 49.56701], [-119.63249, 49.5661], [-119.63271, 49.56585], [-119.6329, 49.56565], [-119.63446, 49.55085], [-119.63441, 49.54794], [-119.62932, 49.54332], [-119.62895, 49.54299], [-119.62865, 49.5427], [-119.61765, 49.51403], [-119.61764, 49.51376], [-119.61762, 49.51345], [-119.61758, 49.50052], [-119.61768, 49.5003], [-119.61776, 49.50007], [-119.61861, 49.49617], [-119.61824, 49.49595], [-119.61794, 49.49584], [-119.61443, 49.49519], [-119.61429, 49.49517], [-119.6134, 49.49507], [-119.61116, 49.49467], [-119.6104, 49.49455], [-119.60912, 49.49428], [-119.60635, 49.49387], [-119.60504, 49.49363], [-119.60451, 49.49354], [-119.60394, 49.4934], [-119.60314, 49.4933], [-119.60301, 49.49327]]}}, {"type": "Feature", "properties": {"step": 6, "minutes": 21.2}, "geometry": {"type": "LineString", "coordinates": [[-119.66853, 49.58793], [-119.67621, 49.59734], [-119.67558, 49.59738], [-119.66896, 49.59867], [-119.66987, 49.59894], [-119.66979, 49.59942], [-119.66979, 49.5997], [-119.66823, 49.60271], [-119.6662, 49.60281], [-119.66562, 49.60281], [-119.66325, 49.60123], [-119.6568, 49.59852], [-119.65525, 49.59767], [-119.65472, 49.5974], [-119.65435, 49.59723], [-119.65116, 49.59608], [-119.6486, 49.59303], [-119.64845, 49.59224], [-119.64679, 49.59014], [-119.64582, 49.58861], [-119.64294, 49.58045], [-119.6415, 49.57948], [-119.6411, 49.57931], [-119.64062, 49.57915], [-119.63862, 49.57881], [-119.6314, 49.57415], [-119.63109, 49.57342], [-119.63103, 49.57205], [-119.63104, 49.57177], [-119.63105, 49.57153], [-119.63099, 49.57018], [-119.631, 49.56968], [-119.63176, 49.56701], [-119.63249, 49.5661], [-119.63271, 49.56585], [-119.6329, 49.56565], [-119.63446, 49.55085], [-119.63441, 49.54794], [-119.62932, 49.54332], [-119.62895, 49.54299], [-119.62865, 49.5427], [-119.61765, 49.51403], [-119.61764, 49.51376], [-119.61762, 49.51345], [-119.61758, 49.50052], [-119.61768, 49.5003], [-119.61776, 49.50007], [-119.61861, 49.49617], [-119.61824, 49.49595], [-119.61794, 49.49584], [-119.61443, 49.49519], [-119.61429, 49.49517], [-119.6134, 49.49507], [-119.61116, 49.49467], [-119.6104, 49.49455], [-119.60912, 49.49428], [-119.60635, 49.49387], [-119.60504, 49.49363], [-119.60451, 49.49354], [-119.60394, 49.4934], [-119.60314, 49.4933], [-119.60301, 49.49327]]}}, {"type": "Feature", "properties": {"step": 7, "minutes": 21.2}, "geometry": {"type": "LineString", "coordinates": [[-119.66853, 49.58793], [-119.67621, 49.59734], [-119.67558, 49.59738], [-119.66896, 49.59867], [-119.66987, 49.59894], [-119.66979, 49.59942], [-119.66979, 49.5997], [-119.66823, 49.60271], [-119.6662, 49.60281], [-119.66562, 49.60281], [-119.66325, 49.60123], [-119.6568, 49.59852], [-119.65525, 49.59767], [-119.65472, 49.5974], [-119.65435, 49.59723], [-119.65116, 49.59608], [-119.6486, 49.59303], [-119.64845, 49.59224], [-119.64679, 49.59014], [-119.64582, 49.58861], [-119.64294, 49.58045], [-119.6415, 49.57948], [-119.6411, 49.57931], [-119.64062, 49.57915], [-119.63862, 49.57881], [-119.6314, 49.57415], [-119.63109, 49.57342], [-119.63103, 49.57205], [-119.63104, 49.57177], [-119.63105, 49.57153], [-119.63099, 49.57018], [-119.631, 49.56968], [-119.63176, 49.56701], [-119.63249, 49.5661], [-119.63271, 49.56585], [-119.6329, 49.56565], [-119.63446, 49.55085], [-119.63441, 49.54794], [-119.62932, 49.54332], [-119.62895, 49.54299], [-119.62865, 49.5427], [-119.61765, 49.51403], [-119.61764, 49.51376], [-119.61762, 49.51345], [-119.61758, 49.50052], [-119.61768, 49.5003], [-119.61776, 49.50007], [-119.61861, 49.49617], [-119.61824, 49.49595], [-119.61794, 49.49584], [-119.61443, 49.49519], [-119.61429, 49.49517], [-119.6134, 49.49507], [-119.61116, 49.49467], [-119.6104, 49.49455], [-119.60912, 49.49428], [-119.60635, 49.49387], [-119.60504, 49.49363], [-119.60451, 49.49354], [-119.60394, 49.4934], [-119.60314, 49.4933], [-119.60301, 49.49327]]}}, {"type": "Feature", "properties": {"step": 8, "minutes": 21.2}, "geometry": {"type": "LineString", "coordinates": [[-119.66853, 49.58793], [-119.67621, 49.59734], [-119.67558, 49.59738], [-119.66896, 49.59867], [-119.66987, 49.59894], [-119.66979, 49.59942], [-119.66979, 49.5997], [-119.66823, 49.60271], [-119.6662, 49.60281], [-119.66562, 49.60281], [-119.66325, 49.60123], [-119.6568, 49.59852], [-119.65525, 49.59767], [-119.65472, 49.5974], [-119.65435, 49.59723], [-119.65116, 49.59608], [-119.6486, 49.59303], [-119.64845, 49.59224], [-119.64679, 49.59014], [-119.64582, 49.58861], [-119.64294, 49.58045], [-119.6415, 49.57948], [-119.6411, 49.57931], [-119.64062, 49.57915], [-119.63862, 49.57881], [-119.6314, 49.57415], [-119.63109, 49.57342], [-119.63103, 49.57205], [-119.63104, 49.57177], [-119.63105, 49.57153], [-119.63099, 49.57018], [-119.631, 49.56968], [-119.63176, 49.56701], [-119.63249, 49.5661], [-119.63271, 49.56585], [-119.6329, 49.56565], [-119.63446, 49.55085], [-119.63441, 49.54794], [-119.62932, 49.54332], [-119.62895, 49.54299], [-119.62865, 49.5427], [-119.61765, 49.51403], [-119.61764, 49.51376], [-119.61762, 49.51345], [-119.61758, 49.50052], [-119.61768, 49.5003], [-119.61776, 49.50007], [-119.61861, 49.49617], [-119.61824, 49.49595], [-119.61794, 49.49584], [-119.61443, 49.49519], [-119.61429, 49.49517], [-119.6134, 49.49507], [-119.61116, 49.49467], [-119.6104, 49.49455], [-119.60912, 49.49428], [-119.60635, 49.49387], [-119.60504, 49.49363], [-119.60451, 49.49354], [-119.60394, 49.4934], [-119.60314, 49.4933], [-119.60301, 49.49327]]}}, {"type": "Feature", "properties": {"step": 9, "minutes": 21.2}, "geometry": {"type": "LineString", "coordinates": [[-119.66853, 49.58793], [-119.67621, 49.59734], [-119.67558, 49.59738], [-119.66896, 49.59867], [-119.66987, 49.59894], [-119.66979, 49.59942], [-119.66979, 49.5997], [-119.66823, 49.60271], [-119.6662, 49.60281], [-119.66562, 49.60281], [-119.66325, 49.60123], [-119.6568, 49.59852], [-119.65525, 49.59767], [-119.65472, 49.5974], [-119.65435, 49.59723], [-119.65116, 49.59608], [-119.6486, 49.59303], [-119.64845, 49.59224], [-119.64679, 49.59014], [-119.64582, 49.58861], [-119.64294, 49.58045], [-119.6415, 49.57948], [-119.6411, 49.57931], [-119.64062, 49.57915], [-119.63862, 49.57881], [-119.6314, 49.57415], [-119.63109, 49.57342], [-119.63103, 49.57205], [-119.63104, 49.57177], [-119.63105, 49.57153], [-119.63099, 49.57018], [-119.631, 49.56968], [-119.63176, 49.56701], [-119.63249, 49.5661], [-119.63271, 49.56585], [-119.6329, 49.56565], [-119.63446, 49.55085], [-119.63441, 49.54794], [-119.62932, 49.54332], [-119.62895, 49.54299], [-119.62865, 49.5427], [-119.61765, 49.51403], [-119.61764, 49.51376], [-119.61762, 49.51345], [-119.61758, 49.50052], [-119.61768, 49.5003], [-119.61776, 49.50007], [-119.61861, 49.49617], [-119.61824, 49.49595], [-119.61794, 49.49584], [-119.61443, 49.49519], [-119.61429, 49.49517], [-119.6134, 49.49507], [-119.61116, 49.49467], [-119.6104, 49.49455], [-119.60912, 49.49428], [-119.60635, 49.49387], [-119.60504, 49.49363], [-119.60451, 49.49354], [-119.60394, 49.4934], [-119.60314, 49.4933], [-119.60301, 49.49327]]}}, {"type": "Feature", "properties": {"step": 10, "minutes": 21.2}, "geometry": {"type": "LineString", "coordinates": [[-119.66853, 49.58793], [-119.67621, 49.59734], [-119.67558, 49.59738], [-119.66896, 49.59867], [-119.66987, 49.59894], [-119.66979, 49.59942], [-119.66979, 49.5997], [-119.66823, 49.60271], [-119.6662, 49.60281], [-119.66562, 49.60281], [-119.66325, 49.60123], [-119.6568, 49.59852], [-119.65525, 49.59767], [-119.65472, 49.5974], [-119.65435, 49.59723], [-119.65116, 49.59608], [-119.6486, 49.59303], [-119.64845, 49.59224], [-119.64679, 49.59014], [-119.64582, 49.58861], [-119.64294, 49.58045], [-119.6415, 49.57948], [-119.6411, 49.57931], [-119.64062, 49.57915], [-119.63862, 49.57881], [-119.6314, 49.57415], [-119.63109, 49.57342], [-119.63103, 49.57205], [-119.63104, 49.57177], [-119.63105, 49.57153], [-119.63099, 49.57018], [-119.631, 49.56968], [-119.63176, 49.56701], [-119.63249, 49.5661], [-119.63271, 49.56585], [-119.6329, 49.56565], [-119.63446, 49.55085], [-119.63441, 49.54794], [-119.62932, 49.54332], [-119.62895, 49.54299], [-119.62865, 49.5427], [-119.61765, 49.51403], [-119.61764, 49.51376], [-119.61762, 49.51345], [-119.61758, 49.50052], [-119.61768, 49.5003], [-119.61776, 49.50007], [-119.61861, 49.49617], [-119.61824, 49.49595], [-119.61794, 49.49584], [-119.61443, 49.49519], [-119.61429, 49.49517], [-119.6134, 49.49507], [-119.61116, 49.49467], [-119.6104, 49.49455], [-119.60912, 49.49428], [-119.60635, 49.49387], [-119.60504, 49.49363], [-119.60451, 49.49354], [-119.60394, 49.4934], [-119.60314, 49.4933], [-119.60301, 49.49327]]}}, {"type": "Feature", "properties": {"step": 11, "minutes": 21.2}, "geometry": {"type": "LineString", "coordinates": [[-119.66853, 49.58793], [-119.67621, 49.59734], [-119.67558, 49.59738], [-119.66896, 49.59867], [-119.66987, 49.59894], [-119.66979, 49.59942], [-119.66979, 49.5997], [-119.66823, 49.60271], [-119.6662, 49.60281], [-119.66562, 49.60281], [-119.66325, 49.60123], [-119.6568, 49.59852], [-119.65525, 49.59767], [-119.65472, 49.5974], [-119.65435, 49.59723], [-119.65116, 49.59608], [-119.6486, 49.59303], [-119.64845, 49.59224], [-119.64679, 49.59014], [-119.64582, 49.58861], [-119.64294, 49.58045], [-119.6415, 49.57948], [-119.6411, 49.57931], [-119.64062, 49.57915], [-119.63862, 49.57881], [-119.6314, 49.57415], [-119.63109, 49.57342], [-119.63103, 49.57205], [-119.63104, 49.57177], [-119.63105, 49.57153], [-119.63099, 49.57018], [-119.631, 49.56968], [-119.63176, 49.56701], [-119.63249, 49.5661], [-119.63271, 49.56585], [-119.6329, 49.56565], [-119.63446, 49.55085], [-119.63441, 49.54794], [-119.62932, 49.54332], [-119.62895, 49.54299], [-119.62865, 49.5427], [-119.61765, 49.51403], [-119.61764, 49.51376], [-119.61762, 49.51345], [-119.61758, 49.50052], [-119.61768, 49.5003], [-119.61776, 49.50007], [-119.61861, 49.49617], [-119.61824, 49.49595], [-119.61794, 49.49584], [-119.61443, 49.49519], [-119.61429, 49.49517], [-119.6134, 49.49507], [-119.61116, 49.49467], [-119.6104, 49.49455], [-119.60912, 49.49428], [-119.60635, 49.49387], [-119.60504, 49.49363], [-119.60451, 49.49354], [-119.60394, 49.4934], [-119.60314, 49.4933], [-119.60301, 49.49327]]}}, {"type": "Feature", "properties": {"step": 12, "minutes": 21.2}, "geometry": {"type": "LineString", "coordinates": [[-119.66853, 49.58793], [-119.67621, 49.59734], [-119.67558, 49.59738], [-119.66896, 49.59867], [-119.66987, 49.59894], [-119.66979, 49.59942], [-119.66979, 49.5997], [-119.66823, 49.60271], [-119.6662, 49.60281], [-119.66562, 49.60281], [-119.66325, 49.60123], [-119.6568, 49.59852], [-119.65525, 49.59767], [-119.65472, 49.5974], [-119.65435, 49.59723], [-119.65116, 49.59608], [-119.6486, 49.59303], [-119.64845, 49.59224], [-119.64679, 49.59014], [-119.64582, 49.58861], [-119.64294, 49.58045], [-119.6415, 49.57948], [-119.6411, 49.57931], [-119.64062, 49.57915], [-119.63862, 49.57881], [-119.6314, 49.57415], [-119.63109, 49.57342], [-119.63103, 49.57205], [-119.63104, 49.57177], [-119.63105, 49.57153], [-119.63099, 49.57018], [-119.631, 49.56968], [-119.63176, 49.56701], [-119.63249, 49.5661], [-119.63271, 49.56585], [-119.6329, 49.56565], [-119.63446, 49.55085], [-119.63441, 49.54794], [-119.62932, 49.54332], [-119.62895, 49.54299], [-119.62865, 49.5427], [-119.61765, 49.51403], [-119.61764, 49.51376], [-119.61762, 49.51345], [-119.61758, 49.50052], [-119.61768, 49.5003], [-119.61776, 49.50007], [-119.61861, 49.49617], [-119.61824, 49.49595], [-119.61794, 49.49584], [-119.61443, 49.49519], [-119.61429, 49.49517], [-119.6134, 49.49507], [-119.61116, 49.49467], [-119.6104, 49.49455], [-119.60912, 49.49428], [-119.60635, 49.49387], [-119.60504, 49.49363], [-119.60451, 49.49354], [-119.60394, 49.4934], [-119.60314, 49.4933], [-119.60301, 49.49327]]}}, {"type": "Feature", "properties": {"step": 13, "minutes": 21.2}, "geometry": {"type": "LineString", "coordinates": [[-119.66853, 49.58793], [-119.67621, 49.59734], [-119.67558, 49.59738], [-119.66896, 49.59867], [-119.66987, 49.59894], [-119.66979, 49.59942], [-119.66979, 49.5997], [-119.66823, 49.60271], [-119.6662, 49.60281], [-119.66562, 49.60281], [-119.66325, 49.60123], [-119.6568, 49.59852], [-119.65525, 49.59767], [-119.65472, 49.5974], [-119.65435, 49.59723], [-119.65116, 49.59608], [-119.6486, 49.59303], [-119.64845, 49.59224], [-119.64679, 49.59014], [-119.64582, 49.58861], [-119.64294, 49.58045], [-119.6415, 49.57948], [-119.6411, 49.57931], [-119.64062, 49.57915], [-119.63862, 49.57881], [-119.6314, 49.57415], [-119.63109, 49.57342], [-119.63103, 49.57205], [-119.63104, 49.57177], [-119.63105, 49.57153], [-119.63099, 49.57018], [-119.631, 49.56968], [-119.63176, 49.56701], [-119.63249, 49.5661], [-119.63271, 49.56585], [-119.6329, 49.56565], [-119.63446, 49.55085], [-119.63441, 49.54794], [-119.62932, 49.54332], [-119.62895, 49.54299], [-119.62865, 49.5427], [-119.61765, 49.51403], [-119.61764, 49.51376], [-119.61762, 49.51345], [-119.61758, 49.50052], [-119.61768, 49.5003], [-119.61776, 49.50007], [-119.61861, 49.49617], [-119.61824, 49.49595], [-119.61794, 49.49584], [-119.61443, 49.49519], [-119.61429, 49.49517], [-119.6134, 49.49507], [-119.61116, 49.49467], [-119.6104, 49.49455], [-119.60912, 49.49428], [-119.60635, 49.49387], [-119.60504, 49.49363], [-119.60451, 49.49354], [-119.60394, 49.4934], [-119.60314, 49.4933], [-119.60301, 49.49327]]}}, {"type": "Feature", "properties": {"step": 14, "minutes": 21.2}, "geometry": {"type": "LineString", "coordinates": [[-119.66853, 49.58793], [-119.67621, 49.59734], [-119.67558, 49.59738], [-119.66896, 49.59867], [-119.66987, 49.59894], [-119.66979, 49.59942], [-119.66979, 49.5997], [-119.66823, 49.60271], [-119.6662, 49.60281], [-119.66562, 49.60281], [-119.66325, 49.60123], [-119.6568, 49.59852], [-119.65525, 49.59767], [-119.65472, 49.5974], [-119.65435, 49.59723], [-119.65116, 49.59608], [-119.6486, 49.59303], [-119.64845, 49.59224], [-119.64679, 49.59014], [-119.64582, 49.58861], [-119.64294, 49.58045], [-119.6415, 49.57948], [-119.6411, 49.57931], [-119.64062, 49.57915], [-119.63862, 49.57881], [-119.6314, 49.57415], [-119.63109, 49.57342], [-119.63103, 49.57205], [-119.63104, 49.57177], [-119.63105, 49.57153], [-119.63099, 49.57018], [-119.631, 49.56968], [-119.63176, 49.56701], [-119.63249, 49.5661], [-119.63271, 49.56585], [-119.6329, 49.56565], [-119.63446, 49.55085], [-119.63441, 49.54794], [-119.62932, 49.54332], [-119.62895, 49.54299], [-119.62865, 49.5427], [-119.61765, 49.51403], [-119.61764, 49.51376], [-119.61762, 49.51345], [-119.61758, 49.50052], [-119.61768, 49.5003], [-119.61776, 49.50007], [-119.61861, 49.49617], [-119.61824, 49.49595], [-119.61794, 49.49584], [-119.61443, 49.49519], [-119.61429, 49.49517], [-119.6134, 49.49507], [-119.61116, 49.49467], [-119.6104, 49.49455], [-119.60912, 49.49428], [-119.60635, 49.49387], [-119.60504, 49.49363], [-119.60451, 49.49354], [-119.60394, 49.4934], [-119.60314, 49.4933], [-119.60301, 49.49327]]}}, {"type": "Feature", "properties": {"step": 15, "minutes": 21.2}, "geometry": {"type": "LineString", "coordinates": [[-119.66853, 49.58793], [-119.67621, 49.59734], [-119.67558, 49.59738], [-119.66896, 49.59867], [-119.66987, 49.59894], [-119.66979, 49.59942], [-119.66979, 49.5997], [-119.66823, 49.60271], [-119.6662, 49.60281], [-119.66562, 49.60281], [-119.66325, 49.60123], [-119.6568, 49.59852], [-119.65525, 49.59767], [-119.65472, 49.5974], [-119.65435, 49.59723], [-119.65116, 49.59608], [-119.6486, 49.59303], [-119.64845, 49.59224], [-119.64679, 49.59014], [-119.64582, 49.58861], [-119.64294, 49.58045], [-119.6415, 49.57948], [-119.6411, 49.57931], [-119.64062, 49.57915], [-119.63862, 49.57881], [-119.6314, 49.57415], [-119.63109, 49.57342], [-119.63103, 49.57205], [-119.63104, 49.57177], [-119.63105, 49.57153], [-119.63099, 49.57018], [-119.631, 49.56968], [-119.63176, 49.56701], [-119.63249, 49.5661], [-119.63271, 49.56585], [-119.6329, 49.56565], [-119.63446, 49.55085], [-119.63441, 49.54794], [-119.62932, 49.54332], [-119.62895, 49.54299], [-119.62865, 49.5427], [-119.61765, 49.51403], [-119.61764, 49.51376], [-119.61762, 49.51345], [-119.61758, 49.50052], [-119.61768, 49.5003], [-119.61776, 49.50007], [-119.61861, 49.49617], [-119.61824, 49.49595], [-119.61794, 49.49584], [-119.61443, 49.49519], [-119.61429, 49.49517], [-119.6134, 49.49507], [-119.61116, 49.49467], [-119.6104, 49.49455], [-119.60912, 49.49428], [-119.60635, 49.49387], [-119.60504, 49.49363], [-119.60451, 49.49354], [-119.60394, 49.4934], [-119.60314, 49.4933], [-119.60301, 49.49327]]}}, {"type": "Feature", "properties": {"step": 16, "minutes": 21.2}, "geometry": {"type": "LineString", "coordinates": [[-119.66853, 49.58793], [-119.67621, 49.59734], [-119.67558, 49.59738], [-119.66896, 49.59867], [-119.66987, 49.59894], [-119.66979, 49.59942], [-119.66979, 49.5997], [-119.66823, 49.60271], [-119.6662, 49.60281], [-119.66562, 49.60281], [-119.66325, 49.60123], [-119.6568, 49.59852], [-119.65525, 49.59767], [-119.65472, 49.5974], [-119.65435, 49.59723], [-119.65116, 49.59608], [-119.6486, 49.59303], [-119.64845, 49.59224], [-119.64679, 49.59014], [-119.64582, 49.58861], [-119.64294, 49.58045], [-119.6415, 49.57948], [-119.6411, 49.57931], [-119.64062, 49.57915], [-119.63862, 49.57881], [-119.6314, 49.57415], [-119.63109, 49.57342], [-119.63103, 49.57205], [-119.63104, 49.57177], [-119.63105, 49.57153], [-119.63099, 49.57018], [-119.631, 49.56968], [-119.63176, 49.56701], [-119.63249, 49.5661], [-119.63271, 49.56585], [-119.6329, 49.56565], [-119.63446, 49.55085], [-119.63441, 49.54794], [-119.62932, 49.54332], [-119.62895, 49.54299], [-119.62865, 49.5427], [-119.61765, 49.51403], [-119.61764, 49.51376], [-119.61762, 49.51345], [-119.61758, 49.50052], [-119.61768, 49.5003], [-119.61776, 49.50007], [-119.61861, 49.49617], [-119.61824, 49.49595], [-119.61794, 49.49584], [-119.61443, 49.49519], [-119.61429, 49.49517], [-119.6134, 49.49507], [-119.61116, 49.49467], [-119.6104, 49.49455], [-119.60912, 49.49428], [-119.60635, 49.49387], [-119.60504, 49.49363], [-119.60451, 49.49354], [-119.60394, 49.4934], [-119.60314, 49.4933], [-119.60301, 49.49327]]}}, {"type": "Feature", "properties": {"step": 17, "minutes": 21.2}, "geometry": {"type": "LineString", "coordinates": [[-119.66853, 49.58793], [-119.67621, 49.59734], [-119.67558, 49.59738], [-119.66896, 49.59867], [-119.66987, 49.59894], [-119.66979, 49.59942], [-119.66979, 49.5997], [-119.66823, 49.60271], [-119.6662, 49.60281], [-119.66562, 49.60281], [-119.66325, 49.60123], [-119.6568, 49.59852], [-119.65525, 49.59767], [-119.65472, 49.5974], [-119.65435, 49.59723], [-119.65116, 49.59608], [-119.6486, 49.59303], [-119.64845, 49.59224], [-119.64679, 49.59014], [-119.64582, 49.58861], [-119.64294, 49.58045], [-119.6415, 49.57948], [-119.6411, 49.57931], [-119.64062, 49.57915], [-119.63862, 49.57881], [-119.6314, 49.57415], [-119.63109, 49.57342], [-119.63103, 49.57205], [-119.63104, 49.57177], [-119.63105, 49.57153], [-119.63099, 49.57018], [-119.631, 49.56968], [-119.63176, 49.56701], [-119.63249, 49.5661], [-119.63271, 49.56585], [-119.6329, 49.56565], [-119.63446, 49.55085], [-119.63441, 49.54794], [-119.62932, 49.54332], [-119.62895, 49.54299], [-119.62865, 49.5427], [-119.61765, 49.51403], [-119.61764, 49.51376], [-119.61762, 49.51345], [-119.61758, 49.50052], [-119.61768, 49.5003], [-119.61776, 49.50007], [-119.61861, 49.49617], [-119.61824, 49.49595], [-119.61794, 49.49584], [-119.61443, 49.49519], [-119.61429, 49.49517], [-119.6134, 49.49507], [-119.61116, 49.49467], [-119.6104, 49.49455], [-119.60912, 49.49428], [-119.60635, 49.49387], [-119.60504, 49.49363], [-119.60451, 49.49354], [-119.60394, 49.4934], [-119.60314, 49.4933], [-119.60301, 49.49327]]}}, {"type": "Feature", "properties": {"step": 18, "minutes": 21.2}, "geometry": {"type": "LineString", "coordinates": [[-119.66853, 49.58793], [-119.67621, 49.59734], [-119.67558, 49.59738], [-119.66896, 49.59867], [-119.66987, 49.59894], [-119.66979, 49.59942], [-119.66979, 49.5997], [-119.66823, 49.60271], [-119.6662, 49.60281], [-119.66562, 49.60281], [-119.66325, 49.60123], [-119.6568, 49.59852], [-119.65525, 49.59767], [-119.65472, 49.5974], [-119.65435, 49.59723], [-119.65116, 49.59608], [-119.6486, 49.59303], [-119.64845, 49.59224], [-119.64679, 49.59014], [-119.64582, 49.58861], [-119.64294, 49.58045], [-119.6415, 49.57948], [-119.6411, 49.57931], [-119.64062, 49.57915], [-119.63862, 49.57881], [-119.6314, 49.57415], [-119.63109, 49.57342], [-119.63103, 49.57205], [-119.63104, 49.57177], [-119.63105, 49.57153], [-119.63099, 49.57018], [-119.631, 49.56968], [-119.63176, 49.56701], [-119.63249, 49.5661], [-119.63271, 49.56585], [-119.6329, 49.56565], [-119.63446, 49.55085], [-119.63441, 49.54794], [-119.62932, 49.54332], [-119.62895, 49.54299], [-119.62865, 49.5427], [-119.61765, 49.51403], [-119.61764, 49.51376], [-119.61762, 49.51345], [-119.61758, 49.50052], [-119.61768, 49.5003], [-119.61776, 49.50007], [-119.61861, 49.49617], [-119.61824, 49.49595], [-119.61794, 49.49584], [-119.61443, 49.49519], [-119.61429, 49.49517], [-119.6134, 49.49507], [-119.61116, 49.49467], [-119.6104, 49.49455], [-119.60912, 49.49428], [-119.60635, 49.49387], [-119.60504, 49.49363], [-119.60451, 49.49354], [-119.60394, 49.4934], [-119.60314, 49.4933], [-119.60301, 49.49327]]}}, {"type": "Feature", "properties": {"step": 19, "minutes": 21.2}, "geometry": {"type": "LineString", "coordinates": [[-119.66853, 49.58793], [-119.67621, 49.59734], [-119.67558, 49.59738], [-119.66896, 49.59867], [-119.66987, 49.59894], [-119.66979, 49.59942], [-119.66979, 49.5997], [-119.66823, 49.60271], [-119.6662, 49.60281], [-119.66562, 49.60281], [-119.66325, 49.60123], [-119.6568, 49.59852], [-119.65525, 49.59767], [-119.65472, 49.5974], [-119.65435, 49.59723], [-119.65116, 49.59608], [-119.6486, 49.59303], [-119.64845, 49.59224], [-119.64679, 49.59014], [-119.64582, 49.58861], [-119.64294, 49.58045], [-119.6415, 49.57948], [-119.6411, 49.57931], [-119.64062, 49.57915], [-119.63862, 49.57881], [-119.6314, 49.57415], [-119.63109, 49.57342], [-119.63103, 49.57205], [-119.63104, 49.57177], [-119.63105, 49.57153], [-119.63099, 49.57018], [-119.631, 49.56968], [-119.63176, 49.56701], [-119.63249, 49.5661], [-119.63271, 49.56585], [-119.6329, 49.56565], [-119.63446, 49.55085], [-119.63441, 49.54794], [-119.62932, 49.54332], [-119.62895, 49.54299], [-119.62865, 49.5427], [-119.61765, 49.51403], [-119.61764, 49.51376], [-119.61762, 49.51345], [-119.61758, 49.50052], [-119.61768, 49.5003], [-119.61776, 49.50007], [-119.61861, 49.49617], [-119.61824, 49.49595], [-119.61794, 49.49584], [-119.61443, 49.49519], [-119.61429, 49.49517], [-119.6134, 49.49507], [-119.61116, 49.49467], [-119.6104, 49.49455], [-119.60912, 49.49428], [-119.60635, 49.49387], [-119.60504, 49.49363], [-119.60451, 49.49354], [-119.60394, 49.4934], [-119.60314, 49.4933], [-119.60301, 49.49327]]}}, {"type": "Feature", "properties": {"step": 20, "minutes": 21.2}, "geometry": {"type": "LineString", "coordinates": [[-119.66853, 49.58793], [-119.67621, 49.59734], [-119.67558, 49.59738], [-119.66896, 49.59867], [-119.66987, 49.59894], [-119.66979, 49.59942], [-119.66979, 49.5997], [-119.66823, 49.60271], [-119.6662, 49.60281], [-119.66562, 49.60281], [-119.66325, 49.60123], [-119.6568, 49.59852], [-119.65525, 49.59767], [-119.65472, 49.5974], [-119.65435, 49.59723], [-119.65116, 49.59608], [-119.6486, 49.59303], [-119.64845, 49.59224], [-119.64679, 49.59014], [-119.64582, 49.58861], [-119.64294, 49.58045], [-119.6415, 49.57948], [-119.6411, 49.57931], [-119.64062, 49.57915], [-119.63862, 49.57881], [-119.6314, 49.57415], [-119.63109, 49.57342], [-119.63103, 49.57205], [-119.63104, 49.57177], [-119.63105, 49.57153], [-119.63099, 49.57018], [-119.631, 49.56968], [-119.63176, 49.56701], [-119.63249, 49.5661], [-119.63271, 49.56585], [-119.6329, 49.56565], [-119.63446, 49.55085], [-119.63441, 49.54794], [-119.62932, 49.54332], [-119.62895, 49.54299], [-119.62865, 49.5427], [-119.61765, 49.51403], [-119.61764, 49.51376], [-119.61762, 49.51345], [-119.61758, 49.50052], [-119.61768, 49.5003], [-119.61776, 49.50007], [-119.61861, 49.49617], [-119.61824, 49.49595], [-119.61794, 49.49584], [-119.61443, 49.49519], [-119.61429, 49.49517], [-119.6134, 49.49507], [-119.61116, 49.49467], [-119.6104, 49.49455], [-119.60912, 49.49428], [-119.60635, 49.49387], [-119.60504, 49.49363], [-119.60451, 49.49354], [-119.60394, 49.4934], [-119.60314, 49.4933], [-119.60301, 49.49327]]}}, {"type": "Feature", "properties": {"step": 21, "minutes": 21.2}, "geometry": {"type": "LineString", "coordinates": [[-119.66853, 49.58793], [-119.67621, 49.59734], [-119.67558, 49.59738], [-119.66896, 49.59867], [-119.66987, 49.59894], [-119.66979, 49.59942], [-119.66979, 49.5997], [-119.66823, 49.60271], [-119.6662, 49.60281], [-119.66562, 49.60281], [-119.66325, 49.60123], [-119.6568, 49.59852], [-119.65525, 49.59767], [-119.65472, 49.5974], [-119.65435, 49.59723], [-119.65116, 49.59608], [-119.6486, 49.59303], [-119.64845, 49.59224], [-119.64679, 49.59014], [-119.64582, 49.58861], [-119.64294, 49.58045], [-119.6415, 49.57948], [-119.6411, 49.57931], [-119.64062, 49.57915], [-119.63862, 49.57881], [-119.6314, 49.57415], [-119.63109, 49.57342], [-119.63103, 49.57205], [-119.63104, 49.57177], [-119.63105, 49.57153], [-119.63099, 49.57018], [-119.631, 49.56968], [-119.63176, 49.56701], [-119.63249, 49.5661], [-119.63271, 49.56585], [-119.6329, 49.56565], [-119.63446, 49.55085], [-119.63441, 49.54794], [-119.62932, 49.54332], [-119.62895, 49.54299], [-119.62865, 49.5427], [-119.61765, 49.51403], [-119.61764, 49.51376], [-119.61762, 49.51345], [-119.61758, 49.50052], [-119.61768, 49.5003], [-119.61776, 49.50007], [-119.61861, 49.49617], [-119.61824, 49.49595], [-119.61794, 49.49584], [-119.61443, 49.49519], [-119.61429, 49.49517], [-119.6134, 49.49507], [-119.61116, 49.49467], [-119.6104, 49.49455], [-119.60912, 49.49428], [-119.60635, 49.49387], [-119.60504, 49.49363], [-119.60451, 49.49354], [-119.60394, 49.4934], [-119.60314, 49.4933], [-119.60301, 49.49327]]}}, {"type": "Feature", "properties": {"step": 22, "minutes": 21.2}, "geometry": {"type": "LineString", "coordinates": [[-119.66853, 49.58793], [-119.67621, 49.59734], [-119.67558, 49.59738], [-119.66896, 49.59867], [-119.66987, 49.59894], [-119.66979, 49.59942], [-119.66979, 49.5997], [-119.66823, 49.60271], [-119.6662, 49.60281], [-119.66562, 49.60281], [-119.66325, 49.60123], [-119.6568, 49.59852], [-119.65525, 49.59767], [-119.65472, 49.5974], [-119.65435, 49.59723], [-119.65116, 49.59608], [-119.6486, 49.59303], [-119.64845, 49.59224], [-119.64679, 49.59014], [-119.64582, 49.58861], [-119.64294, 49.58045], [-119.6415, 49.57948], [-119.6411, 49.57931], [-119.64062, 49.57915], [-119.63862, 49.57881], [-119.6314, 49.57415], [-119.63109, 49.57342], [-119.63103, 49.57205], [-119.63104, 49.57177], [-119.63105, 49.57153], [-119.63099, 49.57018], [-119.631, 49.56968], [-119.63176, 49.56701], [-119.63249, 49.5661], [-119.63271, 49.56585], [-119.6329, 49.56565], [-119.63446, 49.55085], [-119.63441, 49.54794], [-119.62932, 49.54332], [-119.62895, 49.54299], [-119.62865, 49.5427], [-119.61765, 49.51403], [-119.61764, 49.51376], [-119.61762, 49.51345], [-119.61758, 49.50052], [-119.61768, 49.5003], [-119.61776, 49.50007], [-119.61861, 49.49617], [-119.61824, 49.49595], [-119.61794, 49.49584], [-119.61443, 49.49519], [-119.61429, 49.49517], [-119.6134, 49.49507], [-119.61116, 49.49467], [-119.6104, 49.49455], [-119.60912, 49.49428], [-119.60635, 49.49387], [-119.60504, 49.49363], [-119.60451, 49.49354], [-119.60394, 49.4934], [-119.60314, 49.4933], [-119.60301, 49.49327]]}}, {"type": "Feature", "properties": {"step": 23, "minutes": 21.2}, "geometry": {"type": "LineString", "coordinates": [[-119.66853, 49.58793], [-119.67621, 49.59734], [-119.67558, 49.59738], [-119.66896, 49.59867], [-119.66987, 49.59894], [-119.66979, 49.59942], [-119.66979, 49.5997], [-119.66823, 49.60271], [-119.6662, 49.60281], [-119.66562, 49.60281], [-119.66325, 49.60123], [-119.6568, 49.59852], [-119.65525, 49.59767], [-119.65472, 49.5974], [-119.65435, 49.59723], [-119.65116, 49.59608], [-119.6486, 49.59303], [-119.64845, 49.59224], [-119.64679, 49.59014], [-119.64582, 49.58861], [-119.64294, 49.58045], [-119.6415, 49.57948], [-119.6411, 49.57931], [-119.64062, 49.57915], [-119.63862, 49.57881], [-119.6314, 49.57415], [-119.63109, 49.57342], [-119.63103, 49.57205], [-119.63104, 49.57177], [-119.63105, 49.57153], [-119.63099, 49.57018], [-119.631, 49.56968], [-119.63176, 49.56701], [-119.63249, 49.5661], [-119.63271, 49.56585], [-119.6329, 49.56565], [-119.63446, 49.55085], [-119.63441, 49.54794], [-119.62932, 49.54332], [-119.62895, 49.54299], [-119.62865, 49.5427], [-119.61765, 49.51403], [-119.61764, 49.51376], [-119.61762, 49.51345], [-119.61758, 49.50052], [-119.61768, 49.5003], [-119.61776, 49.50007], [-119.61861, 49.49617], [-119.61824, 49.49595], [-119.61794, 49.49584], [-119.61443, 49.49519], [-119.61429, 49.49517], [-119.6134, 49.49507], [-119.61116, 49.49467], [-119.6104, 49.49455], [-119.60912, 49.49428], [-119.60635, 49.49387], [-119.60504, 49.49363], [-119.60451, 49.49354], [-119.60394, 49.4934], [-119.60314, 49.4933], [-119.60301, 49.49327]]}}, {"type": "Feature", "properties": {"step": 24, "minutes": 21.2}, "geometry": {"type": "LineString", "coordinates": [[-119.66853, 49.58793], [-119.67621, 49.59734], [-119.67558, 49.59738], [-119.66896, 49.59867], [-119.66987, 49.59894], [-119.66979, 49.59942], [-119.66979, 49.5997], [-119.66823, 49.60271], [-119.6662, 49.60281], [-119.66562, 49.60281], [-119.66325, 49.60123], [-119.6568, 49.59852], [-119.65525, 49.59767], [-119.65472, 49.5974], [-119.65435, 49.59723], [-119.65116, 49.59608], [-119.6486, 49.59303], [-119.64845, 49.59224], [-119.64679, 49.59014], [-119.64582, 49.58861], [-119.64294, 49.58045], [-119.6415, 49.57948], [-119.6411, 49.57931], [-119.64062, 49.57915], [-119.63862, 49.57881], [-119.6314, 49.57415], [-119.63109, 49.57342], [-119.63103, 49.57205], [-119.63104, 49.57177], [-119.63105, 49.57153], [-119.63099, 49.57018], [-119.631, 49.56968], [-119.63176, 49.56701], [-119.63249, 49.5661], [-119.63271, 49.56585], [-119.6329, 49.56565], [-119.63446, 49.55085], [-119.63441, 49.54794], [-119.62932, 49.54332], [-119.62895, 49.54299], [-119.62865, 49.5427], [-119.61765, 49.51403], [-119.61764, 49.51376], [-119.61762, 49.51345], [-119.61758, 49.50052], [-119.61768, 49.5003], [-119.61776, 49.50007], [-119.61861, 49.49617], [-119.61824, 49.49595], [-119.61794, 49.49584], [-119.61443, 49.49519], [-119.61429, 49.49517], [-119.6134, 49.49507], [-119.61116, 49.49467], [-119.6104, 49.49455], [-119.60912, 49.49428], [-119.60635, 49.49387], [-119.60504, 49.49363], [-119.60451, 49.49354], [-119.60394, 49.4934], [-119.60314, 49.4933], [-119.60301, 49.49327]]}}]}